shopid,brand,name,lat,lng,zipcode,address,business_hour1,business_hour2,business_hour3
2067,なか卯,烏丸今出川店,35.0321901958516,135.759558774671,602-0021,京都府京都市上京区烏丸通上立売上ル東側,7:00～翌2:00　ラストオーダー 1:30,金土のみ 24時間営業,
2068,なか卯,一乗寺店,35.0434453934193,135.79208222203,606-8151,京都府京都市左京区一乗寺花ノ木町12,24時間営業,,
2069,なか卯,千林大宮店,34.7250249335619,135.549312601609,535-0002,大阪府大阪市旭区大宮3-20-27　高松ビル,24時間営業,,
2071,なか卯,桃谷駅前店,34.6578339564865,135.527209197869,543-0042,大阪府大阪市天王寺区烏ヶ辻1-1-6,5:00～翌2:00　ラストオーダー 1:45,,
2072,なか卯,天童店,38.360411732313,140.388688575864,994-0021,山形県天童市大字山元字鎌田2592,24時間営業,,
2073,なか卯,富山豊田店,36.7188419250714,137.233492589867,931-8313,富山県富山市豊田町1-12-25,24時間営業,,
2076,なか卯,四ツ橋店,34.6762653430139,135.496813651264,550-0013,大阪府大阪市西区新町1-6-23　四ツ橋大川ビル3号館1Ｆ,24時間営業,,
2077,なか卯,上新庄店,34.7485877599506,135.53735473193,533-0005,大阪府大阪市東淀川区瑞光1-7-22　サンスリーハイツ瑞光1Ｆ,24時間営業,,
2078,なか卯,三国ヶ丘駅前店,34.5647277739601,135.493679880797,590-0024,大阪府堺市堺区向陵中町4-7-30　三国ヶ丘NDビル1F,24時間営業,,
2080,なか卯,大島店,35.690177164067,139.837792560674,136-0072,東京都江東区大島6-30-11,5:00～翌2:00　ラストオーダー 1:45,,
2081,なか卯,天王寺駅北口店,34.6483758683528,135.515135913837,543-0055,大阪府大阪市天王寺区悲田院町4-10,24時間営業,,
2082,なか卯,京町堀店,34.6866335994216,135.492288549645,550-0003,大阪府大阪市西区京町堀2-2-3　サイトウビル1Ｆ,5:00～翌2:00　ラストオーダー 1:45,,
2083,なか卯,南行徳店,35.6721154963169,139.902060277202,272-0138,千葉県市川市南行徳1-20-14,24時間営業,,
2084,なか卯,狛江店,35.6320885449038,139.577043834856,201-0014,東京都狛江市元和泉1-8-8,24時間営業,,
2085,なか卯,川崎南町店,35.5258473330807,139.699946020003,210-0015,神奈川県川崎市川崎区南町19-7　伸成川崎中央ビル,24時間営業,,
2086,なか卯,堺狭山店,34.5011995191658,135.538536025249,590-0112,大阪府堺市南区岩室108-2,9:00～24:00　ラストオーダー 23:45,,
2087,なか卯,西中島店,34.7298607439419,135.49809691013,532-0011,大阪府大阪市淀川区西中島7-1-1　興北ビル1Ｆ,24時間営業,,
2089,なか卯,芝浦店,35.6465481441292,139.75396153174,105-0023,東京都港区芝浦1-12-7　岡田ビル1Ｆ,24時間営業,,
2091,なか卯,明大前店,35.6692972292754,139.650057168937,156-0043,東京都世田谷区松原2-46-7　明大前駅前ビル1Ｆ,24時間営業,,
2092,なか卯,亀戸店,35.6999128484426,139.825270096801,136-0071,東京都江東区亀戸2-36-14　長崎ビル,24時間営業,,
2093,なか卯,ＪＲ野田店,34.690177381871,135.476089731763,553-0006,大阪府大阪市福島区吉野2-2-6　西商ビル1Ｆ,24時間営業,,
2094,なか卯,梅田東店,34.7060058479954,135.501103592202,530-0014,大阪府大阪市北区鶴野町1-1　梅田セントラルビル1Ｆ,24時間営業,,
2095,なか卯,りんくう松原店,34.4058806418075,135.305373389429,598-0045,大阪府泉佐野市松原1-5-21,24時間営業,,
2096,なか卯,春日井篠木店,35.2578765184343,136.994622200542,486-0851,愛知県春日井市篠木町7-5-23,24時間営業,,
2097,なか卯,北見メッセ店,43.7977621315645,143.857613445831,090-0836,北海道北見市東三輪4-13-9,24時間営業,,
2098,なか卯,四条壬生店,35.0034210908719,135.74595067398,604-8811,京都府京都市中京区壬生賀陽御所町77-1　洛西メゾン1Ｆ,7:00～翌1:00　ラストオーダー 0:30,,
2099,なか卯,呉広店,34.2333706800061,132.613220747119,737-0114,広島県呉市広文化町1-6,24時間営業,,
2101,なか卯,梅田太融寺店,34.7021538372694,135.50552673557,530-0051,大阪府大阪市北区太融寺町2-19,24時間営業,,
2102,なか卯,みなと通店,34.663727407068,135.458691005758,552-0003,大阪府大阪市港区磯路3-1-18　ソレイユ磯路1Ｆ,24時間営業,,
2103,なか卯,都島本通店,34.7086457148069,135.525546440688,534-0021,大阪府大阪市都島区都島本通2-16-9,24時間営業,,
2105,なか卯,八丁堀店,35.675674148099,139.783055552128,104-0033,東京都中央区新川1-27-8,5:00～翌2:00　ラストオーダー 1:45,月のみ 24時間営業,
2106,なか卯,宇治槇島店,34.910067224968,135.779919929284,611-0041,京都府宇治市槇島町目川205-1,24時間営業,,
2108,なか卯,河原町丸太町店,35.0172402899484,135.768816749755,602-0873,京都府京都市上京区河原町通丸太町下ル伊勢屋町393-2,3:30～翌1:00　ラストオーダー 0:45,,
2109,なか卯,中津一丁目店,34.7101230977707,135.496087430315,531-0071,大阪府大阪市北区中津1-6-32　カレッジハウス中津プラザ,24時間営業,,
2110,なか卯,八尾店,34.618607106358,135.610458534801,581-0014,大阪府八尾市中田3-1,24時間営業,,
2111,なか卯,一宮インター店,35.2862636642092,136.8301164999,491-0833,愛知県一宮市平島1-1-30,5:00～翌2:00　ラストオーダー 1:45,,
2112,なか卯,岐阜島店,35.43162061128,136.734387756871,502-0936,岐阜県岐阜市萱場南1-1-1,24時間営業,,
2113,なか卯,湘南大磯店,35.3244291008153,139.331099815889,255-0001,神奈川県中郡大磯町高麗3-4-16,24時間営業,,
2115,なか卯,龍大前店,34.9590426192272,135.768433628053,612-0025,京都府京都市伏見区深草キトロ町33-1,24時間営業,,
2116,なか卯,恵美須店,34.6545697340972,135.504030717572,556-0003,大阪府大阪市浪速区恵美須西2-8-16,24時間営業,,
2117,なか卯,笹塚店,35.6738031387308,139.666104239871,151-0073,東京都渋谷区笹塚1-58-7,24時間営業,,
2118,なか卯,伊丹大鹿店,34.7891547456619,135.406462901067,664-0899,兵庫県伊丹市大鹿7-52-1,24時間営業,,
2119,なか卯,大山店,35.7487710480098,139.703323252393,173-0014,東京都板橋区大山東町21-6　高橋ビル,24時間営業,,
2120,なか卯,追浜駅前店,35.3162798698471,139.62737669672,237-0064,神奈川県横須賀市追浜町3-17,24時間営業,,
2121,なか卯,門真試験場前店,34.732807365322,135.593061387734,571-0038,大阪府門真市柳田町6-34,7:00～24:00　ラストオーダー 23:30,,
2122,なか卯,葛西店,35.6637527949704,139.871129897684,134-0083,東京都江戸川区中葛西5-19-17,24時間営業,,
2123,なか卯,松山衣山店,33.8513616693357,132.747850767602,791-8025,愛媛県松山市衣山1-1-17,24時間営業,,
2124,なか卯,摂津富田店,34.8363290814365,135.593696012635,569-0814,大阪府高槻市富田町1-6-5,24時間営業,,
2125,なか卯,美濃加茂山手店,35.4503168044332,137.012597402024,505-0036,岐阜県美濃加茂市山手町3-73,5:00～24:00　ラストオーダー 23:30,,
2126,なか卯,西川口店,35.8160247170492,139.704995016741,332-0034,埼玉県川口市並木3-1-1　第二福原ビル1Ｆ,24時間営業,,
2127,なか卯,横浜駒岡店,35.5254462111452,139.649161922713,230-0071,神奈川県横浜市鶴見区駒岡2-4-33,5:00～翌2:00　ラストオーダー 1:45,,
2128,なか卯,さくらんぼ東根駅前店,38.429492574897,140.382859490127,999-3716,山形県東根市さくらんぼ駅前1-7-25,24時間営業,,
2129,なか卯,帯広白樺店,42.9194821775768,143.173425708937,080-0051,北海道帯広市白樺16条西2-2-4,24時間営業,,
2130,なか卯,函館昭和店,41.8240737227543,140.736597691956,041-0812,北海道函館市昭和3-31-27,24時間営業,,
2133,なか卯,新大阪店,34.7278487538621,135.499066644462,532-0011,大阪府大阪市淀川区西中島3-23-9　中里第2ビル,24時間営業,,
2134,なか卯,河原町五条店,34.9962211118998,135.766676506476,600-8020,京都府京都市下京区河原町通五条上ル御影堂前町843　清水ビル１Ｆ,24時間営業,,
2135,なか卯,岸和田三田店,34.4546115533635,135.433324130448,596-0808,大阪府岸和田市三田町327-1,24時間営業,,
2136,なか卯,西院店,35.0033694131281,135.72909735379,615-0014,京都府京都市右京区西院巽町14番地　グランフォルム西院,24時間営業,,
2137,なか卯,安芸坂店,34.348690314683,132.519229631791,731-4311,広島県安芸郡坂町北新地2-2-24,24時間営業,,
2138,なか卯,茅場町店,35.6787409398554,139.777190897966,103-0025,東京都中央区日本橋茅場町3-1-11　旧大槻機材本社ビル1F,24時間営業,,
2139,なか卯,西葛西駅前店,35.6647063599948,139.858427853113,134-0088,東京都江戸川区西葛西6-7　メトロセンター西葛西Ｂ棟二号,24時間営業,,
2141,なか卯,山科三条通店,34.989605745815,135.816528226508,607-8080,京都府京都市山科区竹鼻竹ノ街道町34-5　ドエル竹鼻,24時間営業,,
2142,なか卯,堺福田店,34.5255677889346,135.525088242217,599-8241,大阪府堺市中区福田1054-1,24時間営業,,
2143,なか卯,二条城店,35.0096669069998,135.751406322183,604-8322,京都府京都市中京区姉小路通堀川西入ル樽屋町472-1　グレース吉田1Ｆ,24時間営業,,
2144,なか卯,大久保BP店,34.8710874615352,135.761507142229,611-0033,京都府宇治市大久保町且椋96-1,9:00～24:00　ラストオーダー 23:45,,
2145,なか卯,御器所店,35.1497936860935,136.933959437615,466-0027,愛知県名古屋市昭和区阿由知通3-23　ディーベス23　1Ｆ,24時間営業,,
2146,なか卯,東山公園店,35.160269628318,136.972537140278,464-0807,愛知県名古屋市千種区東山通5-113　オークラビル1Ｆ,5:00～翌2:00　ラストオーダー 1:45,,
2147,なか卯,西宮江上町店,34.7408193035459,135.339614567339,662-0855,兵庫県西宮市江上町8-12　エスポワール171,24時間営業,,
2149,なか卯,東銀座店,35.6719151337448,139.768757190462,104-0061,東京都中央区銀座2-11-8第22　中央ビル1Ｆ,24時間営業,土日 3:00～4:30クローズ,
2150,なか卯,姫路駅前店,34.8282650300809,134.692170977017,670-0927,兵庫県姫路市駅前町286,5:00～翌2:00　ラストオーダー 1:45,,
2151,なか卯,辻堂店,35.3367712171023,139.44831979034,251-0047,神奈川県藤沢市辻堂1-1-10,24時間営業,,
2152,なか卯,東京駅北口店,35.6836124731208,139.767578971909,100-0005,東京都千代田区丸の内1-7-7,24時間営業,,
2154,なか卯,仙台国分町店,38.2643365115208,140.869118933843,980-0803,宮城県仙台市青葉区国分町2-9-32　千鳥屋ビル1Ｆ,24時間営業,,
2155,なか卯,大津瀬田店,34.9909013041544,135.935939916486,520-2152,滋賀県大津市月輪1-91-1,24時間営業,,
2156,なか卯,札幌北２４条店,43.0904435935968,141.343465091066,001-0024,北海道札幌市北区北24条西4-2-5,24時間営業,,
2157,なか卯,宇都宮店,36.5598308181601,139.885851858004,320-0803,栃木県宇都宮市曲師町4-3　高嶋ビル,24時間営業,,
2158,なか卯,小伝馬町店,35.6902549875199,139.777273138729,103-0001,東京都中央区日本橋小伝馬町4-1　井門小伝馬町ビル,24時間営業,土のみ 5:00～翌2:00　ラストオーダー 1:45,
2159,なか卯,東海大学前店,35.3726795571071,139.271017583887,257-0003,神奈川県秦野市南矢名1-1-1　小田急マルシェ東海大学前内,24時間営業,,
2160,なか卯,札幌南郷通店,43.0312398258622,141.433144536077,003-0023,北海道札幌市白石区南郷通18丁目北1-3,24時間営業,,
2161,なか卯,東大宮店,35.9488624175073,139.639347129772,337-0051,埼玉県さいたま市見沼区東大宮4-8-1　クリスタルビル1F,24時間営業,,
2162,なか卯,堺筋博労町店,34.6780181041397,135.506593313919,541-0059,大阪府大阪市中央区博労町1-8-1　高島ビル1Ｆ,5:00～翌2:00　ラストオーダー 1:45　,,
2163,なか卯,札幌伏古店,43.0926222423341,141.390765506934,007-0868,北海道札幌市東区伏古8条2-1-1,24時間営業,,
2164,なか卯,阪急伊丹店,34.7799189129915,135.413556348353,664-0858,兵庫県伊丹市西台1-1-1,24時間営業,,
2165,なか卯,銀座七丁目店,35.6660970911305,139.765676880847,104-0061,東京都中央区銀座7-17-12　アソルティ東銀座1・2Ｆ,24時間営業,土日 2:00～3:30クローズ,
2166,なか卯,赤羽西口店,35.7791117002812,139.719720493528,115-0045,東京都北区赤羽1-67-8,24時間営業,,
2167,なか卯,札幌白石本通店,43.0427092187906,141.420914190335,003-0026,北海道札幌市白石区本通10丁目南3-5,24時間営業,,
2168,なか卯,赤坂溜池店,35.6702387298855,139.741732012071,107-0052,東京都港区赤坂2-10-9　ラウンドクロス赤坂1Ｆ,24時間営業,,
2169,なか卯,築地橋店,35.670369819057,139.773084124493,104-0045,東京都中央区築地2-1-17　陽光築地ビル1Ｆ,24時間営業,,
2171,なか卯,壱岐坂通り店,35.7041823494698,139.759237328611,113-0033,東京都文京区本郷2-15-10　第2大平ビル1Ｆ,24時間営業,,
2172,なか卯,新日本橋駅前店,35.6866348034991,139.776375324434,103-0023,東京都中央区日本橋本町1-5-11　ユニゾ日本橋本町一丁目ビル1Ｆ,24時間営業,,
2173,なか卯,小樽築港店,43.1884129193132,141.01422292316,047-0008,北海道小樽市築港8-4,24時間営業,,
2174,なか卯,稲毛海岸店,35.6299985386717,140.072775816558,261-0004,千葉県千葉市美浜区高洲1-21-1　三基ビル1Ｆ,24時間営業,,
2175,なか卯,本郷三丁目店,35.7076230979243,139.759544644653,113-0033,東京都文京区本郷4-2-8　フローラルビル1Ｆ,24時間営業,,
2176,なか卯,関内店,35.4419857739056,139.637851982853,231-0032,神奈川県横浜市中区不老町1-1-1　不老町守谷ビル1Ｆ,24時間営業,,
2177,なか卯,新琴似店,43.1196347712852,141.319292698847,001-0908,北海道札幌市北区新琴似8条11-1-11,24時間営業,,
2178,なか卯,札幌駅地下街店,43.0669353829996,141.349664269818,060-0005,北海道札幌市中央区北5条西4丁目　札幌駅南口広場地下街Ｗ-21,7:00～23:00　ラストオーダー 22:45,,
2179,なか卯,八王子店,35.6593148116257,139.339201222677,192-0081,東京都八王子市横山町3-10　日本地建ビル1Ｆ,24時間営業,,
2180,なか卯,人形町店,35.6852655771046,139.78047421374,103-0013,東京都中央区日本橋人形町1-2-5　ＥＲＶＩＣ人形町ビル1F,24時間営業,土のみ 5:00～翌2:00　ラストオーダー 1:45,
2181,なか卯,川沿店,42.980169982115,141.336100502652,005-0812,北海道札幌市南区川沿12条2-3-5,24時間営業,,
2182,なか卯,新札幌店,43.0406394745396,141.470589882341,004-0053,北海道札幌市厚別区厚別中央3条5-1-3,24時間営業,,
2183,なか卯,西尾店,34.8678777046273,137.043889122702,445-0891,愛知県西尾市下町神明下62-2,24時間営業,,
2184,なか卯,蕨店,35.8277198674112,139.689801851107,335-0004,埼玉県蕨市中央1-1-1,24時間営業,,
2185,なか卯,春日部店,35.9774852097325,139.751834247611,344-0067,埼玉県春日部市中央1-52-1　春日部セントラルビル1Ｆ,24時間営業,,
2186,なか卯,取手店,35.8995927321828,140.055380125096,302-0023,茨城県取手市白山6-1-17,24時間営業,,
2187,なか卯,南砂町店,35.6726728776305,139.835067759649,136-0076,東京都江東区南砂6-7-15,24時間営業,,
2188,なか卯,北本中丸店,36.0225334106155,139.543021459445,364-0013,埼玉県北本市中丸1-63,24時間営業,,
2190,なか卯,曲川店,34.5079871978159,135.765257717001,634-0837,奈良県橿原市曲川町6-7-15,24時間営業,,
2191,なか卯,旭川シーナ店,43.8056232392993,142.426604983362,079-8413,北海道旭川市永山3条15-1-7,24時間営業,,
2192,なか卯,烏丸高辻店,34.999190121113,135.759940262535,600-8415,京都府京都市下京区烏丸通松原上ル因幡堂町677番地,10:00～24:00　ラストオーダー 23:45,,
2193,なか卯,神谷町店,35.6646199656787,139.746269116217,105-0001,東京都港区虎ノ門3-7-10　ランディック虎ノ門ビル1Ｆ,24時間営業,,
2195,なか卯,江坂店,34.7573550491358,135.499458308822,564-0052,大阪府吹田市広芝町4-28　アルデール江坂1F,24時間営業,,
2196,なか卯,江古田店,35.7367753764903,139.670937327709,176-0006,東京都練馬区栄町2-5　アーバン江古田ビル1F,24時間営業,,
2197,なか卯,松屋町店,34.6861078857859,135.511824729169,540-0021,大阪府大阪市中央区大手通2-3-4　福本ビル,10:00～23:00　ラストオーダー 22:45,,
2198,なか卯,四谷三丁目店,35.6877089911153,139.72054157858,160-0004,東京都新宿区四谷3-8-4　中央ビルディング1F,24時間営業,,
2199,なか卯,交野店,34.7789484607617,135.683875332182,576-0036,大阪府交野市森北1-4-4,24時間営業,,
2200,なか卯,赤坂七丁目店,35.6694667071523,139.732522534681,107-0052,東京都港区赤坂7-10-9　赤坂伊藤ビル1F,24時間営業,,
2201,なか卯,椎名町店,35.7266204894218,139.694733041319,171-0051,東京都豊島区長崎1-1-22　椎名町名店コーナー,24時間営業,,
2202,なか卯,レプサモールつくば店,36.0514293090238,140.13716078615,305-0063,茨城県つくば市大字下原380-5,24時間営業,,
2203,なか卯,祖師ヶ谷大蔵店,35.6437242418079,139.608678727376,157-0072,東京都世田谷区祖師谷3-33-1,24時間営業,,
2204,なか卯,醍醐店,34.9609765214589,135.812845128446,607-8258,京都府京都市山科区小野西浦21-1,24時間営業,,
2205,なか卯,烏丸夷川店,35.0147717858587,135.759827887716,604-0851,京都府京都市中京区夷川烏丸東入ル西九軒町291番地,24時間営業,,
2206,なか卯,成増店,35.7775511187791,139.629165308136,175-0094,東京都板橋区成増1-31-6　成増クリーンビル1F,24時間営業,,
2207,なか卯,十日市場店,35.5258882775098,139.515724373114,226-0025,神奈川県横浜市緑区十日市場町805-3,24時間営業,,
2208,なか卯,萩之茶屋店,34.6462824447387,135.497148337417,557-0016,大阪府大阪市西成区花園北2-5-12,24時間営業,,
2209,なか卯,桜井店,34.5088236367413,135.836855065724,633-0065,奈良県桜井市吉備568-1,24時間営業,,
2210,なか卯,箕面西宿店,34.8275348628345,135.48916343225,562-0034,大阪府箕面市西宿2-22-7,24時間営業,,
2211,なか卯,北花田店,34.5825532139554,135.516704092298,591-8002,大阪府堺市北区北花田町2-4-1,24時間営業,,
2214,なか卯,京阪守口店,34.7347736030603,135.564642823998,570-0056,大阪府守口市寺内町2-2-15,7:00～23:00　ラストオーダー 22:45,,
2215,なか卯,肥後橋店,34.6913325751989,135.494231505245,550-0001,大阪府大阪市西区土佐堀1-3-7　肥後橋シミズビル,24時間営業,,
2216,なか卯,阿佐ヶ谷駅北口店,35.7064810632422,139.63606634089,166-0001,東京都杉並区阿佐谷北2-15-1,24時間営業,,
2217,なか卯,茗荷谷店,35.7169939353451,139.737647142835,112-0006,東京都文京区小日向4-6-22　アセント茗荷谷1F,24時間営業,,
2218,なか卯,神戸谷上店,34.7616588164748,135.168993888751,651-1243,兵庫県神戸市北区谷上西町2-6,24時間営業,,
2219,なか卯,中央環状堺店,34.558424785387,135.538432009961,591-8014,大阪府堺市北区八下北1-60,24時間営業,,
2220,なか卯,大和高田店,34.5155665195268,135.741032157686,635-0087,奈良県大和高田市内本町3-8,24時間営業,,
2221,なか卯,亀有店,35.7662741887213,139.847183832273,125-0061,東京都葛飾区亀有3-25-1,24時間営業,,
2222,なか卯,垂水海岸通店,34.6282436693554,135.043326857506,655-0036,兵庫県神戸市垂水区海岸通8-23,24時間営業,,
2223,なか卯,昭和町店,34.6329450534665,135.517118126421,545-0011,大阪府大阪市阿倍野区昭和町1-21-25　有美ビル1F,24時間営業,,
2224,なか卯,千駄木店,35.7232423094116,139.762338137886,113-0022,東京都文京区千駄木2-13-1　ルネ千駄木プラザ1F,24時間営業,,
2225,なか卯,住之江公園店,34.608636370656,135.475478814975,559-0015,大阪府大阪市住之江区南加賀屋2-1-4,24時間営業,,
2226,なか卯,仙台大和町店,38.2482917061488,140.925135853833,984-0052,宮城県仙台市若林区大和町5-30-3,5:00～翌2:00　ラストオーダー 1:45,,
2228,なか卯,聖蹟桜ヶ丘店,35.6510162140736,139.448188386848,206-0011,東京都多摩市関戸2-41-1,24時間営業,,
2229,なか卯,姫路南インター店,34.8106364524713,134.681557114672,672-8048,兵庫県姫路市飾磨区三宅3-29,24時間営業,,
2230,なか卯,南巽店,34.6430371086912,135.553453255226,544-0014,大阪府大阪市生野区巽東2-20-20,24時間営業,,
2231,なか卯,橋本店,35.5943346421114,139.345062894662,252-0143,神奈川県相模原市緑区橋本2-3-2,24時間営業,,
2232,なか卯,中山店,35.515216,139.54015159999994,226-0011,神奈川県横浜市緑区中山1-22-1 中山駅前エストビル1F,24時間営業,,
2233,なか卯,武蔵浦和駅前店,35.8459732995531,139.648205853995,336-0021,埼玉県さいたま市南区別所7-6-7,24時間営業,,
2234,なか卯,潮見店,35.6590529083534,139.817035995437,135-0052,東京都江東区潮見2-7-16,24時間営業,,
2235,なか卯,摂津本山店,34.7242989297387,135.2806630017,658-0015,兵庫県神戸市東灘区本山南町8-5-23　オルゴラード1F,24時間営業,,
2236,なか卯,久世橋通店,34.9661921116949,135.735449093734,601-8349,京都府京都市南区吉祥院池田町47-2,24時間営業,,
2237,なか卯,熊取店,34.4023196168808,135.352112449544,590-0451,大阪府泉南郡熊取町野田2-12-11,24時間営業,,
2238,なか卯,せんげん台店,35.9356823109209,139.775175067398,343-0042,埼玉県越谷市千間台東町1-10-1,24時間営業,,
2239,なか卯,大和郡山店,34.6276647964083,135.804025097752,639-1119,奈良県大和郡山市発志院町179-1,24時間営業,,
2240,なか卯,京都八条口店,34.983823423535,135.759489340904,601-8002,京都府京都市南区東九条上殿田町53-1　第一土木ビル1F,24時間営業,,
2241,なか卯,長田三番町店,34.6681344014225,135.154577448074,653-0011,兵庫県神戸市長田区三番町4-8,24時間営業,,
2242,なか卯,七条新町店,34.9891283610207,135.756589615226,600-8310,京都府京都市下京区七条通新町西入夷之町721,24時間営業,,
2243,なか卯,関目店,34.7154872843337,135.545976651168,535-0031,大阪府大阪市旭区高殿4-22-33,24時間営業,,
2244,なか卯,高石羽衣店,34.5343225653136,135.43867390461,592-0002,大阪府高石市羽衣2-5-30,9:00～22:00　ラストオーダー21:45,,
2245,なか卯,神戸元町店,34.6886474862795,135.18644996764,650-0022,兵庫県神戸市中央区元町通2-10-1,24時間営業,,
2246,なか卯,尼崎昭和通店,34.7213327305027,135.416481580896,660-0892,兵庫県尼崎市東難波町5-18-8　ドミール・カクタス尼崎,24時間営業,,
2247,なか卯,姫路名古山店,34.8443772570264,134.679785152622,670-0028,兵庫県姫路市岩端町149-2,24時間営業,,
2248,なか卯,和泉府中店,34.4861942865366,135.41743121828,594-0076,大阪府和泉市肥子町2-4-36,24時間営業,,
2249,なか卯,西田辺店,34.6218353792574,135.515447943359,545-0011,大阪府大阪市阿倍野区昭和町5-12-24,24時間営業,,
2250,なか卯,堺筋周防町店,34.6718170980926,135.506441945359,542-0082,大阪府大阪市中央区島之内2-13-25,24時間営業,,
2251,なか卯,蘇我店,35.5814631008543,140.132170618773,260-0842,千葉県千葉市中央区南町2-10-17　STCビル,24時間営業,,
2252,なか卯,府大前店,34.5500701220952,135.506548931415,591-8023,大阪府堺市北区中百舌鳥町6丁996-2,5:00～翌2:00　ラストオーダー 1:45,,
2253,なか卯,西新宿店,35.694795216294,139.690950654226,160-0023,東京都新宿区西新宿6-10-2,24時間営業,,
2254,なか卯,摩耶ランプ店,34.7017573333943,135.2261696764,657-0853,兵庫県神戸市灘区灘浜町3-46,24時間営業,,
2255,なか卯,五反田店,35.6242174894888,139.722866809049,141-0031,東京都品川区西五反田1-26-4　和晃ビル1F,24時間営業,,
2256,なか卯,宮の森東店,43.068527548894,141.308480950074,063-0803,北海道札幌市西区二十四軒3条7-1-13　宮の森24ビル,24時間営業,,
2257,なか卯,すすきの西店,43.0499297071133,141.349960583821,064-0808,北海道札幌市中央区南8条西6-7-11　アン・セリジェ弐番館,24時間営業,,
2258,なか卯,円町店,35.0183997872694,135.731235928528,604-8463,京都府京都市中京区西ノ京円町8番地,24時間営業,,
2260,なか卯,市原店,35.5239064272276,140.09737976953,290-0051,千葉県市原市君塚5-28-1,24時間営業,,
2261,なか卯,千葉富士見店,35.6097731825956,140.11937371129,260-0015,千葉県千葉市中央区富士見2丁目12-2　柳田ビル1F,24時間営業,,
2263,なか卯,橿原店,34.4876640793748,135.796236635599,634-0046,奈良県橿原市栄和町35-1,24時間営業,,
2264,なか卯,平井南口店,35.7054820320829,139.844441859272,132-0035,東京都江戸川区平井4-8-13　レジェンド平井,24時間営業,,
2265,なか卯,平塚西口店,35.3277293050573,139.347098613018,254-0043,神奈川県平塚市紅谷町16-2　平塚西口会館,24時間営業,,
2266,なか卯,箕面桜井店,34.8152337747943,135.462867015902,562-0043,大阪府箕面市桜井3-3-4,24時間営業,,
2267,なか卯,四街道駅前店,35.6634640596169,140.164400555117,284-0005,千葉県四街道市四街道1-5-3　伸和ビル,24時間営業,,
2268,なか卯,豊水すすきの店,43.0564813447692,141.35661306299,064-0804,北海道札幌市中央区南4条西1-5-2　SB4-1ビル,24時間営業,,
2269,なか卯,飯田橋東口店,35.7000078777492,139.748016230511,102-0072,東京都千代田区飯田橋4-1-1　飯田橋ISビル1F,24時間営業,,
2270,なか卯,千歳店,42.8316279532747,141.646184923633,066-0036,北海道千歳市北栄2-2-35,5:00～翌2:00　ラストオーダー 1:45,,
2271,なか卯,喜連瓜破店,34.6089395920448,135.550440353303,547-0024,大阪府大阪市平野区瓜破2-1-2　藤井ビル,24時間営業,,
2272,なか卯,長田東店,34.6791080975989,135.592406970315,577-0012,大阪府東大阪市長田東2-1-35,24時間営業,,
2273,なか卯,高岳店,35.1750489796346,136.914582106183,461-0001,愛知県名古屋市東区泉2-26-1　ホウコクビル,24時間営業,,
2274,なか卯,桜川店,34.6680997064317,135.489880991905,556-0022,大阪府大阪市浪速区桜川2-2-23,24時間営業,,
2276,なか卯,大泉学園店,35.7514759291209,139.585858438743,178-0063,東京都練馬区東大泉3-19-6　第一豊田ビル,24時間営業,,
2277,なか卯,若江東店,34.6549582540841,135.612511968191,578-0935,大阪府東大阪市若江東町4-4-1,24時間営業,,
2278,なか卯,鳴海店,35.0765856586978,136.948462992988,458-0801,愛知県名古屋市緑区鳴海町字京田10番地,24時間営業,,
2279,なか卯,駒込店,35.7349960718979,139.747561879374,113-0021,東京都文京区本駒込6-24-3　富士ビル1階,24時間営業,金土日 5:00～翌2:00,
2280,なか卯,旭川四条通店,43.7618382986499,142.38452493867,078-8214,北海道旭川市4条通23-5-8,24時間営業,,
2281,なか卯,南塚口店,34.7498448748074,135.411684277528,661-0012,兵庫県尼崎市南塚口町8-10-3,24時間営業,,
2282,なか卯,横堤店,34.7034537771275,135.573654628863,538-0052,大阪府大阪市鶴見区横堤3-10-20　ベル・ビュー横堤,24時間営業,,
2284,なか卯,新田辺店,34.8207482994076,135.771570846625,610-0334,京都府京田辺市田辺中央1-4-3,24時間営業,,
2285,なか卯,東新町店,35.1691615611221,136.91500123136,460-0007,愛知県名古屋市中区新栄1-1-2　名北東新町ビル,24時間営業,,
2286,なか卯,浜寺石津店,34.561581349461,135.456471449139,592-8334,大阪府堺市西区浜寺石津町中1-6-18,24時間営業,,
2287,なか卯,大阪空港前店,34.7931124756627,135.443865445912,560-0036,大阪府豊中市蛍池西町2-11-35,24時間営業,,
2288,なか卯,南堀江店,34.671855813048,135.496721361973,550-0015,大阪府大阪市西区南堀江1-1-12　平和土地四ツ橋ビル,24時間営業,,
2289,なか卯,中村公園店,35.1688919316703,136.855050389306,453-0053,愛知県名古屋市中村区中村町8-39　赤鳥居ビル,平日 4:00～翌3:00　ラストオーダー 2:45,土日 5:00～翌2:00　ラストオーダー 1:45,
2290,なか卯,要町店,35.7330712957043,139.700880289312,171-0014,東京都豊島区池袋3-1-12　三恵池袋ハイツ101号,24時間営業,,
2291,なか卯,R22康生通店,35.192476213216,136.878823162352,451-0066,愛知県名古屋市西区児玉3-40-37,24時間営業,,
2292,なか卯,宮之阪店,34.8146602682722,135.656175432666,573-0022,大阪府枚方市宮之阪1-9-37　宮之阪ショッピングテラス,24時間営業,,
2293,なか卯,上本町店,34.6656071460272,135.518867866013,543-0001,大阪府大阪市天王寺区上本町6-3-31-104　うえほんまちハイハイタウン,8:00～22:00　ラストオーダー 21:45,,
2294,なか卯,豊中少路店,34.8032163419925,135.472639257689,560-0004,大阪府豊中市少路1-1-25,24時間営業,,
2295,なか卯,ＪＲ二条駅前店,35.0117298273228,135.740393808438,604-8416,京都府京都市中京区西ノ京星池町39-1,24時間営業,,
2296,なか卯,中野南口店,35.7032299780216,139.665348780934,164-0001,東京都中野区中野3-33-3　インツ中野ビル1Ｆ,24時間営業,,
2297,なか卯,木場店,35.6691663573813,139.806075328908,135-0042,東京都江東区木場5-2-2　川周ビル1Ｆ,24時間営業,,
2298,なか卯,布施店,34.6633192715055,135.562930423118,577-0841,大阪府東大阪市足代1-12-16,24時間営業,,
2300,なか卯,加古川店,34.7429584410997,134.84215994866,675-0016,兵庫県加古川市野口町長砂字三明1011-1,24時間営業,,
2301,なか卯,新堀川店,34.942824621534,135.751949354954,612-8373,京都府京都市伏見区毛利町90番,24時間営業,,
2302,なか卯,今池店,35.1696313477222,136.93746628847,464-0850,愛知県名古屋市千種区今池4-9-1,24時間営業,,
2304,なか卯,新小岩店,35.715763988877,139.86040200479,124-0024,東京都葛飾区新小岩1-50-8　アビタシオンTOKYO1F,24時間営業,,
2306,なか卯,茨木美沢店,34.7965984207726,135.567027001385,567-0862,大阪府茨木市美沢町16-32,24時間営業,,
2307,なか卯,河原町三条店,35.0086148304045,135.769203781454,604-8031,京都府京都市中京区河原町通三条下ル大黒町35番地,24時間営業,,
2309,なか卯,大須店,35.1596743601983,136.905834096204,460-0011,愛知県名古屋市中区大須3-30-27,5:00～翌2:00　ラストオーダー 1:45,,
2310,なか卯,R309松原店,34.5701009726304,135.550678510805,580-0021,大阪府松原市高見の里6-26-7,24時間営業,,
2311,なか卯,朝霞店,35.7919548342405,139.580215654561,351-0014,埼玉県朝霞市膝折町2-11-14,24時間営業,,
2312,なか卯,ベガロポリス仙台南店,38.2199645031652,140.848192714934,982-0034,宮城県仙台市太白区西多賀5-24-1,5:00～翌2:00　ラストオーダー 1:45,金土祝前日のみ 24時間営業,
2314,なか卯,三宮北口店,34.6950847087873,135.19407903764,651-0097,兵庫県神戸市中央区布引町4-2-3　片山ビル1F,24時間営業,,
2315,なか卯,蒲田駅西口店,35.562957752801,139.712678809298,144-0051,東京都大田区西蒲田7-43-2　ソアラプラザ1F,24時間営業,,
2316,なか卯,広島大手町店,34.3885782593041,132.454979797638,730-0051,広島県広島市中区大手町3-1-11平野ビル１F,24時間営業,,
2317,なか卯,上福岡店,35.8735476674186,139.510521018886,356-0006,埼玉県ふじみ野市霞ヶ丘1-2-3　ココネ上福岡一番館,24時間営業,,
2318,なか卯,JR福山駅店,34.4890766744682,133.361312677667,720-0066,広島県福山市三之丸町30-1　さんすて福山2番街第2-7号,24時間営業,,
2319,なか卯,イオン茅ヶ崎中央店,35.3359999475847,139.402722779312,253-0041,神奈川県茅ヶ崎市茅ヶ崎3-5-16　イオン茅ヶ崎中央店内,10:00～21:00　ラストオーダー 20:15,,
2320,なか卯,仙台駅東口店,38.2606666551263,140.886673478273,983-0852,宮城県仙台市宮城野区榴岡3-2-1,24時間営業,,
2324,なか卯,新開地店,34.6768073561844,135.170110203176,652-0802,兵庫県神戸市兵庫区水木通1-1-2　阿部ビル1Ｆ,24時間営業,,
2325,なか卯,広島幟町店,34.3934037931604,132.467383823072,730-0016,広島県広島市中区幟町15-9　藤本ビル1F,24時間営業,,
2326,なか卯,神田岩本町店,35.6946805826559,139.774833693094,101-0033,東京都千代田区神田岩本町4　神田北辰ビル1Ｆ,24時間営業,,
2327,なか卯,三田店,34.4546115533635,135.433324130448,108-0073,東京都港区三田3-9-7　ニキグラスビルディング1Ｆ,24時間営業,,
2328,なか卯,阪急石橋店,34.8071381819656,135.442965430375,563-0032,大阪府池田市石橋1-8-12　アゼリアタワービル1Ｆ,24時間営業,,
2329,なか卯,盛岡大通り店,39.7034557498688,141.145871349712,020-0022,岩手県盛岡市大通2-6-5　ポプラ大通ビル1Ｆ,24時間営業,,
2330,なか卯,東船橋店,35.6994549059215,140.003866952248,273-0002,千葉県船橋市東船橋1-37-9　大澤ビル1Ｆ,24時間営業,,
2332,なか卯,なんさん通店,34.6629613660287,135.505719913101,556-0005,大阪府大阪市浪速区日本橋3-6-28　浪花善哉1・2F,24時間営業,,
2333,なか卯,小滝橋通り店,35.6955985901114,139.698187793973,160-0023,東京都新宿区西新宿7-8-12　昇立ビル1F,24時間営業,,
2334,なか卯,豊洲店,35.653662843936,139.796244914756,135-0061,東京都江東区豊洲5-5-1　豊洲シエルタワー117,24時間営業,,
2335,なか卯,奈良新庄店,34.4884556731857,135.733302103582,639-2113,奈良県葛城市北花内630-1,24時間営業,,
2336,なか卯,新瑞橋店,35.1175060812629,136.936980951198,467-0806,愛知県名古屋市瑞穂区瑞穂通8-17-2　さくらHillsARATAMA1F,4:00～翌1:00　ラストオーダー 0:45,,
2337,なか卯,八戸ノ里店,34.6696340475316,135.588776319198,577-0032,大阪府東大阪市御厨中2-5-4,24時間営業,,
2338,なか卯,上川井店,35.4946370051582,139.505959678638,241-0802,神奈川県横浜市旭区上川井町37-1,24時間営業,,
2339,なか卯,守谷店,35.9592951461547,139.986667804712,302-0110,茨城県守谷市百合ヶ丘1-2024,24時間営業,,
2340,なか卯,甲府国母店,35.6437033022889,138.552892243783,400-0043,山梨県甲府市国母3-15-31,24時間営業,,
2341,なか卯,鯖江五郎丸店,35.9398928767438,136.191629983682,916-0046,福井県鯖江市横江町2-6-9,24時間営業,,
2342,なか卯,龍ヶ崎店,35.938269707534,140.198570618973,301-0855,茨城県龍ヶ崎市藤ヶ丘3-1-9,24時間営業,,
2343,なか卯,泉岳寺前店,35.6379157475274,139.738826241761,108-0074,東京都港区高輪2-16-35　高輪チトセハイツ1Ｆ,24時間営業,,
2345,なか卯,東池袋向原店,35.7298737080355,139.723989072943,170-0013,東京都豊島区東池袋2-6-2　ロイヤルアネックスビル101,24時間営業,,
2347,なか卯,ハイパーアロー松ヶ丘店,34.4748794277003,135.562961875325,586-0007,大阪府河内長野市松ヶ丘東町1277-1,9:00～24:00　ラストオーダー 23:45,,
2348,なか卯,戸越店,35.6149997593689,139.716858843562,142-0041,東京都品川区戸越3-1-17　ユニオンビルヂング1Ｆ,24時間営業,,
2349,なか卯,三郷駅南口店,35.844436506921,139.886027285016,341-0024,埼玉県三郷市三郷1-1-10　徳重ビル1Ｆ,24時間営業,,
2350,なか卯,立命館大学前店,35.0346729822645,135.727548263236,603-8355,京都府京都市北区平野上柳町10-18,10:00～24:00　ラストオーダー 23:45,,
2352,なか卯,ラウンドワン秋田卸町店,39.7016556158733,140.109403343663,010-0061,秋田県秋田市卸町1-1-2　ラウンドワン1F,24時間営業,,
2353,なか卯,上賀茂店,35.0573070705936,135.750343661206,603-8831,京都府京都市北区大宮北ノ岸町11　バイロンビル101,24時間営業,,
2354,なか卯,古河上辺見店,36.1936907572807,139.739476429465,306-0234,茨城県古河市上辺見341-6,24時間営業,,
2355,なか卯,袋井店,34.7501106448829,137.92231909268,437-0014,静岡県袋井市永楽町300-1,24時間営業,,
2356,なか卯,瑞江駅前店,35.6935853345176,139.897045538389,132-0011,東京都江戸川区瑞江2-6-16,24時間営業,,
2358,なか卯,新座道場店,35.7723880435103,139.564615351139,352-0024,埼玉県新座市道場1-10-25,24時間営業,,
2359,なか卯,各務原鵜沼店,35.4030703583958,136.89494323753,509-0146,岐阜県各務原市鵜沼三ツ池3-99-1,24時間営業,,
2362,なか卯,秋葉原昭和通り口店,35.6972445607604,139.779739000983,101-0025,東京都千代田区神田佐久間町4-1　ベラカーサ秋葉原102号室,24時間営業,,
2365,なか卯,新座大和田店,35.8075629189186,139.550236870014,352-0004,埼玉県新座市大和田2-5-30　東栄商事新座ビルB1F,24時間営業,,
2366,なか卯,調布北口店,35.6533078984669,139.542749872523,182-0026,東京都調布市小島町1-35-3　濱乃家ビル1Ｆ,24時間営業,,
2367,なか卯,河内小阪駅前店,34.6639539668529,135.581181100412,577-0801,大阪府東大阪市小阪1-8-41,24時間営業,,
2368,なか卯,羽島竹鼻店,35.3170616152903,136.710574176303,501-6232,岐阜県羽島市竹鼻町狐穴字壷柄山461-1,24時間営業,,
2369,なか卯,神栖店,35.9052744828186,140.635671670784,314-0146,茨城県神栖市平泉2758-5,24時間営業,,
2370,なか卯,堺もず店,34.5473665844792,135.494201470239,591-8033,大阪府堺市北区百舌鳥西之町3丁505-2,24時間営業,,
2371,なか卯,福井社店,36.0566553225702,136.187897972647,918-8055,福井県福井市若杉2-1535,24時間営業,,
2372,なか卯,茨城石岡店,36.1920703192004,140.292874156013,315-0001,茨城県石岡市石岡2929-1,5:00～翌2:00　ラストオーダー 1:45,,
2373,なか卯,榛原吉田町店,34.7628838396944,138.24704848048,421-0301,静岡県榛原郡吉田町住吉1164-2,24時間営業,,
2374,なか卯,小田急町田北口店,35.5449669407403,139.44470328173,194-0022,東京都町田市森野1-19-15,24時間営業,,
2375,なか卯,郡山大町店,37.3983465143211,140.384936243022,963-8001,福島県郡山市大町1-3-18　SE大町ビル,24時間営業,,
2376,なか卯,湖西店,34.7066154140063,137.547343348001,431-0301,静岡県湖西市新居町中之郷3896,10:00～23:00　ラストオーダー22:45,,
2377,なか卯,所沢東町店,35.7892993198022,139.470892356039,359-1116,埼玉県所沢市東町12-3,24時間営業,,
2378,なか卯,西船橋駅前店,35.7084384340059,139.958707789013,273-0031,千葉県船橋市西船4-22-3　栄華光ビル1.2F,24時間営業,,
2379,なか卯,外環状河内長野店,34.4434267686328,135.552088393317,586-0036,大阪府河内長野市高向828-1,24時間営業,,
2382,なか卯,新越谷店,35.8719766933977,139.779095730782,343-0851,埼玉県越谷市新越谷2-9-6,24時間営業,,
2383,なか卯,上尾柏座店,35.9687153790701,139.580605260734,362-0075,埼玉県上尾市柏座4-6-10,24時間営業,,
2384,なか卯,東近江八日市店,35.108037592576,136.202192966222,527-0025,滋賀県東近江市八日市東本町3-36,10:00～翌1:00　ラストオーダー 0:45,金土のみ 24時間営業,
2385,なか卯,池袋二丁目店,35.7359336476383,139.709931072517,171-0014,東京都豊島区池袋2-67-6　エリゼー池袋,24時間営業,,
2386,なか卯,富士吉田新西原店,35.4826928272981,138.780167727214,403-0017,山梨県富士吉田市新西原4-12-12,10:00～翌5:00　ラストオーダー4:45,,
2387,なか卯,津乙部店,34.723238140597,136.517108975941,514-0016,三重県津市大字乙部字神子2137,24時間営業,,
2389,なか卯,菰野湯の山街道店,35.0014212201136,136.536239299981,510-1231,三重県三重郡菰野町神森436-2,日～木 5:00～翌2:00　ラストオーダー 1:45,金土祝前日のみ 9:00～22:00　ラストオーダー 21:45,　
2390,なか卯,西条大町店,33.9087169051124,133.192075678549,793-0030,愛媛県西条市大町200-3,24時間営業,,
2391,なか卯,伏見桃山店,34.9328833864287,135.76348940988,612-8081,京都府京都市伏見区新町4-453-1　八甲ビル,24時間営業,,
2392,なか卯,アロー志紀店,34.6033548749763,135.611953835155,581-0031,大阪府八尾市志紀町1-123,5:00～翌2:00　ラストオーダー 1:45,,
2393,なか卯,長崎新田店,35.0090326604289,138.446409478266,424-0064,静岡県静岡市清水区長崎新田117-2,24時間営業,,
2394,なか卯,四日市羽津店,35.0116725330522,136.626470223234,510-0012,三重県四日市市大字羽津4670-1,24時間営業,,
2395,なか卯,岡崎若松東店,34.9140246588412,137.168000857085,444-0822,愛知県岡崎市若松東1-9-13,9:00～24:00　ラストオーダー 23:45,,
2396,なか卯,獨協大学前駅東口店,35.8437553900601,139.802013738073,340-0011,埼玉県草加市栄町2-9-15　ファーストビル1F,24時間営業,,
2397,なか卯,広島西十日市店,34.3979204263539,132.445416828324,730-0806,広島県広島市中区西十日市町9-13　第3NYビル,24時間営業,,
2398,なか卯,秋田土崎港店,39.7677528285175,140.068323433973,011-0951,秋田県秋田市土崎港相染町字沼端77-20,24時間営業,,
2399,なか卯,築地二丁目店,35.667800325746,139.77045501671,104-0045,東京都中央区築地2-14-1　ヒューリック築地ビル,24時間営業,,
2400,なか卯,渋谷宇田川町店,35.6624032031046,139.695398720809,150-0042,東京都渋谷区宇田川町37-13,24時間営業,,
2401,なか卯,2国明石大久保店,34.683129632206,134.941558337525,674-0051,兵庫県明石市大久保町大窪547-2,24時間営業,,
2402,なか卯,170号八尾大竹店,34.6387098218395,135.634574217462,581-0854,大阪府八尾市大竹1-19,10:00～24:00　ラストオーダー 23:45,,
2403,なか卯,長浜八幡東町店,35.3821865996277,136.281527365013,526-0031,滋賀県長浜市八幡東町248,24時間営業,,
2404,なか卯,秋葉原店,35.703010220233,139.773285938081,110-0005,東京都台東区上野3-2-1　エクセレントビル1Ｆ,24時間営業,,
2405,なか卯,平塚南金目店,35.3571831932786,139.272977023604,259-1201,神奈川県平塚市南金目376-1,4:30～翌2:00　ラストオーダー 1:45,,
2406,なか卯,川崎水沢店,35.5935065145842,139.54260680473,216-0012,神奈川県川崎市宮前区水沢3-4-15,24時間営業,,
2407,なか卯,東海名和店,35.0453450534208,136.913342626009,476-0002,愛知県東海市名和町細田42-4,24時間営業,,
2408,なか卯,船橋前原東店,35.6928945917702,140.02522353624,274-0824,千葉県船橋市前原東1-6-3,24時間営業,,
2409,なか卯,綾瀬大上店,35.4571290946967,139.427712070815,252-1104,神奈川県綾瀬市大上1-23-25,5:00～翌2:00　ラストオーダー 1:45,,
2410,なか卯,名古屋伏見店,35.1679083080268,136.89601786562,460-0008,愛知県名古屋市中区栄1-4-9　＠STEPビル,5:00～翌2:00　ラストオーダー 1:45,,
2411,なか卯,名駅南店,35.1667735282832,136.885775990673,450-0003,愛知県名古屋市中村区名駅南1-23-20　ダイワロイネットホテル名古屋駅前1F,24時間営業,,
2412,なか卯,1国岡崎矢作店,34.9620924128654,137.14292822598,444-0943,愛知県岡崎市矢作町字西林寺36-7,5:00～翌2:00　ラストオーダー 1:45,,
2413,なか卯,大正千島店,34.6485186927393,135.470970686253,551-0003,大阪府大阪市大正区千島3-19-8,24時間営業,,
2414,なか卯,天王台駅前店,35.872119017935,140.040268200759,270-1143,千葉県我孫子市天王台1-24-3　MAビル1F,24時間営業,,
2415,なか卯,瑞穂店,35.3884017314903,136.692897081611,501-0223,岐阜県瑞穂市穂積字中原1624-4,7:00～24:00　ラストオーダー 23:30,,
2416,なか卯,羽曳野恵我之荘店,34.576695145532,135.575511978101,583-0886,大阪府羽曳野市恵我之荘3-4-26,24時間営業,,
2417,なか卯,北野白梅町店,35.0280470874425,135.731162712604,603-8325,京都府京都市北区北野上白梅町8　ハイツくすの木1F,24時間営業,,
2418,なか卯,芝一丁目店,35.6521133903417,139.754427625658,105-0014,東京都港区芝1-5-11　芝Ｌ’ｓビル,24時間営業,,
2420,なか卯,相模原千代田店,35.5618733462353,139.374250020991,252-0237,神奈川県相模原市中央区千代田5-2-13,10:00～22:00　ラストオーダー 21:45,,
2422,なか卯,354号大泉店,36.2584349499821,139.389998583135,370-0535,群馬県邑楽郡大泉町大字寄木戸1455-2,24時間営業,,
2423,なか卯,富山東中野店,36.6790187186265,137.219538638015,939-8086,富山県富山市東中野町2-10-13,24時間営業,,
2424,なか卯,本牧店,35.424676458716,139.666480402326,231-0821,神奈川県横浜市中区本牧原19-1　パシフィックレジデンス本牧1F,24時間営業,,
2425,なか卯,豊田陣中店,35.0947744184115,137.163765108143,471-0079,愛知県豊田市陣中町2-12-9,24時間営業,,
2426,なか卯,岸和田店,34.463376058092,135.395028296194,596-0044,大阪府岸和田市西之内町67-7,24時間営業,,
2427,なか卯,松阪大黒田店,34.5663961915058,136.526491252147,515-0063,三重県松阪市大黒田町227-4,24時間営業,,
2428,なか卯,豊川南大通店,34.8151133089341,137.375590115975,442-0889,愛知県豊川市南大通4-3,24時間営業,,
2429,なか卯,福井大宮店,36.0831660904196,136.219265257999,910-0016,福井県福井市大宮2-26-32,24時間営業,,
2430,なか卯,福島東口店,37.7536729244181,140.462823412937,960-8031,福島県福島市栄町9-3,24時間営業,,
2431,なか卯,岡山中山下店,34.6637467535969,133.926543248348,700-0821,岡山県岡山市北区中山下1-8-1　ロイヤルコーポ1F　,9:00～22:00　ラストオーダー21:45,,
2432,なか卯,関稲口店,35.4724194050366,136.915160865176,501-3932,岐阜県関市稲口373,10:00～23:00　ラストオーダー 22:45,金土のみ 10:00～24:00　ラストオーダー 23:45,
2433,なか卯,23号鈴鹿南玉垣店,34.8597105951755,136.58686356544,513-0816,三重県鈴鹿市南玉垣町7198,5:00～翌2:00　ラストオーダー 1:45,,
2434,なか卯,ひばりが丘店,35.753739996076,139.546305785969,202-0002,東京都西東京市ひばりが丘北4-8-24　ひばりヶ丘シティーハイツ,24時間営業,,
2435,なか卯,米子皆生店,35.4510356753734,133.358347517726,683-0003,鳥取県米子市皆生5-7-25,24時間営業,,
2436,なか卯,1国藤枝大手店,34.8726918970583,138.267547277325,426-0017,静岡県藤枝市大手1-22-53,9:00～翌1:00　ラストオーダー 0:45,,
2437,なか卯,472号射水店,36.7301383680142,137.083122613349,939-0285,富山県射水市本開発726-1,5:00～翌2:00　ラストオーダー 1:45,,
2438,なか卯,座間ひばりが丘店,35.4899267205244,139.429015730101,252-0003,神奈川県座間市ひばりが丘5-23-1,24時間営業,,
2439,なか卯,岐阜加納城南通店,35.3993444221183,136.754915038312,500-8486,岐阜県岐阜市加納城南通2-15,24時間営業,,
2440,なか卯,岡山浜野店,34.6278327293208,133.937414554775,700-0845,岡山県岡山市南区浜野2-10-51,24時間営業,,
2441,なか卯,横須賀大矢部店,35.2404871468835,139.675287041151,238-0024,神奈川県横須賀市大矢部3-13-12,24時間営業,,
2442,なか卯,鳥取安長店,35.512595877177,134.208041616755,680-0913,鳥取県鳥取市安長397-2,24時間営業,,
2443,なか卯,船場中央大通店,34.681537311865,135.498688252823,541-0056,大阪府大阪市中央区久太郎町4-2-8　西岡ビル1F,24時間営業,土日のみ 5:00～翌2:00　ラストオーダー 1:45,
2444,なか卯,高松上福岡店,34.328260329676,134.064770550088,760-0077,香川県高松市上福岡町982,24時間営業,,
2445,なか卯,32号高知葛島店,33.5566581867694,133.574549292288,781-8121,高知県高知市葛島2-3-49,24時間営業,,
2446,なか卯,広島的場町店,34.3942152026069,132.473529386437,732-0824,広島県広島市南区的場町1-1-22,24時間営業,,
2447,なか卯,真岡上高間木店,36.4408775334629,139.987170309899,321-4337,栃木県真岡市上高間木2-16-13,24時間営業,,
2448,なか卯,23号四日市店,34.9902826786525,136.646950062891,510-0012,三重県四日市市大字羽津甲5168-17,24時間営業,,
2449,なか卯,北本店,36.0310476135761,139.533624903324,364-0031,埼玉県北本市中央2-90,24時間営業,,
2450,なか卯,高浜稗田町店,34.9197126575813,136.992843197411,444-1321,愛知県高浜市稗田町5-6-22,24時間営業,,
2451,なか卯,越谷下間久里店,35.925129838873,139.791671127766,343-0045,埼玉県越谷市下間久里383-1,24時間営業,,
2452,なか卯,伊勢佐木長者町店,35.4394487605085,139.634271841446,231-0033,神奈川県横浜市中区長者町3-7-1　YSビル,24時間営業,,
2453,なか卯,都賀駅前店,35.6356195602343,140.149777496142,264-0025,千葉県千葉市若葉区都賀3-4-2　丸惣ビル,24時間営業,,
2454,なか卯,福井駅前店,36.061527320487,136.2207927942,910-0006,福井県福井市中央1-9-1　ユニオンスクエアビル,9:00～24:00　ラストオーダー 23:45,,
2455,なか卯,23号伊勢御薗店,34.507154926709,136.711525557528,516-0804,三重県伊勢市御薗町長屋2095-1,24時間営業,,
2456,なか卯,枚方養父店,34.8457795224685,135.676814507891,573-1124,大阪府枚方市養父東町52-1,24時間営業,,
2457,なか卯,五香駅前店,35.7970535230951,139.965747846128,270-2261,千葉県松戸市常盤平5-19-1　五香駅西口ビル,24時間営業,,
2458,なか卯,烏丸北大路店,35.0434509236742,135.75886220289,603-8143,京都府京都市北区小山上総町14　大垣書店ビル1・2Ｆ,24時間営業,,
2460,なか卯,1国水口店,34.9803793185848,136.155403285866,528-0057,滋賀県甲賀市水口町北脇512-1,10:00～24:00　ラストオーダー 23:45,,
2461,なか卯,新潟小針台店,37.8888447583452,138.994226376587,950-2026,新潟県新潟市西区小針南台1-60,24時間営業,,
2462,なか卯,広小路本町店,35.1683347527501,136.901825696982,460-0008,愛知県名古屋市中区栄2-4-6　クレスト広小路,24時間営業,,
2463,なか卯,大井町西口店,35.6062370817202,139.732544055524,140-0014,東京都品川区大井1-23-2　シー・エス大井ビル,24時間営業,,
2464,なか卯,北習志野駅前店,35.7218720670875,140.042226067654,274-0063,千葉県船橋市習志野台2-1-6　北習志野駅前ビル,24時間営業,,
2465,なか卯,411号あきる野店,35.7390115401522,139.29007107756,197-0803,東京都あきる野市瀬戸岡785-5,24時間営業,,
2466,なか卯,南武庫之荘店,34.7445975336521,135.388646154668,661-0026,兵庫県尼崎市水堂町4-18-22,24時間営業,,
2467,なか卯,138号御殿場IC店,35.3033968035184,138.943567690772,412-0026,静岡県御殿場市東田中28-1,24時間営業,,
2468,なか卯,56号宇和島和霊店,33.2325430690829,132.56907022086,798-0012,愛媛県宇和島市和霊町1260-6,24時間営業,,
2469,なか卯,加賀小菅波店,36.3173199565591,136.347774914475,922-0424,石川県加賀市小菅波町2-7-1,24時間営業,,
2470,なか卯,鈴鹿道伯店,34.8595849010825,136.546357213021,513-0824,三重県鈴鹿市道伯町2101-1,24時間営業,,
2471,なか卯,26号堺浜寺南店,34.5353793623549,135.452609087532,592-8344,大阪府堺市西区浜寺南町3丁7-15,24時間営業,,
2472,なか卯,稲城大丸店,35.6485902633144,139.490221396641,206-0801,東京都稲城市大丸1012　エバグレース南多摩,24時間営業,,
2473,なか卯,北大路高野店,35.0405885842559,135.782333440982,606-8107,京都府京都市左京区高野東開町10　杉谷ビル1・2Ｆ,10:00～翌1:00　ラストオーダー 0:45,,
2474,なか卯,50号前橋朝日店,36.3835113129089,139.088931993748,371-0014,群馬県前橋市朝日町4-18-1,24時間営業,,
2475,なか卯,札幌本町店,43.0774029413942,141.385299717218,065-0041,北海道札幌市東区本町1条3-6-18,24時間営業,,
2476,なか卯,名東八前店,35.1785028928483,136.984832779553,465-0018,愛知県名古屋市名東区八前3-116,9:00～22:00　ラストオーダー21:45,,
2477,なか卯,神戸伊川谷店,34.674761674522,135.023142225152,651-2111,兵庫県神戸市西区池上4-23-1,24時間営業,,
2478,なか卯,東大阪吉田店,34.6797284622189,135.61708017044,578-0912,大阪府東大阪市角田1-4-33,5:30～翌2:00　ラストオーダー1:45,,
2479,なか卯,岡山下石井店,34.6594373596216,133.918946855432,700-0907,岡山県岡山市北区下石井2-2-8,24時間営業,,
2480,なか卯,アロー香里園店,34.7817887115792,135.620210488705,572-0028,大阪府寝屋川市日新町3-10,24時間営業,,
2482,なか卯,津島金柳店,35.1524023357276,136.777209002143,496-0014,愛知県津島市金柳町字神様田129,平日 5:00～翌2:00　ラストオーダー 1:45,土日 9:00～22:00　ラストオーダー 21:45,
2483,なか卯,新宿職安通り店,35.6979256309016,139.702050421588,160-0021,東京都新宿区歌舞伎町2-41-7　川井ビル,24時間営業,,
2484,なか卯,秋津店,35.7777673651501,139.495108653684,189-0001,東京都東村山市秋津町5-9-13,24時間営業,,
2485,なか卯,岡山今店,34.646632211858,133.895686321279,700-0975,岡山県岡山市北区今2-9-18,24時間営業,,
2487,なか卯,秦野今泉台店,35.3622725952963,139.222199339627,257-0018,神奈川県秦野市今泉台3-18-5,24時間営業,,
2488,なか卯,56号松山小栗店,33.8258523685695,132.758897969207,790-0036,愛媛県松山市小栗2-3-17,24時間営業,,
2489,なか卯,寝屋川寝屋店,34.7702037737437,135.648245638305,572-0012,大阪府寝屋川市池の瀬町4-7,24時間営業,,
2490,なか卯,高島平店,35.7897487496012,139.66363855017,175-0082,東京都板橋区高島平8-10-5　ソレイユ高島平第二,24時間営業,,
2491,なか卯,仙台北四番丁店,38.2709680232093,140.869048912077,980-0802,宮城県仙台市青葉区二日町12-25　グランディプレステージビル1Ｆ,24時間営業,,
2492,なか卯,359号金沢柳橋店,36.6017775872762,136.681785187987,920-3133,石川県金沢市柳橋町ハ-15,24時間営業,,
2493,なか卯,163号守口店,34.7179535338465,135.56900212536,570-0043,大阪府守口市南寺方東通1-11-17,24時間営業,,
2494,なか卯,岸和田駅前店,34.460876860494,135.377953718191,596-0054,大阪府岸和田市宮本町2-1,24時間営業,,
2495,なか卯,安城大山店,34.9502013316216,137.087726135787,446-0042,愛知県安城市大山町1-6-8,5:00～翌2:00　ラストオーダー 1:45,,
2496,なか卯,250号明石魚住店,34.688312116101,134.908760267183,674-0082,兵庫県明石市魚住町中尾370-3,24時間営業,,
2497,なか卯,429号倉敷中島店,34.5762928790126,133.725797835927,710-0803,岡山県倉敷市中島1344-1,24時間営業,,
2498,なか卯,港区入場店,35.1136203671268,136.856400044516,455-0803,愛知県名古屋市港区入場1-122,24時間営業,,
2499,なか卯,黒部田家店,36.8563005537357,137.440112989597,938-0045,富山県黒部市田家新588-1,10:00～翌1:00　ラストオーダー 0:45,,
2501,なか卯,八戸八日町店,40.5103488174837,141.491664366003,031-0086,青森県八戸市八日町1-1　ダイワロイネットホテル八戸1Ｆ,24時間営業,,
2503,なか卯,41号飛騨高山店,36.1328803949022,137.247201488534,506-0031,岐阜県高山市西之一色町3-1100-17,9:00～22:00　ラストオーダー21:45,金土祝前日のみ 24時間営業,
2504,なか卯,ラウンドワン武蔵村山店,35.7355632476166,139.382610217718,208-0023,東京都武蔵村山市伊奈平3-1-1　ラウンドワン武蔵村山店,24時間営業,,
2506,なか卯,座間相武台店,35.4979715704506,139.406075598152,252-0011,神奈川県座間市相武台1-4500-3,24時間営業,,
2507,なか卯,岐阜柳津店,35.3681723935014,136.750047711243,501-6103,岐阜県岐阜市柳津町蓮池4-38,24時間営業,,
2508,なか卯,1国八幡美濃山店,34.8571316856834,135.711145578441,614-8271,京都府八幡市美濃山ヒル塚32-1,24時間営業,,
2509,なか卯,松山束本店,33.8344447161089,132.786881916182,790-0916,愛媛県松山市束本1-7-26,24時間営業,,
2510,なか卯,貝塚麻生中店,34.4347867818615,135.372717298878,597-0081,大阪府貝塚市麻生中1014-1,24時間営業,,
2511,なか卯,行田佐間店,36.1290892499569,139.464332254628,361-0032,埼玉県行田市佐間2-15-1,24時間営業,,
2512,なか卯,仙台青葉通一番町店,38.2592409849657,140.871382313837,980-0811,宮城県仙台市青葉区一番町2-5-22GC　青葉通りプラザ1Ｆ,24時間営業,,
2513,なか卯,神田須田町店,35.6952254408563,139.770052120666,101-0041,東京都千代田区神田須田町1-28　アクア神田ビル,平日 24時間営業,土日 4:30～翌3:00　ラストオーダー 2:45,
2515,なか卯,一宮公園通店,35.2936815759292,136.803694463767,491-0842,愛知県一宮市公園通6-2,10:00～22:00　ラストオーダー 21:45,,
2516,なか卯,高岡野村店,36.7479336341918,137.032400173054,933-0014,富山県高岡市野村355-1,24時間営業,,
2517,なか卯,藤沢駅北口店,35.3389802367054,139.485232734147,251-0052,神奈川県藤沢市藤沢438-6FIC　藤沢ビル1F,24時間営業,土日のみ 5:00～翌2:00　ラストオーダー 1:45,
2518,なか卯,247号半田有楽町店,34.8722811540341,136.918471557975,475-0837,愛知県半田市有楽町7-97-2,9:00～24:00　ラストオーダー 23:45,,
2519,なか卯,山口湯田温泉店,34.1629118490191,131.453558078229,753-0821,山口県山口市葵2-1-11,24時間営業,,
2520,なか卯,イオンモール大日店,34.7486918321657,135.580292827835,570-0016,大阪府守口市大日東町1-18　イオンモール大日ショッピングセンター2F,9:00～22:00　ラストオーダー 21:30,,
2521,なか卯,長吉長原東店,34.6046640669272,135.573710006542,547-0013,大阪府大阪市平野区長吉長原東1-2-63,24時間営業,,
2522,なか卯,池袋サンシャイン前店,35.7294575105833,139.716497492054,170-0013,東京都豊島区東池袋1-28-1　タクトT.Oビル1F,24時間営業,,
2523,なか卯,小田原鴨宮店,35.2796868487103,139.182632817285,256-0816,神奈川県小田原市酒匂1400-1,24時間営業,,
2524,なか卯,ひたちなか高場店,36.420190490342,140.538661294978,312-0062,茨城県ひたちなか市高場1159-1,24時間営業,,
2525,なか卯,大森北一丁目店,35.5862252482282,139.727673159305,143-0016,東京都大田区大森北1-30-1　三喜屋ビル,24時間営業,,
2526,なか卯,金沢入江店,36.5659579169419,136.624442155209,921-8011,石川県金沢市入江2-64,24時間営業,,
2527,なか卯,江南宮後店,35.3412780955691,136.879997879617,483-8044,愛知県江南市宮後町天神13,3:00～0:00　ラストオーダー23:45,,
2528,なか卯,船橋湊町店,35.6964051346385,139.982383043566,273-0011,千葉県船橋市湊町2-5-18　船橋第一ホテル1F,24時間営業,,
2529,なか卯,静岡沓谷店,34.992342882932,138.404656492101,420-0816,静岡県静岡市葵区沓谷3-6-11,5:00～翌2:00　ラストオーダー 1:45,,
2530,なか卯,静岡小鹿店,34.9701655333282,138.420588690141,422-8021,静岡県静岡市駿河区小鹿191-10,24時間営業,,
2531,なか卯,九段南店,35.6923069170685,139.74127714479,102-0074,東京都千代田区九段南3-9-11　マートルコート麹町1F,24時間営業,,
2532,なか卯,金沢駅西本町店,36.5818546845377,136.632147449964,920-0025,石川県金沢市駅西本町5-1-3,24時間営業,,
2533,なか卯,池袋駅東口店,35.7324777374922,139.716176824058,170-0013,東京都豊島区東池袋1-32-1　第2アムスビル1F,24時間営業,,
2534,なか卯,網走駒場店,44.0016416427607,144.282944290057,093-0033,北海道網走市駒場北5-83-1,5:00～翌2:00　ラストオーダー 1:45　,金土祝前日のみ　24時間営業,
2535,なか卯,広島五日市店,34.3830512730813,132.355132788785,731-5155,広島県広島市佐伯区城山1-18-3,24時間営業,,
2536,なか卯,船橋咲が丘店,35.758355499591,140.016865382782,274-0807,千葉県船橋市咲が丘1-24-5,24時間営業,,
2537,なか卯,東広島西条店,34.4274012314573,132.751547269196,739-0007,広島県東広島市西条土与丸1-4-12,24時間営業,,
2538,なか卯,岐阜大学前店,35.457449245938,136.734869583086,501-1132,岐阜県岐阜市折立359-1,10:00～24:00　ラストオーダー 23:45,,
2539,なか卯,港北樽町店,35.5304746942394,139.640819328457,222-0001,神奈川県横浜市港北区樽町3-2-30,24時間営業,,
2540,なか卯,武蔵中原店,35.579215384154,139.644822029464,211-0053,神奈川県川崎市中原区上小田中6-17-7,24時間営業,,
2541,なか卯,倉敷黒崎店,34.6073978764947,133.788902551743,710-0014,岡山県倉敷市黒崎611-1,24時間営業,,
2542,なか卯,桃山西尾店,34.9367426546141,135.792933453539,612-8002,京都府京都市伏見区桃山町山ノ下44-4,9:00～24:00　ラストオーダー 23:45,,
2543,なか卯,草津西大路店,35.025286326904,135.956965475903,525-0037,滋賀県草津市西大路町6-52,24時間営業,,
2545,なか卯,7号弘前堅田店,40.6276615037124,140.487290987544,036-8052,青森県弘前市大字堅田字神田382-8,24時間営業,,
2546,なか卯,代々木上原店,35.6694688543015,139.680529630324,151-0066,東京都渋谷区西原3-8-5　アコルデ代々木上原B-102,24時間営業,,
2547,なか卯,新潟新和店,37.9032390626507,139.042541145723,950-0972,新潟県新潟市中央区新和1-1-2,24時間営業,,
2548,なか卯,1国安城東栄店,34.985514534982,137.089789338382,446-0007,愛知県安城市東栄町3-4-1,9:00～翌1:00　ラストオーダー 0:45,,
2549,なか卯,8号福井米松店,36.0689496816793,136.242393991798,910-0851,福井県福井市米松2-24-30,5:00～翌2:00　ラストオーダー 1:45,,
2550,なか卯,126号旭店,35.7238079765673,140.630937642105,289-2504,千葉県旭市二5383-7,24時間営業,,
2551,なか卯,浜松向宿店,34.7023655318604,137.750704432518,430-0851,静岡県浜松市中区向宿3-1-13,24時間営業,,
2552,なか卯,8号彦根高宮店,35.240532135217,136.255811023459,522-0201,滋賀県彦根市高宮町1669-1,24時間営業,,
2553,なか卯,南大井三丁目店,35.5874990873555,139.732624633878,140-0013,東京都品川区南大井3-35-10　大森Gスクエア内,24時間営業,,
2554,なか卯,日本橋二丁目店,35.6811811977774,139.775094293055,103-0027,東京都中央区日本橋2-9-5　アサヒビル1F,24時間営業,,
2555,なか卯,日本橋本石町店,35.6874321135195,139.770381341071,103-0021,東京都中央区日本橋本石町3-2-3　日本橋オリーブビル1F,24時間営業,土のみ 5:00～翌2:00　ラストオーダー 1:45,
2556,なか卯,岡崎大西店,34.941565604436,137.184046867418,444-0871,愛知県岡崎市大西2-16-1,24時間営業,,
2557,なか卯,三宮御幸通店,34.6927139178044,135.197888830407,651-0087,兵庫県神戸市中央区御幸通6-1-5,5:00～翌2:00　ラストオーダー 1:45,,
2558,なか卯,生駒俵口店,34.701947477826,135.6967814171,630-0243,奈良県生駒市俵口町1373,24時間営業,,
2559,なか卯,稲沢石橋店,35.2619387204717,136.779800687556,492-8271,愛知県稲沢市石橋1-158,5:00～翌2:00　ラストオーダー 1:45,,
2560,なか卯,中原街道上白根店,35.495537146513,139.535466908863,241-0002,神奈川県横浜市旭区上白根2-62-32,24時間営業,,
2562,なか卯,環七南葛西店,35.6497001435683,139.871827431278,134-0085,東京都江戸川区南葛西3-24-21,24時間営業,,
2563,なか卯,勝どき一丁目店,35.6596546390351,139.776677375031,104-0054,東京都中央区勝どき1-8-1　勝どきビュータワー103,24時間営業,,
2564,なか卯,戸田駅西口店,35.8164676461471,139.668662180422,335-0021,埼玉県戸田市大字新曽750番地,24時間営業,,
2565,なか卯,守山吉身店,35.0568367626689,136.000181267409,524-0021,滋賀県守山市吉身5丁目2番1号　清原ビル,24時間営業,,
2567,なか卯,アロー大東店,34.7057499825627,135.59311540693,574-0044,大阪府大東市諸福7-4-22,9:00～24:00　ラストオーダー 23:45,,
2568,なか卯,西京極七条店,34.9893831005144,135.727332866576,615-0812,京都府京都市右京区西京極大門町8-2,24時間営業,,
2569,なか卯,19号中津川店,35.4666818296857,137.464113594903,509-9132,岐阜県中津川市茄子川1642-29,9:00～翌2:00　ラストオーダー 1:45,土日祝前日のみ　24時間,
2570,なか卯,伊勢崎韮塚店,36.306136669207,139.176220807342,372-0813,群馬県伊勢崎市韮塚町1201-1,24時間営業,,
2571,なか卯,豊橋駒形店,34.7222319236676,137.3636359412,441-8145,愛知県豊橋市駒形町字下田20-1,24時間営業,,
2572,なか卯,167号志摩店,34.345184055464,136.814818326278,517-0501,三重県志摩市阿児町鵜方大谷390-1,10:00～23:00　ラストオーダー22:45,,
2573,なか卯,黒磯店,36.9726174271664,140.040733598846,517-0501,栃木県那須塩原市阿波町109-43,24時間営業,,
2574,なか卯,38号帯広西4条店,42.9319407080375,143.197389811732,080-0034,北海道帯広市西四条北1-8,24時間営業,,
2575,なか卯,27号敦賀店,35.632271599041,136.06358367166,914-0045,福井県敦賀市古田刈66-1215,24時間営業,,
2576,なか卯,港北ニュータウン茅ケ崎東店,35.5410441586025,139.579459770957,224-0033,神奈川県横浜市都筑区茅ケ崎東3-6-35,24時間営業,,
