storeid,brand,name,lat,lon,postalCode,address,business_hour
0000000003,松屋,江古田店,35.735333,139.674831,1760006,東京都練馬区栄町34-1,火から日：4時から翌3時（ラストオーダー2:45）、月・祝：4時から翌2時（ラストオーダー1:45）
0000000004,松屋,西荻窪店,35.700305,139.60298,1670053,東京都杉並区西荻南3-11-8,24時間営業
0000000014,松屋,阿佐ヶ谷店,35.701937,139.639139,1660001,東京都杉並区阿佐谷北2-1-10,24時間営業
0000000015,松屋,荻窪北口店,35.70159,139.624518,1670043,東京都杉並区上荻1-6-2,24時間営業
0000000016,松屋,高円寺店,35.702702,139.652699,1660002,東京都杉並区高円寺北3-22-16 1F,24時間営業
0000000021,松屋,池袋西口店,35.728273,139.712963,1710021,東京都豊島区西池袋1-20-6 広瀬ビル1.2F,24時間営業
0000000024,松屋,大塚店,35.729738,139.730934,1700004,東京都豊島区北大塚2-11-1,24時間営業
0000000025,松屋,蒲田店,35.55985,139.719167,1440051,東京都大田区西蒲田7-2-3 第2醍醐ビル,24時間営業
0000000030,松屋,国立店,35.695289,139.44925,1860004,東京都国立市中1-8-2,24時間営業
0000000032,松屋,吉祥寺南口店,35.699393,139.582159,1800003,東京都武蔵野市吉祥寺南町1-5-5 1F,24時間営業
0000000035,松屋,下北沢店,35.657623,139.670707,1550031,東京都世田谷区北沢2-19-13 松本ビル1F,24時間営業
0000000036,松屋,鶴見店,35.505663,139.678904,2300062,神奈川県横浜市鶴見区豊岡町2-2 フーガ2,24時間営業
0000000038,松屋,八王子店,35.65383,139.3411,1920083,東京都八王子市旭町7-1 豊栄ビル,24時間営業
0000000047,松屋,大森店,35.585345,139.730947,1430023,東京都大田区山王2-2-11,24時間営業
0000000050,松屋,西船橋店,35.70527,139.962728,2730031,千葉県船橋市西船4-25-3,24時間営業
0000000051,松屋,経堂店,35.647126,139.640382,1560052,東京都世田谷区経堂1-12-11,24時間営業
0000000054,松屋,高田馬場店,35.710911,139.707099,1690075,東京都新宿区高田馬場3-1-2,24時間営業
0000000055,松屋,豊田店,35.657162,139.383878,1910062,東京都日野市多摩平1-2-18 第1ビル1F,24時間営業
0000000056,松屋,金町店,35.766668,139.874344,1250041,東京都葛飾区東金町1-45-2,24時間営業
0000000057,松屋,淵野辺店,35.56171,139.394834,2520233,神奈川県相模原市中央区鹿沼台2-18-6,24時間営業
0000000060,松屋,武蔵村山店,35.745136,139.410223,2080011,東京都武蔵村山市学園3-37-2,24時間営業
0000000061,松屋,明大前店,35.665356,139.654044,1560043,東京都世田谷区松原1-36-7 明大前ビル2F,24時間営業
0000000062,松屋,渋谷センター街店,35.656936,139.702127,1500042,東京都渋谷区宇田川町26-9 メトロビル1F,24時間営業
0000000067,松屋,高田馬場1丁目店 ※3月14日22時より一時閉店、3月15日10時新規改装オープン予定,35.709696,139.708609,1690075,東京都新宿区高田馬場1-26-12 高田馬場ビル,4:30から翌3:30
0000000070,松屋,草加店,35.838497,139.791282,3400047,埼玉県草加市北谷町1-2-14,24時間営業
0000000071,松屋,立川店,35.695838,139.418002,1900012,東京都立川市曙町2-12-15 立川金水ビル1F,24時間営業
0000000072,松屋,新宿西口店,35.686338,139.700124,1600023,東京都新宿区西新宿1-13-3 西新ビル1F,24時間営業
0000000073,松屋,駒沢店,35.629393,139.663775,1540012,東京都世田谷区駒沢1-5-15,24時間営業
0000000078,松屋,大山店,35.745758,139.706256,1730014,東京都板橋区大山東町58-2,24時間営業
0000000079,松屋,大宮東口店,35.904648,139.628015,3300802,埼玉県さいたま市大宮区宮町1-5,24時間営業
0000000082,松屋,多摩ニュータウン店,35.621495,139.396402,1920362,東京都八王子市松木33-3,24時間営業
0000000083,松屋,鶴瀬店,35.842522,139.541236,3540021,埼玉県富士見市鶴馬2605-1,24時間営業
0000000084,松屋,ひばりが丘店,35.748733,139.54833,2020002,東京都西東京市ひばりが丘北3-3-14,24時間営業
0000000085,松屋,池袋サンシャイン通り店,35.727032,139.719458,1700013,東京都豊島区東池袋1-29-4 成田ビル1.2F,24時間営業
0000000086,松屋,三鷹南口店,35.697662,139.564066,1810013,東京都三鷹市下連雀3-34-22 ライオンズプラザ三鷹駅前,24時間営業
0000000094,松屋,国分寺南口店,35.696015,139.483167,1850021,東京都国分寺市南町3-18-17,24時間営業
0000000095,松屋,尼崎店,34.716411,135.418739,6600884,兵庫県尼崎市神田中通2-17,24時間営業
0000000096,松屋,岸和田店,34.446925,135.379499,5960825,大阪府岸和田市土生町2-7-17,24時間営業
0000000098,松屋,新宿歌舞伎町店,35.691666,139.704436,1600021,東京都新宿区歌舞伎町1-22-8 小島屋ビル,24時間営業
0000000100,松屋,大和店,35.466222,139.465839,2420016,神奈川県大和市大和南1-3-4 登喜和ビル1F,24時間営業
0000000101,松屋,千日前店,34.663199,135.504728,5420076,大阪府大阪市中央区難波3-3-4,24時間営業
0000000102,松屋,本厚木店,35.437162,139.368091,2430018,神奈川県厚木市中町2-4-16 トキワヤビル1F,24時間営業
0000000103,松屋,鶴見東口店,35.505009,139.68083,2300051,神奈川県横浜市鶴見区鶴見中央1-3-3,24時間営業
0000000104,松屋,梅田店,34.699024,135.504372,5300018,大阪府大阪市北区小松原町1-27 エビスビル,24時間営業
0000000105,松屋,所沢店,35.784761,139.475114,3591123,埼玉県所沢市日吉町10-18,24時間営業
0000000107,松屋,町田店,35.538705,139.451186,1940013,東京都町田市原町田4-4-15,24時間営業
0000000109,松屋,市川店,35.72625,139.91214,2720034,千葉県市川市市川1-6-11,24時間営業
0000000110,松屋,喜連瓜破店,34.606205,135.554096,5470027,大阪府大阪市平野区喜連2-5-47 村瀬ビル1F,24時間営業
0000000111,松屋,布施店,34.661197,135.564654,5770057,大阪府東大阪市足代新町2-18,24時間営業
0000000113,松屋,南池袋店,35.724081,139.714906,1710022,東京都豊島区南池袋1-18-23 ルックハイツ池袋B棟,24時間営業
0000000116,松屋,門前仲町店,35.669713,139.797375,1350048,東京都江東区門前仲町1-7-13,24時間営業
0000000117,松屋,本八幡店,35.718838,139.930377,2720021,千葉県市川市八幡2-5-6,24時間営業
0000000118,松屋,大船店,35.350546,139.535943,2470056,神奈川県鎌倉市大船1-25-23,24時間営業
0000000119,松屋,小田急相模原店,35.511983,139.427201,2520313,神奈川県相模原市南区松が枝町24-6,24時間営業
0000000121,松屋,代々木店,35.679928,139.705073,1510053,東京都渋谷区代々木1-34-4,24時間営業
0000000122,松屋,都立大学店,35.613676,139.679673,1520032,東京都目黒区平町1-27-5,24時間営業
0000000124,松屋,西五反田店,35.621148,139.726627,1410031,東京都品川区西五反田1-11-9 司ビル,24時間営業
0000000125,松屋,戸店 ※3月3日23時より一時閉店、3月5日1時オープン予定,35.78083,139.902888,2710091,千葉県松戸市本町1-18 第37東京ビル,24時間営業
0000000126,松屋,白山店,35.719319,139.756162,1130023,東京都文京区向丘1-9-23 リーラ白山103,24時間営業
0000000127,松屋,石神井公園店,35.740228,139.608923,1770041,東京都練馬区石神井町3-24-10,24時間営業
0000000128,松屋,神楽坂店,35.697626,139.744476,1620825,東京都新宿区神楽坂2-9 大川ビル1F,24時間営業
0000000130,松屋,熊谷店,36.137628,139.392615,3600037,埼玉県熊谷市筑波2-55 大正堂駅前ビル1.2F,月曜以外24時間営業※月曜は2時閉店（ラストオーダー1:30）、5時開店
0000000132,松屋,横須賀中央店,35.27698,139.672779,2380008,神奈川県横須賀市大滝町2-23 三笠ビル,6時から翌2時30分（ラストオーダー2:00）
0000000133,松屋,目黒東口店,35.63102,139.719934,1410021,東京都品川区上大崎2-15-18 目黒東豊ビル,24時間営業
0000000134,松屋,清瀬店,35.768118,139.52236,2040022,東京都清瀬市松山1-11-17,24時間営業
0000000137,松屋,練馬店,35.733802,139.657494,1760012,東京都練馬区豊玉北5-18-11,24時間営業
0000000138,松屋,北浦和店,35.8685,139.647647,3300074,埼玉県さいたま市浦和区北浦和4-3-8 USビル1F,24時間営業
0000000139,松屋,千葉店,35.607144,140.119946,2600015,千葉県千葉市中央区富士見2-5-16,24時間営業
0000000140,松屋,南方店,34.722689,135.501967,5320011,大阪府大阪市淀川区西中島3-17-2,24時間営業
0000000141,松屋,東久留米店,35.758073,139.536724,2030014,東京都東久留米市東本町1-8 たちばなやビル,24時間営業
0000000142,松屋,三宿店,35.644352,139.681203,1540001,東京都世田谷区池尻3-30-10,24時間営業
0000000143,松屋,川崎店,35.525036,139.702746,2100023,神奈川県川崎市川崎区小川町14-2 栄安ビル,24時間営業
0000000144,松屋,立川錦町店,35.692938,139.41834,1900022,東京都立川市錦町2-1-3 ICHIGO-M1ビル,24時間営業
0000000145,松屋,神戸元町店,34.685871,135.190226,6500022,兵庫県神戸市中央区元町通2-8-14 オルタンシアビル1F,24時間営業
0000000150,松屋,亀戸店,35.694438,139.828415,1360071,東京都江東区亀戸2-20-4,24時間営業
0000000151,松屋,高田馬場4丁目店,35.710073,139.705123,1690075,東京都新宿区高田馬場4-11-8 木村屋ビル1F,24時間営業
0000000152,松屋,浦安店,35.662089,139.897596,2790002,千葉県浦安市北栄1-15-5 RECS浦安駅前,6時から翌2時
0000000153,松屋,赤羽店,35.775995,139.726599,1150045,東京都北区赤羽2-1-19 十一会ビル,24時間営業
0000000154,松屋,川崎銀座街店,35.528147,139.704083,2100006,神奈川県川崎市川崎区砂子1-1-7 川崎銀座共同ビル,24時間営業
0000000155,松屋,上大岡店,35.403092,139.598857,2330002,神奈川県横浜市港南区上大岡西2-1-19 須藤ビル1F,24時間営業
0000000159,松屋,日吉店,35.549894,139.649061,2230062,神奈川県横浜市港北区日吉本町1-20-2 ティーエムビル1F,24時間営業
0000000160,松屋,恵比寿店,35.643748,139.714913,1500013,東京都渋谷区恵比寿1-13-9 フォレストJビル1F,24時間営業
0000000161,松屋,平塚店,35.325804,139.352501,2540043,神奈川県平塚市紅谷町4-2 1F,24時間営業
0000000162,松屋,西川口店,35.812707,139.708711,3320034,埼玉県川口市並木2-1-6 1F,24時間営業
0000000163,松屋,神田須田町店,35.692369,139.772464,1010041,東京都千代田区神田須田町1-12-9 富士第1ビル1F,平日：6時30分から23時30分（ラストオーダー23:15）、土・日・祝日：7時から23時（ラストオーダー22:45）
0000000164,松屋,新宿南口店,35.687018,139.705234,1600022,東京都新宿区新宿3-36-15 新宿内野ビル1F,24時間営業
0000000165,松屋,三軒茶屋店,35.639144,139.674064,1540024,東京都世田谷区三軒茶屋1-32-15 ハイツ北岡1F,24時間営業
0000000166,松屋,針中野店,34.614191,135.535483,5460043,大阪府大阪市東住吉区駒川5-16-3 1F,24時間営業
0000000167,松屋,横浜店,35.460417,139.622102,2200005,神奈川県横浜市西区南幸2-1-3 相鉄ムービル,10時から22時（ラストオーダー21:30）
0000000169,松屋,浅草橋店,35.693764,139.789616,1110052,東京都台東区柳橋1-13-4 村井ビル1.2F,24時間営業
0000000170,松屋,神田西口店,35.688108,139.77075,1010047,東京都千代田区内神田2-12-5 翔和No.8神田ビル1F,24時間営業
0000000171,松屋,関大前店,34.77044,135.510394,5650842,大阪府吹田市千里山東1-14-5 吉本マンション1F,24時間営業
0000000172,松屋,姫路店,34.826306,134.694893,6700927,兵庫県姫路市駅前町352 1.2F,24時間営業
0000000173,松屋,阿倍野店,34.640592,135.515406,5450052,大阪府大阪市阿倍野区阿倍野筋2-4-49,24時間営業
0000000174,松屋,京都三条店,35.005566,135.773446,6048004,京都府京都市中京区三条通河原町東入中島町97,24時間営業
0000000176,松屋,富士見台店,35.732206,139.632931,1760021,東京都練馬区貫井3-1-8,24時間営業
0000000177,松屋,中野通り店,35.706239,139.668376,1640001,東京都中野区中野5-68-9 松鶴堂ビル,24時間営業
0000000178,松屋,心斎橋店,34.671576,135.504012,5420085,大阪府大阪市中央区心斎橋筋1-10-1 心斎橋タワービル1F,24時間営業
0000000180,松屋,関西空港店,34.433724,135.245966,5490001,大阪府泉佐野市泉州空港北1番地エアロプラザ3F,24時間営業
0000000182,松屋,成増店,35.774492,139.63436,1750094,東京都板橋区成増2-17-23,24時間営業
0000000184,松屋,柏東口店,35.857152,139.976758,2770005,千葉県柏市柏1-5-14 岩田ビル1.2F,24時間営業
0000000185,松屋,津田沼店,35.687378,140.02586,2750016,千葉県習志野市津田沼1-10-41 十番街ビル1F,24時間営業
0000000186,松屋,納屋橋店,35.164621,136.893626,4500003,愛知県名古屋市中村区名駅南1-3-14 石原ビル1F,24時間営業
0000000187,松屋,武蔵新城店,35.583733,139.63381,2110045,神奈川県川崎市中原区上新城2-10-15 新城ロイヤルプラザ1F,24時間営業
0000000188,松屋,近大前店,34.648437,135.587993,5770818,大阪府東大阪市小若江4-13-11 1F･2F,24時間営業
0000000189,松屋,本郷三丁目店,35.702993,139.763774,1130033,東京都文京区本郷2-27-16 大学通信教育ビル1F,24時間営業
0000000190,松屋,熊谷バイパス店,36.161562,139.394482,3600015,埼玉県熊谷市大字肥塚1408-3,24時間営業
0000000193,松屋,都筑インター店,35.54659,139.60641,2240025,神奈川県横浜市都筑区早渕3-37-14,24時間営業
0000000194,松屋,広小路本町店,35.165091,136.904872,4600008,愛知県名古屋市中区栄2-4-7 チサンマンション広小路1F,24時間営業
0000000195,松屋,野方店,35.71562,139.65567,1650027,東京都中野区野方5-30-1 1･2F,24時間営業
0000000198,松屋,曙橋店,35.688983,139.726082,1620065,東京都新宿区住吉町1-17 ジェントリー市ヶ谷1F,24時間営業
0000000199,松屋,高槻南口店,34.847378,135.62227,5690803,大阪府高槻市高槻町9-22 吉廣第二ビル 1.2F,24時間営業
0000000200,松屋,亀島店,35.172785,136.875576,4530017,愛知県名古屋市中村区則武本通1-36 マシュービル 1F,24時間営業
0000000204,松屋,北小金店,35.822643,139.938576,2700013,千葉県松戸市小金きよしヶ丘3-20-5,24時間営業
0000000205,松屋,蕨店,35.824537,139.694781,3350002,埼玉県蕨市塚越1-4-4 ラ・セーヌ1F,24時間営業
0000000206,松屋,錦糸町店,35.692788,139.816373,1300022,東京都墨田区江東橋3-11-6 野村ビル 1F.B1F,24時間営業
0000000209,松屋,志木店,35.819023,139.576874,3520001,埼玉県新座市東北2-37-12 磯川ビル1F,24時間営業
0000000210,松屋,金山店,35.140982,136.905899,4600022,愛知県名古屋市中区金山4-1-1カーニープレイス名古屋金山B1F,24時間営業
0000000212,松屋,大泉学園店,35.747084,139.589316,1780063,東京都練馬区東大泉1-37-3 THE509TOWER1F,24時間営業
0000000213,松屋,中村橋店,35.734226,139.641201,1760021,東京都練馬区貫井2-2-5 ムツワビル1.2F,24時間営業
0000000214,松屋,元住吉店 ※3月8日15時より一時閉店、3月12日15時新規改装オープン予定,35.562187,139.654065,2110025,神奈川県川崎市中原区木月3-6-18 モトスミコアビル1F,24時間営業
0000000215,松屋,溝の口店,35.597633,139.617788,2130001,神奈川県川崎市高津区溝口1-18-7 澤木ビル1F,24時間営業
0000000216,松屋,西新宿店,35.687324,139.688923,1600023,東京都新宿区西新宿5-10-14 西新宿橋谷田ビル1F・B1F,24時間営業
0000000217,松屋,秋葉原店,35.695723,139.778358,1010023,東京都千代田区神田松永町１番地秋葉原ファーストビル1F,24時間営業
0000000218,松屋,向ヶ丘遊園店,35.61312,139.567331,2140014,神奈川県川崎市多摩区登戸2737-4 タカノビル1F・2F,24時間営業
0000000219,松屋,錦糸町南店,35.691998,139.81802,1300022,東京都墨田区江東橋3-8-10 井野ビル1F,24時間営業
0000000220,松屋,神立店,34.714759,137.758324,4300801,静岡県浜松市東区神立町118-2,24時間営業
0000000223,松屋,下高井戸店,35.662553,139.642523,1560044,東京都世田谷区赤堤4-48-10雪華堂ビル1F,24時間営業
0000000224,松屋,上野店,35.706805,139.777116,1100005,東京都台東区上野4-9-5 石井ビル1F.2F,24時間営業
0000000226,松屋,千歳烏山店,35.66547,139.604377,1570062,東京都世田谷区南烏山4-12-4 スギウラビル1F,24時間営業
0000000227,松屋,本八幡南口店,35.716521,139.929483,2720023,千葉県市川市南八幡4-6-7,24時間営業
0000000228,松屋,大久保店,35.698395,139.699307,1690073,東京都新宿区百人町1-18-11 百人町秋山ビル1F,24時間営業
0000000229,松屋,中野坂上店,35.694048,139.685616,1640011,東京都中野区中央2-1-2 中野坂上吉田ビル1F,24時間営業
0000000230,松屋,あびこ店,34.596497,135.515973,5580011,大阪府大阪市住吉区苅田5-19-17 メトロアビコ1F,24時間営業
0000000231,松屋,京成大久保店,35.683714,140.051562,2750011,千葉県習志野市大久保1-21-12 ニューTKビル1F,24時間営業
0000000233,松屋,大岡山店,35.605844,139.688858,1450062,東京都大田区北千束1-40-1 石井ビル1F,24時間営業
0000000234,松屋,狭山店,35.878163,139.438707,3501332,埼玉県狭山市下奥富1366-2,24時間営業
0000000235,松屋,深大寺店,35.677993,139.557458,1820011,東京都調布市深大寺北町4-30-3,24時間営業
0000000237,松屋,川崎枡形店,35.617404,139.555737,2140032,神奈川県川崎市多摩区枡形1-5-9,24時間営業
0000000238,松屋,小滝橋通り店,35.693959,139.700843,1600023,東京都新宿区西新宿7-7-28 第一山本ビル1F,5時から翌3時
0000000239,松屋,赤坂見附店,35.673193,139.739304,1070052,東京都港区赤坂3-21-8 千古満ビル1F,24時間営業
0000000240,松屋,新栄店,35.166811,136.923157,4600006,愛知県名古屋市中区葵1-20-19 芝電ビル1F,24時間営業
0000000242,松屋,吉祥寺サンロード店,35.70092,139.583338,1800004,東京都武蔵野市吉祥寺本町1-15-4,24時間営業
0000000243,松屋,祐天寺店,35.634376,139.695023,1530052,東京都目黒区祐天寺2-2-7 青埜ビル1F,24時間営業
0000000244,松屋,東五反田店,35.622247,139.730098,1410022,東京都品川区東五反田2-4-1 東五反田レンガビル1F,24時間営業
0000000245,松屋,蒲田東口店,35.559087,139.723132,1440052,東京都大田区蒲田5-25-2 コーポ橋本1F,24時間営業
0000000246,松屋,山科店,34.988438,135.820384,6078013,京都府京都市山科区安朱中小路町3-2,24時間営業
0000000247,松屋,今池店,35.163856,136.93985,4640850,愛知県名古屋市千種区今池5-23-14 コザキ今池ビル1F,24時間営業
0000000248,松屋,代々木八幡店,35.66569,139.692252,1510063,東京都渋谷区富ヶ谷1-52-2 ニューアメリカンビル1F,24時間営業
0000000250,松屋,中野南口店,35.700573,139.668904,1640001,東京都中野区中野2-29-8 NTビル1F,24時間営業
0000000251,松屋,町屋店,35.740221,139.784371,1160001,東京都荒川区町屋1-2-10,24時間営業
0000000252,松屋,王子店,35.752095,139.74017,1140002,東京都北区王子1-13-16 エイムビル1F,24時間営業
0000000254,松屋,横浜西口店,35.464395,139.625436,2200004,神奈川県横浜市西区北幸1-1-2 INB横浜西口ビル1F,24時間営業
0000000255,松屋,東武練馬店,35.765777,139.664167,1750083,東京都板橋区徳丸3-1-26 大川ビル1F,24時間営業
0000000256,松屋,戸越銀座店,35.612207,139.718476,1420051,東京都品川区平塚1-8-2 山こしビル1F,24時間営業
0000000257,松屋,行徳店,35.679839,139.917393,2720133,千葉県市川市行徳駅前2-3 ポニー内1F,24時間営業
0000000258,松屋,堀川丸太町店,35.013977,135.755073,6040077,京都府京都市中京区丸太町堀川東入丸太町15 タスキービル,24時間営業
0000000259,松屋,伊丹店,34.766048,135.422879,6640854,兵庫県伊丹市南町3-1-3,24時間営業
0000000260,松屋,南海難波店,34.661871,135.50285,5420076,大阪府大阪市中央区難波4-4-6 1F.2F,24時間営業
0000000261,松屋,鹿島田店,35.548019,139.679618,2120053,神奈川県川崎市幸区下平間135,24時間営業
0000000264,松屋,赤坂店,35.66901,139.739288,1070052,東京都港区赤坂5-4-6 赤坂三辻ビル1F,24時間営業
0000000265,松屋,武蔵小山店,35.616294,139.707216,1420062,東京都品川区小山3-25-15 京屋商会貸店舗1F･2F,24時間営業
0000000266,松屋,岐阜鏡島店,35.410009,136.730663,5010111,岐阜県岐阜市鏡島2009-1,24時間営業
0000000267,松屋,岐阜茜部店,35.385513,136.755652,5008262,岐阜県岐阜市茜部本郷3-159-3,24時間営業
0000000268,松屋,春日井店,35.244199,136.973614,4860844,愛知県春日井市鳥居松町4-14,24時間営業
0000000269,松屋,自由ヶ丘店,35.604976,139.673015,1520035,東京都目黒区自由が丘1-12-3 第二元太ビル1F,24時間営業
0000000270,松屋,早稲田店,35.703325,139.722386,1620045,東京都新宿区馬場下町62-18 早稲田武蔵野ビル1F,24時間営業
0000000271,松屋,秦野店,35.367496,139.229795,2570034,神奈川県秦野市大秦町1-4 鈴よしビル1F,24時間営業
0000000272,松屋,神田小川町店,35.691054,139.76821,1010052,東京都千代田区神田小川町2-1-15 1F・2F,4時から翌2時（ラストオーダー1:45）
0000000273,松屋,新高円寺店,35.69472,139.651138,1660003,東京都杉並区高円寺南2-20-2 新高円寺駅前ビル1F,24時間営業
0000000274,松屋,保谷店,35.744587,139.571179,2020012,東京都西東京市東町3-14-27 マイティビル1F,24時間営業
0000000275,松屋,藤沢南口店,35.334988,139.492256,2510055,神奈川県藤沢市南藤沢2-10 ワカバビル1F,24時間営業
0000000276,松屋,馬喰町店,35.689307,139.785246,1030002,東京都中央区日本橋馬喰町1-5-11 ラスパイユビル1F,平日24時間営業※月・祝翌日6時30分から、土・祝日20時まで、日8時から20時
0000000277,松屋,京都久御山店,34.884454,135.745774,6130023,京都府久世郡久御山町野村村東87-1,24時間営業
0000000278,松屋,春日部店,35.974835,139.754689,3440067,埼玉県春日部市中央1-2-6 M6ビル 1F,24時間営業
0000000279,松屋,稲毛店,35.634249,140.096992,2630043,千葉県千葉市稲毛区小仲台2-5-15 第8若菜ビル1.2F,24時間営業
0000000280,松屋,東大宮店,35.9402,139.645658,3370051,埼玉県さいたま市見沼区東大宮5-10-5,24時間営業
0000000281,松屋,ふじみ野店 ※3月19日15時より一時閉店、3月22日15時新規改装オープン予定,35.855405,139.516695,3560050,埼玉県ふじみ野市ふじみ野1-9-21,24時間営業
0000000282,松屋,海老名店,35.447646,139.395535,2430432,神奈川県海老名市中央2-1-5 パインビル1F,24時間営業
0000000283,松屋,錦糸町北口店,35.694694,139.816323,1300013,東京都墨田区錦糸2-4-10 Ｓ川上ビル,24時間営業
0000000284,松屋,志木東口店,35.820292,139.578546,3530004,埼玉県志木市本町5-25-12 林ビル1F,24時間営業
0000000285,松屋,町田中町店,35.54981,139.445134,1940021,東京都町田市中町2-16－6,24時間営業
0000000286,松屋,西所沢店,35.793303,139.457821,3591142,埼玉県所沢市上新井5-15-15,24時間営業
0000000287,松屋,関内仲通り店,35.442146,139.641224,2310014,神奈川県横浜市中区常盤町2-10 常盤不動産 ビル1F,24時間営業
0000000288,松屋,西新井店,35.773112,139.793023,1230843,東京都足立区西新井栄町2-3-2 ヤオキビル1F･2F,24時間営業
0000000289,松屋,新宿二丁目店,35.686356,139.711383,1600022,東京都新宿区新宿2-7-3 ヴェラハイツ新宿御苑1F,24時間営業
0000000290,松屋,鴬谷店,35.719378,139.781167,1100003,東京都台東区根岸1-6-6 小宮山鴬谷ビル1F,24時間営業
0000000291,松屋,京阪京橋店,34.694606,135.535365,5340024,大阪府大阪市都島区東野田町2-4-14,24時間営業
0000000292,松屋,綱島店,35.532948,139.637247,2230053,神奈川県横浜市港北区綱島西1-1-3  青柳ビル1F,24時間営業
0000000293,松屋,草津店,35.009793,135.965683,5250034,滋賀県草津市草津3-14-33,24時間営業
0000000295,松屋,千歳船橋店,35.644471,139.627059,1560055,東京都世田谷区船橋1-1-5 アジア堂ビル1F,24時間営業
0000000296,松屋,東村山店,35.757447,139.470301,1890014,東京都東村山市本町2-3-77 吉崎ビル1F,24時間営業
0000000297,松屋,武蔵関店,35.723928,139.580113,1770051,東京都練馬区関町北2-27-13 下田ビル1F,24時間営業
0000000298,松屋,両国店,35.692536,139.796813,1300015,東京都墨田区横網1-3-8,24時間営業
0000000299,松屋,高津店,35.599406,139.620158,2130002,神奈川県川崎市高津区二子5-2-1,24時間営業
0000000300,松屋,旗の台店,35.603051,139.707079,1420064,東京都品川区旗の台2-7-6,24時間営業
0000000301,松屋,千駄木店,35.721218,139.766355,1130022,東京都文京区千駄木2-33-8,24時間営業
0000000302,松屋,八重洲店,35.678167,139.77399,1030028,東京都中央区八重洲1-6-5 八重洲中央ビル1F,24時間営業
0000000304,松屋,天理PA（下り線）店,34.613893,135.813068,6391113,奈良県大和郡山市櫟枝町字三ノ坪195-1,24時間営業
0000000306,松屋,桜美林学園店,35.576335,139.410892,1940034,東京都町田市根岸町1010-6,24時間営業
0000000308,松屋,四ツ橋店,34.669359,135.499652,5500014,大阪府大阪市西区北堀江1-2-14,24時間営業
0000000309,松屋,学芸大学店,35.626083,139.688384,1520004,東京都目黒区鷹番3-8-7,24時間営業
0000000310,松屋,北浦和東口店,35.869236,139.65011,3300074,埼玉県さいたま市浦和区北浦和3-2-8,24時間営業
0000000311,松屋,橋本店,35.592988,139.348435,2520143,神奈川県相模原市緑区橋本6-2-1,24時間営業
0000000314,松屋,駒込店,35.732771,139.75087,1700003,東京都豊島区駒込1-38-3 小宮山駒込ビル1.2F,24時間営業
0000000315,松屋,みずほ台店,35.834161,139.553275,3540018,埼玉県富士見市西みずほ台1-20-8,24時間営業
0000000316,松屋,白楽店,35.486133,139.630472,2210065,神奈川県横浜市神奈川区白楽118,24時間営業
0000000319,松屋,森下店,35.684385,139.801749,1350004,東京都江東区森下2-17-1 勝山ビル1F・2F,24時間営業
0000000320,松屋,新小岩店,35.713877,139.861863,1240024,東京都葛飾区新小岩1-46,24時間営業
0000000321,松屋,踊場店,35.402478,139.52128,2450014,神奈川県横浜市泉区中田南1-2-12,24時間営業
0000000323,松屋,四日市日永店,34.943951,136.609065,5100885,三重県四日市市日永4-1-10,24時間営業
0000000324,松屋,四日市富田店,35.005391,136.657552,5108015,三重県四日市市松原町2-17,24時間営業
0000000326,松屋,東長崎店,35.725392,139.686,1710052,東京都豊島区南長崎5-16-8平和ビル１F,24時間営業
0000000327,松屋,紀ノ川大橋店,34.23141,135.156521,6408404,和歌山県和歌山市湊1820-99,24時間営業
0000000328,松屋,南行徳店,35.668883,139.904734,2720143,千葉県市川市相之川4-17-2 メトロセンター南行徳,24時間営業
0000000329,松屋,戸越公園店,35.605859,139.721149,1420041,東京都品川区戸越5-18-7 兼田ビル1・2F,24時間営業
0000000330,松屋,鴨居店,35.507412,139.570669,2260003,神奈川県横浜市緑区鴨居1-8-10 田畑ビル1F,24時間営業
0000000332,松屋,新宿靖国通り店,35.690414,139.705703,1600021,東京都新宿区歌舞伎町1-6-3 石塚ビル1F,24時間営業
0000000335,松屋,中目黒店,35.64139,139.701641,1530051,東京都目黒区上目黒3-3-1 中津川ビル1・2F,24時間営業
0000000338,松屋,上石神井店,35.723614,139.594713,1770044,東京都練馬区上石神井2-25-5 栄ビル 1F,24時間営業
0000000339,松屋,北松戸店,35.797344,139.915741,2710064,千葉県松戸市上本郷904-6 堀ビル1F,24時間営業
0000000340,松屋,三河安城店,34.969053,137.051132,4460055,愛知県安城市緑町2-9-2,24時間営業
0000000342,松屋,京王八王子店,35.654458,139.344523,1920082,東京都八王子市東町1-1-20 第6岩下ビル1F,24時間営業
0000000343,松屋,厚木店,35.432691,139.360617,2430016,神奈川県厚木市田村町7-20,24時間営業
0000000345,松屋,久我山店,35.684406,139.603139,1680082,東京都杉並区久我山2-28-1 矢崎ビル1･2F,24時間営業
0000000348,松屋,東十条店,35.762564,139.730628,1140001,東京都北区東十条4-4-24 宮田ビル1F,24時間営業
0000000349,松屋,上板橋店,35.760709,139.679995,1740071,東京都板橋区常盤台4-33-13 丸萩ビル1F,24時間営業
0000000350,松屋,桜木町店,35.446229,139.632718,2310063,神奈川県横浜市中区花咲町2-59 白鳥ビル1F,24時間営業
0000000351,松屋,池袋アゼリア通り店,35.728543,139.709296,1710021,東京都豊島区西池袋5-2-10 SP-1ビル,24時間営業
0000000352,松屋,下赤塚店,35.767181,139.648874,1750092,東京都板橋区赤塚1-7-2,24時間営業
0000000353,松屋,浅草吾妻橋店,35.707239,139.800491,1110034,東京都台東区雷門2-19-13,24時間営業
0000000354,松屋,西千葉店,35.619073,140.105724,2600033,千葉県千葉市中央区春日2-19-9 西千葉西口ビル,24時間営業
0000000356,松屋,中延店,35.602769,139.715907,1420053,東京都品川区中延4-5-3 智勇第一ビル1F,24時間営業
0000000357,松屋,ときわ台店,35.756279,139.693169,1740071,東京都板橋区常盤台1-2-5 町田ビル1F,24時間営業
0000000358,松屋,横須賀中央駅前店,35.275843,139.674438,2380007,神奈川県横須賀市若松町1-7-5,24時間営業
0000000359,松屋,大井町店,35.604001,139.740232,1400011,東京都品川区東大井5-6-8,24時間営業
0000000361,松屋,武蔵境店,35.699858,139.547548,1800022,東京都武蔵野市境1-2-3,24時間営業
0000000362,松屋,天王町店,35.450711,139.60654,2400003,神奈川県横浜市保土ヶ谷区天王町2-47-7 日振ビル1Ｆ,24時間営業
0000000363,松屋,町田東口店,35.541799,139.449349,1940013,東京都町田市原町田6-15-16 コマヤビル,24時間営業
0000000366,松屋,八幡山店,35.667985,139.619578,1680074,東京都杉並区上高井戸1-8-22 D.S八幡山 1F,24時間営業
0000000367,松屋,人形町店,35.682489,139.785774,1030013,東京都中央区日本橋人形町1-18-8 第2篠原ビル,平日24時間営業※土・日・祝は5時から翌2時
0000000368,松屋,阪急園田店,34.749479,135.449733,6610953,兵庫県尼崎市東園田町9-48-1 園田阪急プラザ,24時間営業
0000000370,松屋,津田沼南口店,35.688203,140.022668,2750026,千葉県習志野市谷津7-9-16 京葉ビル2 1F,24時間営業
0000000373,松屋,千葉我孫子店,35.868757,140.014661,2701151,千葉県我孫子市本町2-3-2 プラザビル1F,24時間営業
0000000375,松屋,鶴橋店,34.662552,135.531826,5430025,大阪府大阪市天王寺区下味原町3-13 鶴橋下味原ビル1F,24時間営業
0000000376,松屋,通天閣店,34.651088,135.50787,5560003,大阪府大阪市浪速区恵美須西2-1-32,24時間営業
0000000377,松屋,新宿大ガード店,35.690137,139.702751,1600023,東京都新宿区西新宿1-2-1 ファイブKビル1F,24時間営業
0000000378,松屋,千川店,35.734884,139.693213,1710043,東京都豊島区要町3-38-3 長崎ビル1F,24時間営業
0000000379,松屋,西八王子店,35.652967,139.316323,1930931,東京都八王子市台町4-47-11 飯田ビル1F,24時間営業
0000000380,松屋,初台店,35.677403,139.689576,1510061,東京都渋谷区初台1-53-9,月・祝翌日以外24時間営業　※月・祝翌日は2時閉店（ラストオーダー1:45）、5時開店
0000000381,松屋,不動前店,35.622958,139.715981,1410031,東京都品川区西五反田4-30-12 福井ビル,24時間営業
0000000384,松屋,志村坂上店,35.773387,139.698419,1740051,東京都板橋区小豆沢3-6-3 糠賀第二ビル1F,24時間営業
0000000385,松屋,板橋本町店,35.758477,139.709708,1730001,東京都板橋区本町36-1 バロール本町1F,24時間営業
0000000386,松屋,東高円寺店,35.694949,139.661903,1660003,東京都杉並区高円寺南1-6-5 サマリヤマンション1F,24時間営業
0000000387,松屋,今里店,34.664978,135.545324,5370014,大阪府大阪市東成区大今里西3-5-1 イル・ソーレ今里駅前,24時間営業
0000000388,松屋,小雑賀店,34.200622,135.187424,6410007,和歌山県和歌山市小雑賀573-9,24時間営業
0000000389,松屋,東小金井店,35.698138,139.527578,1840011,東京都小金井市東町4-42-19,24時間営業
0000000390,松屋,豊田山之手店,35.053209,137.145382,4710833,愛知県豊田市山之手6-70,24時間営業
0000000391,松屋,長後店,35.409718,139.468125,2520807,神奈川県藤沢市下土棚509-10,24時間営業
0000000394,松屋,入谷店 ※3月11日15時より一時閉店、3月14日15時新規改装オープン予定,35.716192,139.787931,1100014,東京都台東区北上野2-31-6 スプリーム･北上野1Ｆ,24時間営業
0000000395,松屋,尾山台店,35.602681,139.656151,1580086,東京都世田谷区尾山台3-22-5 谷岸ビル,5時から翌2時
0000000398,松屋,桜上水店,35.665543,139.636181,1680073,東京都杉並区下高井戸1-22-6,24時間営業
0000000400,松屋,新木場店 ※3月4日15時より一時閉店、3月8日15時オープン予定,35.642688,139.830285,1360082,東京都江東区新木場1-6-1 新木場メトロセンターB棟G-2号,24時間営業
0000000403,松屋,羽村店,35.755858,139.319143,2050011,東京都羽村市五ノ神4-15-11 シティープラザはむら1F,24時間営業
0000000404,松屋,福生店,35.739641,139.331701,1970021,東京都福生市東町3-10 栄和ビル1Ｆ,24時間営業
0000000405,松屋,立川曙橋店,35.697257,139.418772,1900012,東京都立川市曙町2-10-10 緑川ビル1.2Ｆ,24時間営業
0000000406,松屋,上鶴間店,35.534801,139.448263,2520318,神奈川県相模原市南区上鶴間本町5丁目1番2号,24時間営業
0000000407,松屋,我孫子若松店,35.863618,140.019599,2701147,千葉県我孫子市若松140-1,24時間営業
0000000408,松屋,新検見川店,35.648431,140.075951,2620022,千葉県千葉市花見川区南花園2-1-6 朝日ビル新検見川1Ｆ,24時間営業
0000000409,松屋,九条店,34.671731,135.477565,5500027,大阪府大阪市西区九条1－14－26,24時間営業
0000000411,松屋,大阪本町店,34.679061,135.504929,5410054,大阪府大阪市中央区南本町3-3-8,24時間営業
0000000412,松屋,初石店,35.88066,139.920572,2700121,千葉県流山市西初石3-100-19 森田ビル1F,24時間営業
0000000413,松屋,三ノ輪店,35.72708,139.795343,1100011,東京都台東区三ノ輪2－14－10,24時間営業
0000000414,松屋,鷺宮店,35.719762,139.642005,1650032,東京都中野区鷺ノ宮3-18-3 エレガンス鷺ノ宮1F,24時間営業
0000000415,松屋,中野富士見町店,35.687583,139.670381,1640013,東京都中野区弥生町5-27-7 プレミール富士見1F,24時間営業
0000000416,松屋,安城錦町店,34.949379,137.084844,4460035,愛知県安城市錦町8-5,24時間営業
0000000420,松屋,藤沢北口店,35.336637,139.489137,2510052,神奈川県藤沢市藤沢462番地 吉塚ビル1F,24時間営業
0000000421,松屋,梅田角田町店,34.700248,135.503471,5300017,大阪府大阪市北区角田町6-5,24時間営業
0000000422,松屋,東松山店,36.032756,139.404936,3550028,埼玉県東松山市箭弓町1-12-8 大谷ビル,24時間営業
0000000424,松屋,多摩愛宕店,35.626177,139.434201,2060041,東京都多摩市愛宕4-7-3,24時間営業
0000000425,松屋,岡崎北店,34.978666,137.165334,4442121,愛知県岡崎市鴨田町字広元196,24時間営業
0000000426,松屋,蘇我店,35.577452,140.130015,2600834,千葉県千葉市中央区今井2-1-1,24時間営業
0000000429,松屋,豊田十塚店,35.076804,137.163227,4710869,愛知県豊田市十塚町4-23-1,24時間営業
0000000430,松屋,中野新橋店,35.689413,139.677509,1640013,東京都中野区弥生町2-23-3 松屋ビル1F,24時間営業
0000000431,松屋,東船橋店,35.688408,140.008972,2730002,千葉県船橋市東船橋5-15-11,24時間営業
0000000432,松屋,氷川台店,35.746919,139.668023,1790084,東京都練馬区氷川台3-39-9,24時間営業
0000000433,松屋,高島平店,35.779202,139.668776,1750082,東京都板橋区高島平2-1-4,24時間営業
0000000434,松屋,新大塚店,35.72263,139.732741,1700013,東京都豊島区東池袋5-52-16 池田ビル,24時間営業
0000000435,松屋,川口上青木店,35.821575,139.727996,3330844,埼玉県川口市上青木2-47-1,24時間営業
0000000437,松屋,藤沢石川店,35.372038,139.456551,2520815,神奈川県藤沢市石川2-1-1 セレーノ湘南1F,8時から翌1時30分（ラストオーダー1時）
0000000438,松屋,日野店,35.675517,139.396283,1910061,東京都日野市大坂上1-30-24,24時間営業
0000000441,松屋,東千葉店,35.615626,140.130696,2600007,千葉県千葉市中央区祐光2-15-5,24時間営業
0000000443,松屋,逗子店,35.293468,139.583342,2490006,神奈川県逗子市逗子2-6-29,24時間営業
0000000446,松屋,昭島松原町店,35.710683,139.359981,1960003,東京都昭島市松原町1-6-13 AGスクウェアビル1F,24時間営業
0000000447,松屋,和泉店,34.503916,135.434729,5940082,大阪府和泉市富秋町3-2-36,24時間営業
0000000448,松屋,帝京大学前店,35.634594,139.420248,1920352,東京都八王子市大塚131-8,24時間営業
0000000450,松屋,五井店,35.510319,140.091367,2900081,千葉県市原市五井中央西1-14-22 潤間五井ビル,月・祝翌日以外24時間営業　※月・祝翌日は1時閉店、5時開店
0000000452,松屋,お花茶屋店,35.744563,139.843748,1240003,東京都葛飾区お花茶屋1-19-16 飯田ビル,24時間営業
0000000453,松屋,姫路南店,34.8141,134.687508,6700955,兵庫県姫路市安田3-119,24時間営業
0000000454,松屋,大島店,35.686765,139.838623,1360072,東京都江東区大島6-9-16 佐々木ビル,24時間営業
0000000456,松屋,池尻大橋店,35.647502,139.688406,1530043,東京都目黒区東山3-1-15 SD池尻大橋ビル,24時間営業
0000000457,松屋,浦安富士見店,35.64314,139.89127,2790043,千葉県浦安市富士見3-16-9,24時間営業
0000000458,松屋,狛江店,35.628782,139.580866,2010014,東京都狛江市東和泉1丁目18-8,24時間営業
0000000461,松屋,元町東口店,34.68743,135.190939,6500012,兵庫県神戸市中央区北長狭通4丁目1－12 鯉川ビル,24時間営業
0000000462,松屋,笹塚2丁目店,35.672965,139.670969,1510073,東京都渋谷区笹塚2-41-17 滝沢ビル1Ｆ,24時間営業
0000000463,松屋,紀尾井町店,35.679861,139.7416,1020083,東京都千代田区麹町3-5-17 晴花ビル,24時間営業
0000000464,松屋,新所沢東口店,35.803826,139.46011,3590044,埼玉県所沢市松葉町10-15,24時間営業
0000000466,松屋,南柏店,35.841388,139.956662,2770855,千葉県柏市南柏1-2-4 エコロジースクエア南柏,24時間営業
0000000467,松屋,吉祥院店,34.968049,135.729234,6018381,京都府京都市南区吉祥院西ノ茶屋町63番,24時間営業
0000000468,松屋,香里園店,34.78107,135.631923,5720084,大阪府寝屋川市香里南之町30-14,24時間営業
0000000469,松屋,百万遍店,35.025399,135.781421,6068301,京都府京都市左京区吉田泉殿町1-87番地,24時間営業
0000000470,松屋,大阪茨木店,34.813831,135.565214,5670031,大阪府茨木市春日1-4-1,24時間営業
0000000471,松屋,祖師谷大蔵3丁目店,35.640411,139.611863,1570072,東京都世田谷区祖師谷3-32-14,24時間営業
0000000472,松屋,新橋3丁目店,35.662696,139.760036,1050004,東京都港区新橋3-16-1,24時間営業
0000000473,松屋,小牧店,35.276586,136.909199,4850059,愛知県小牧市小木東1-146,24時間営業
0000000474,松屋,静岡八幡店,34.966522,138.398403,4228076,静岡県静岡市駿河区八幡2丁目3-17,24時間営業
0000000475,松屋,豊橋つつじが丘店,34.746492,137.401414,4400858,愛知県豊橋市つつじが丘1-6-10,24時間営業
0000000476,松屋,神戸新開地店,34.673223,135.175713,6520811,兵庫県神戸市兵庫区新開地4-6-26,24時間営業
0000000477,松屋,豊田東新町店,35.076065,137.125563,4710045,愛知県豊田市東新町5-20-1,24時間営業
0000000478,松屋,越谷駅前店,35.884997,139.789718,3430816,埼玉県越谷市弥生町3-24,24時間営業
0000000479,松屋,千石店,35.725304,139.746693,1120011,東京都文京区千石4-46-14,月曜以外24時間営業※月曜は2時閉店（ラストオーダー1:40）、4時開店
0000000480,松屋,桑名店,35.060119,136.68903,5110068,三重県桑名市中央町3-64-1,24時間営業
0000000481,松屋,河原町店,35.00275,135.771791,6048033,京都府京都市中京区河原町通蛸薬師上る奈良屋町305番地,24時間営業
0000000482,松屋,小平店,35.733481,139.490116,1870041,東京都小平市美園町1-3-9,24時間営業
0000000483,松屋,菊名店,35.507046,139.634993,2220011,神奈川県横浜市港北区菊名4-2-6,24時間営業
0000000484,松屋,国領店,35.646254,139.560715,1820022,東京都調布市国領町4-8-1,24時間営業
0000000485,松屋,生田店,35.612092,139.545611,2140038,神奈川県川崎市多摩区生田7-8-9,24時間営業
0000000486,松屋,川崎西口店 ※3月14日15時より一時閉店、3月20日15時新規改装オープン予定,35.528172,139.696469,2120014,神奈川県川崎市幸区大宮町5-1,24時間営業
0000000487,松屋,東武霞ヶ関店,35.922064,139.446189,3501103,埼玉県川越市霞ヶ関東1-2-22,24時間営業
0000000488,松屋,代々木上原店,35.66659,139.683839,1510066,東京都渋谷区西原3-7-6 大又建設ビル,24時間営業
0000000489,松屋,西ノ宮店,34.734721,135.349957,6620911,兵庫県西宮市池田町9-7 太陽ビル1F103号,24時間営業
0000000490,松屋,博多駅前店,33.586544,130.416115,8120011,福岡県福岡市博多区博多駅前3丁目30-29 タイセイ第2ビル,24時間営業
0000000491,松屋,西新店,33.579448,130.36011,8140002,福岡県福岡市早良区西新5丁目1-2,24時間営業
0000000492,松屋,下板橋店,35.74218,139.717586,1700011,東京都豊島区池袋本町3-25-13,24時間営業
0000000494,松屋,東中野店,35.703496,139.68583,1640003,東京都中野区東中野3-1-19,24時間営業
0000000495,松屋,桜橋店,34.694736,135.497511,5300002,大阪府大阪市北区曽根崎新地2丁目2-13,24時間営業
0000000497,松屋,酒々井PA店,35.709553,140.287788,2850913,千葉県印旛郡酒々井町大字墨字花之作1419-1,24時間営業
0000000498,松屋,東大宮駅前店,35.945666,139.644496,3370051,埼玉県さいたま市見沼区東大宮5-38-5 あずまビル1F,24時間営業
0000000499,松屋,新宿1丁目店,35.687771,139.71761,1600022,東京都新宿区新宿1丁目26-6 新宿加藤ビルディング1F,4:30から翌2:30
0000000500,松屋,草加清門町店,35.851356,139.787005,3400055,埼玉県草加市清門1丁目423-1,24時間営業
0000000501,松屋,蓮田店,35.978311,139.65711,3490111,埼玉県蓮田市東5-2-9 NKB2ビル1F,5時から翌2時（ラストオーダー1:30）
0000000502,松屋,京都西院店,34.999982,135.734555,6150012,京都府京都市右京区西院高山寺町12-7,24時間営業
0000000503,松屋,南津守店,34.623669,135.483063,5570063,大阪府大阪市西成区南津守6-6-46,24時間営業
0000000505,松屋,鎌ヶ谷店,35.762809,140.009477,2730122,千葉県鎌ケ谷市東初富4-2-83,24時間営業
0000000506,松屋,大津通錦店,35.169098,136.909147,4600003,愛知県名古屋市中区錦3-7-10,24時間営業
0000000507,松屋,平針駅前店,35.119215,137.010536,4680011,愛知県名古屋市天白区平針3-7-11,24時間営業
0000000508,松屋,京王つつじヶ丘店,35.655247,139.578735,1820005,東京都調布市東つつじヶ丘1-2-5,24時間営業
0000000509,松屋,朝霞台店,35.812369,139.590991,3510033,埼玉県朝霞市浜崎1-3-10 AX-1ビル1F,24時間営業
0000000511,松屋,成田店,35.771052,140.319994,2860044,千葉県成田市不動ヶ岡2148-6,24時間営業
0000000512,松屋,野並店,35.096333,136.956454,4580801,愛知県名古屋市緑区鳴海町字杜若7-1,24時間営業
0000000513,松屋,中板橋店,35.752558,139.700095,1730016,東京都板橋区中板橋21-2 中板堂ビル,24時間営業
0000000514,松屋,小田原店,35.251142,139.161592,2500011,神奈川県小田原市栄町2-8-33 岩下第1ビル,24時間営業
0000000516,松屋,久米川店,35.746626,139.476414,1890013,東京都東村山市栄町1-5-2,24時間営業
0000000517,松屋,亀戸南店,35.693634,139.829708,1360071,東京都江東区亀戸6-59-10 サンシャレード亀戸1F,月曜以外24時間営業※月曜は1時閉店（ラストオーダー0:45）、6時開店
0000000518,松屋,ふじみ野駅前店,35.857453,139.525376,3540035,埼玉県富士見市ふじみ野西1-20-2 第7松本ビル1F,24時間営業
0000000519,松屋,刈谷日高店,35.002734,136.996451,4480046,愛知県刈谷市日高町4丁目611,24時間営業
0000000520,松屋,静岡池田店,34.983279,138.426792,4228005,静岡県静岡市駿河区池田404-1,24時間営業
0000000521,松屋,板橋区役所前店,35.748046,139.713014,1730004,東京都板橋区板橋2-61-11 ホシカメビル1Ｆ,24時間営業
0000000522,松屋,千葉幸町店,35.622248,140.093931,2610001,千葉県千葉市美浜区幸町2-21-30,24時間営業
0000000523,松屋,名駅西店,35.171393,136.881877,4530013,愛知県名古屋市中村区亀島2-12-1,24時間営業
0000000526,松屋,半田店,34.879486,136.913488,4750925,愛知県半田市宮本町6-216-7,24時間営業
0000000528,松屋,鶴ヶ島店,35.933034,139.426212,3500809,埼玉県川越市鯨井新田1-18 細田ビル,24時間営業
0000000529,松屋,下総中山店,35.711983,139.947039,2730035,千葉県船橋市本中山2-15-10,24時間営業
0000000530,松屋,本川越店,35.910606,139.484878,3500043,埼玉県川越市新富町2-33-1,24時間営業
0000000531,松屋,江戸川店,35.672953,139.881773,1340013,東京都江戸川区江戸川6-8-49,24時間営業
0000000532,松屋,北綾瀬店,35.773139,139.833061,1210055,東京都足立区加平1-22-11,24時間営業
0000000533,松屋,小平小川店,35.73052,139.468871,1870031,東京都小平市小川東町5-2-5,24時間営業
0000000535,松屋,東久留米下里店,35.750483,139.504277,2030043,東京都東久留米市下里3-24-12,24時間営業
0000000536,松屋,蕨北町店,35.828121,139.676096,3350001,埼玉県蕨市北町5-4-5,24時間営業
0000000538,松屋,横浜南幸店,35.460633,139.620565,2200005,神奈川県横浜市西区南幸2-14-7 第6NYビル1・2F,24時間営業
0000000539,松屋,豊橋藤沢町店,34.742263,137.375254,4418061,愛知県豊橋市藤沢町138番,24時間営業
0000000540,松屋,岡山駅前店,34.662045,133.924359,7000901,岡山県岡山市北区本町3-3,24時間営業
0000000541,松屋,岡山駅西口店,34.664221,133.919542,7000024,岡山県岡山市北区駅元町22-13 西口駅前ビル,24時間営業
0000000542,松屋,蓮田関山店,35.986358,139.652491,3490121,埼玉県蓮田市関山2-7-7,24時間営業
0000000544,松屋,沼袋店,35.716011,139.666501,1650025,東京都中野区沼袋3-4-18,24時間営業
0000000546,松屋,東大井町店,35.601955,139.738644,1400011,東京都品川区東大井5-21-5,24時間営業
0000000547,松屋,二俣川店,35.46216,139.534848,2410821,神奈川県横浜市旭区二俣川1-45-18 東新ビル,24時間営業
0000000548,松屋,谷町九丁目店,34.662818,135.518744,5430072,大阪府大阪市天王寺区生玉前町1-21,24時間営業
0000000549,松屋,本蓮沼店,35.76514,139.705489,1740055,東京都板橋区泉町6番11号,24時間営業
0000000551,松屋,三田店,35.643536,139.748063,1080014,東京都港区芝5-29-2 三善ビル1F,平日24時間営業※日・月・祝翌日は2時閉店、4時開店
0000000552,松屋,伊勢原店,35.391703,139.316248,2591132,神奈川県伊勢原市桜台1-2-30 三協ビル,月曜以外24時間営業※月曜は2時閉店（ラストオーダー1:45）、6時開店
0000000553,松屋,天神店,33.58916,130.40006,8100001,福岡県福岡市中央区天神3-3-1 木下ビル,24時間営業
0000000554,松屋,沼津店,35.117841,138.867337,4100041,静岡県沼津市筒井町9-7,24時間営業
0000000555,松屋,水戸東原店,36.382055,140.446883,3100035,茨城県水戸市東原2-9-6,24時間営業
0000000556,松屋,川越西口店,35.90348,139.486069,3501123,埼玉県川越市脇田本町1-7 川越駅西口ビル,24時間営業
0000000557,松屋,富士ラウンドワン店,35.15002,138.69564,4170024,静岡県富士市八代町4-23,24時間営業
0000000558,松屋,湘南台店,35.392803,139.467479,2520804,神奈川県藤沢市湘南台2-5-9,24時間営業
0000000559,松屋,つくば西大通り店,36.091707,140.100861,3050821,茨城県つくば市春日4-1-5,24時間営業
0000000560,松屋,武庫川店,34.727581,135.388002,6600064,兵庫県尼崎市稲葉荘1-14-5,24時間営業
0000000561,松屋,船橋南口店,35.697319,139.988777,2730005,千葉県船橋市本町1-3-1 フェイスビル1F-0108,24時間営業
0000000562,松屋,稲城矢野口店,35.635656,139.525912,2060812,東京都稲城市矢野口517-2,24時間営業
0000000564,松屋,新杉田店,35.382298,139.623311,2350032,神奈川県横浜市磯子区新杉田町3-1 ステイト新杉田,24時間営業
0000000565,松屋,立川柴崎町店,35.684598,139.410901,1900023,東京都立川市柴崎町6-10-8,24時間営業
0000000566,松屋,水戸バイパス店,36.341787,140.476361,3100836,茨城県水戸市元吉田町1435-7,24時間営業
0000000569,松屋,東大和清水店,35.743818,139.446108,2070004,東京都東大和市清水5-1095-7,24時間営業
0000000570,松屋,朝霞店,35.793364,139.602485,3510011,埼玉県朝霞市本町2-4-18 バモスビル1F,24時間営業
0000000571,松屋,青梅新町店,35.778936,139.322997,1980024,東京都青梅市新町9-2020,24時間営業
0000000573,松屋,反町店,35.471609,139.628197,2210841,神奈川県横浜市神奈川区松本町1-1-9 MKビル,5時から翌2時（ラストオーダー1:45）
0000000574,松屋,淵野辺北口店,35.566713,139.39882,2520206,神奈川県相模原市中央区淵野辺3-19-9,24時間営業
0000000575,松屋,青砥店,35.742383,139.858971,1250062,東京都葛飾区青戸3-37-19,24時間営業
0000000576,松屋,与野店,35.875157,139.621529,3380014,埼玉県さいたま市中央区上峰4-14-12,24時間営業
0000000577,松屋,高田馬場2丁目店,35.708531,139.712867,1690075,東京都新宿区高田馬場2-1-2,24時間営業
0000000578,松屋,つくば大角豆店,36.050712,140.149944,3050043,茨城県つくば市大角豆2012-930番地,24時間営業
0000000579,松屋,東淀川菅原店,34.735112,135.53013,5330022,大阪府大阪市東淀川区菅原2-7-9,24時間営業
0000000580,松屋,東神奈川店,35.476822,139.635419,2210822,神奈川県横浜市神奈川区西神奈川1-20-4 加賀ビル,24時間営業
0000000582,松屋,布施南店,34.649427,135.567058,5770837,大阪府東大阪市寿町3-10-19,24時間営業
0000000584,松屋,茅ヶ崎店,35.327468,139.407666,2530044,神奈川県茅ヶ崎市新栄町8-8 コジマビル1F,24時間営業
0000000585,松屋,上前津店,35.155188,136.909593,4600011,愛知県名古屋市中区大須4-11-9,24時間営業
0000000588,松屋,今出川店,35.025585,135.761998,6020033,京都府京都市上京区今出川通室町東入ル今出川町332番地,24時間営業
0000000590,松屋,穴川オーツーパーク店,35.647941,140.121767,2630051,千葉県千葉市稲毛区園生町380-1,24時間営業
0000000591,松屋,天神橋六丁目店,34.708729,135.513254,5310074,大阪府大阪市北区本庄東1-6-22,24時間営業
0000000592,松屋,土浦真鍋店,36.088329,140.202964,3000051,茨城県土浦市真鍋1-12-9,24時間営業
0000000593,松屋,越谷蒲生店,35.854319,139.809864,3430833,埼玉県越谷市蒲生南町15-4,24時間営業
0000000594,松屋,王子1丁目店,35.751634,139.743443,1140002,東京都北区王子1-6-11 都築ビル102号,24時間営業
0000000595,松屋,足立保塚店,35.783588,139.813649,1210072,東京都足立区保塚町12-21,24時間営業
0000000596,松屋,高坂店,35.999924,139.400447,3550063,埼玉県東松山市元宿1-11-2 松田ビル,24時間営業
0000000597,松屋,石橋駅前店,34.804393,135.447336,5630032,大阪府池田市石橋1-10-27,24時間営業
0000000598,松屋,和光白子店,35.765168,139.622979,3510101,埼玉県和光市白子1-7-12,24時間営業
0000000600,松屋,仙台中央店,38.257009,140.882854,9800021,宮城県仙台市青葉区中央3-6-3 1F,24時間営業
0000000602,松屋,仙台南町通り店,38.255053,140.875975,9800811,宮城県仙台市青葉区一番町2-7-7,24時間営業
0000000603,松屋,東比恵店,33.586591,130.431689,8120007,福岡県福岡市博多区東比恵1-4-5,24時間営業
0000000604,松屋,野火止店,35.799638,139.558531,3520011,埼玉県新座市野火止4-7-29,24時間営業
0000000605,松屋,四谷三丁目店,35.684091,139.72377,1600017,東京都新宿区左門町2-5 四谷三国ビル,月から土：5時から翌3時（ラストオーダー2:55）、日・祝日：5時から翌1時（ラストオーダー0:55）
0000000606,松屋,糀谷店,35.551492,139.733409,1440034,東京都大田区西糀谷4-14-12,5時から24時（ラストオーダー23:45）
0000000607,松屋,浦和太田窪店,35.845282,139.690026,3360015,埼玉県さいたま市南区大字太田窪2840-2,24時間営業
0000000608,松屋,浦和町谷店,35.856209,139.624556,3380836,埼玉県さいたま市桜区町谷2-1-1,24時間営業
0000000609,松屋,仙台鹿島店,38.3103,140.913457,9813117,宮城県仙台市泉区市名坂字鹿島11,24時間営業
0000000611,松屋,新潟駅前店,37.911379,139.064873,9500087,新潟県新潟市中央区東大通1-6-1,24時間営業
0000000612,松屋,大津店,34.984182,135.891012,5200835,滋賀県大津市別保3-2-55,24時間営業
0000000613,松屋,清水南店,34.981921,138.505139,4240906,静岡県静岡市清水区駒越北町4番1号,24時間営業
0000000615,松屋,沼津南店,35.081964,138.871813,4100813,静岡県沼津市上香貫字三園町1372番地,9時から26時（ラストオーダー25時）
0000000616,松屋,東住吉湯里店,34.606521,135.541097,5460013,大阪府大阪市東住吉区湯里5-20-6,24時間営業
0000000618,松屋,エイトタウン本宮店,37.482857,140.38301,9691104,福島県本宮市荒井字久保田132-8-5,24時間営業
0000000619,松屋,本内店,37.776525,140.488605,9600103,福島県福島市本内字松川畑2-2,24時間営業
0000000621,松屋,大垣店,35.346329,136.625689,5030852,岐阜県大垣市禾森町5-190,24時間営業
0000000622,松屋,花園町店,34.642461,135.499381,5570031,大阪府大阪市西成区鶴見橋1-3-5 ビュアファースト花園1F,24時間営業
0000000623,松屋,仙台定禅寺通り店,38.262928,140.87164,9800803,宮城県仙台市青葉区国分町3-3-5 リスズビル1F,24時間営業
0000000624,松屋,前橋上小出町店,36.414095,139.064596,3710037,群馬県前橋市上小出町2-41-7,24時間営業
0000000625,松屋,日立桜川町店,36.556896,140.636088,3160002,茨城県日立市桜川町2-4-12,24時間営業
0000000626,松屋,四日市堀木店,34.968889,136.6175,5100076,三重県四日市市堀木1-3-20,24時間営業
0000000627,松屋,多治見店,35.337722,137.122034,5070038,岐阜県多治見市白山町4-50,24時間営業
0000000628,松屋,綾瀬店,35.759249,139.827593,1200005,東京都足立区綾瀬3-2-8 シティプレイスアヤセ1F,24時間営業
0000000629,松屋,住之江公園店 ※3月12日8時より一時閉店、3月12日20時新規改装オープン予定,34.605171,135.475538,5590024,大阪府大阪市住之江区新北島1-1-7 ビックドックプラザ1F,24時間営業
0000000631,松屋,古淵店,35.552896,139.423152,2520344,神奈川県相模原市南区古淵1-7-1,24時間営業
0000000632,松屋,亀田インター店,37.879761,139.078024,9500923,新潟県新潟市中央区姥ケ山63-1,24時間営業
0000000634,松屋,五個荘店,35.158393,136.200443,5291413,滋賀県東近江市五個荘簗瀬町上川原5-2,24時間営業
0000000635,松屋,岡山商科大前店,34.680191,133.907578,7000086,岡山県岡山市北区津島西坂2-5-5,24時間営業
0000000636,松屋,小倉片野店,33.859228,130.883273,8020064,福岡県北九州市小倉北区片野4-20-12,24時間営業
0000000638,松屋,一宮店,35.300366,136.824801,4910023,愛知県一宮市赤見1-2-4,24時間営業
0000000639,松屋,城清水店,37.372973,140.377817,9630115,福島県郡山市南1-2,24時間営業
0000000641,松屋,石和店,35.641232,138.624585,4060035,山梨県笛吹市石和町広瀬1374,24時間営業
0000000642,松屋,広島矢野店,34.351057,132.536282,7360085,広島県広島市安芸区矢野西1-2-5,24時間営業
0000000643,松屋,伊勢崎上泉町店,36.308247,139.196133,3720045,群馬県伊勢崎市上泉町175番4,24時間営業
0000000645,松屋,大泉学園南口店,35.745876,139.589712,1780063,東京都練馬区東大泉5-41-14 エクラン大泉1F,24時間営業
0000000647,松屋,伊勢崎宮子町店,36.329823,139.163832,3720801,群馬県伊勢崎市宮子町3426-1,24時間営業
0000000649,松屋,福井御幸店,36.053689,136.244464,9100854,福井県福井市御幸4-20-8,24時間営業
0000000651,松屋,保土ヶ谷店,35.442879,139.602828,2400023,神奈川県横浜市保土ヶ谷区岩井町4,24時間営業
0000000652,松屋,柏崎店,37.37635,138.584258,9450000,新潟県柏崎市東柳田23-3,24時間営業
0000000653,松屋,袖ヶ浦店,35.424704,139.967153,2990261,千葉県袖ケ浦市福王台3-12-4,24時間営業
0000000655,松屋,立川北口店,35.695518,139.414689,1900012,東京都立川市曙町2丁目3番地3,24時間営業
0000000656,松屋,小山店,36.295196,139.821897,3230822,栃木県小山市駅南町6-28-22,24時間営業
0000000657,松屋,館林店,36.230688,139.548052,3740016,群馬県館林市松原3丁目16番5,24時間営業
0000000658,松屋,川越インター店,35.897403,139.470036,3501117,埼玉県川越市広栄町6-6,24時間営業
0000000659,松屋,上尾緑丘店,35.983476,139.582088,3620015,埼玉県上尾市緑丘3-3-7,24時間営業
0000000660,松屋,西船橋南店,35.704051,139.958078,2730033,千葉県船橋市本郷町666-3 リバーサイド本郷,24時間営業
0000000661,松屋,豊山店,35.246509,136.911312,4800202,愛知県西春日井郡豊山町大字豊場字栄81,24時間営業
0000000662,松屋,新潟米山店,37.90357,139.058581,9500916,新潟県新潟市中央区米山5-14-5,24時間営業
0000000665,松屋,西新宿8丁目店,35.691639,139.695391,1600023,東京都新宿区西新宿8-12-1 ダイヤモンドビル1F,平日24時間営業※日・月・祝・祝翌日は3時閉店、5時開店
0000000666,松屋,取手店,35.892465,140.066998,3020004,茨城県取手市取手3-1-2 取手プラザ1Ｆ,24時間営業
0000000667,松屋,五反野店,35.761803,139.81154,1200015,東京都足立区足立4-29-8 重沢ビル1Ｆ,24時間営業
0000000668,松屋,本駅前店,36.228514,137.968411,3900811,長野県松本市中央1-2-23 山平ビル,24時間営業
0000000670,松屋,高崎駅前店,36.319448,139.013251,3700849,群馬県高崎市八島町17-10,24時間営業
0000000672,松屋,奈良駅前店,34.675919,135.822614,6308122,奈良県奈良市三条本町3番8号,24時間営業
0000000673,松屋,入間店,35.808293,139.38075,3580014,埼玉県入間市宮寺3186-9,24時間営業
0000000674,松屋,新松戸西口店,35.821593,139.923896,2700034,千葉県松戸市新松戸2-21-103,24時間営業
0000000675,松屋,水道橋店,35.698201,139.755324,1010061,東京都千代田区神田三崎町3-7-13 三大ビル,24時間営業
0000000676,松屋,盛岡駅前通店,39.69936,141.140915,0200034,岩手県盛岡市盛岡駅前通9-9,24時間営業
0000000677,松屋,富山田中町店,36.693024,137.244041,9300985,富山県富山市田中町4-18-43,24時間営業
0000000678,松屋,柏中央町店,35.856815,139.974185,2770021,千葉県柏市中央町2番8号 柏大黒ビル,24時間営業
0000000680,松屋,木更津店,35.373715,139.947717,2920044,千葉県木更津市太田4丁目15-5,24時間営業
0000000682,松屋,神戸玉津店,34.664645,134.982699,6512133,兵庫県神戸市西区枝吉5丁目147番,24時間営業
0000000683,松屋,白河店,37.122453,140.189054,9618041,福島県西白河郡西郷村字豊作東1,24時間営業
0000000685,松屋,千林大宮店,34.720623,135.552216,5350013,大阪府大阪市旭区森小路2-6-1,24時間営業
0000000686,松屋,大宮吉野町店,35.943456,139.624683,3310811,埼玉県さいたま市北区吉野町1-2-3,24時間営業
0000000688,松屋,福山東店,34.493682,133.402151,7210974,広島県福山市東深津町3-23-8,24時間営業
0000000691,松屋,大曽根北店,35.195803,136.9416,4620813,愛知県名古屋市北区山田町4-72,24時間営業
0000000692,松屋,周南店,34.06208,131.802934,7450056,山口県周南市新宿通5-6-23,24時間営業
0000000693,松屋,茂原店,35.426799,140.290652,2970028,千葉県茂原市道表2-12,24時間営業
0000000694,松屋,神戸伊川谷店,34.660366,135.018384,6512113,兵庫県神戸市西区伊川谷町有瀬1304,24時間営業
0000000695,松屋,牛久店,35.979451,140.142465,3001236,茨城県牛久市田宮町41-1,24時間営業
0000000696,松屋,小金井関野町店,35.709639,139.525204,1840001,東京都小金井市関野町1丁目3-5,24時間営業
0000000697,松屋,御幸本町店,36.580278,139.930485,3210983,栃木県宇都宮市御幸本町4732-7,24時間営業
0000000698,松屋,盛岡大通店,39.700004,141.152231,0200022,岩手県盛岡市大通1-7-5,24時間営業
0000000699,松屋,仙台八乙女店,38.31217,140.883323,9813121,宮城県仙台市泉区上谷刈1-1-5,24時間営業
0000000700,松屋,高崎問屋町店,36.34707,139.013428,3700006,群馬県高崎市問屋町1-10-4,24時間営業
0000000701,松屋,大和田店,34.739539,135.606481,5710079,大阪府門真市野里町1-23,24時間営業
0000000702,松屋,二又瀬店,33.604414,130.444032,8120066,福岡県福岡市東区二又瀬15-10,24時間営業
0000000703,松屋,聖蹟桜ヶ丘店,35.646793,139.452051,2060011,東京都多摩市関戸2-39-10,24時間営業
0000000704,松屋,広島紙屋町店,34.391524,132.458499,7300051,広島県広島市中区大手町1-4-5 アロハビル1F,24時間営業
0000000705,松屋,大宮奈良町店,35.938047,139.606217,3310822,埼玉県さいたま市北区奈良町51-4,24時間営業
0000000706,松屋,琴似店,43.076887,141.31068,0630811,北海道札幌市西区琴似一条2-6-8,24時間営業
0000000707,松屋,郡山芳賀店,37.386795,140.397609,9638813,福島県郡山市芳賀3-1-23,24時間営業
0000000709,松屋,彦根店,35.248928,136.266489,5220027,滋賀県彦根市東沼波町125-1,24時間営業
0000000710,松屋,岩出店,34.259697,135.3309,6496222,和歌山県岩出市岡田4-1,24時間営業
0000000711,松屋,すすきの店,43.053036,141.358113,0640804,北海道札幌市中央区南4条西3-1-1 第3グリーンビル,24時間営業
0000000713,松屋,大国町店,34.655521,135.500932,5560012,大阪府大阪市浪速区敷津東1-9-16,24時間営業
0000000714,松屋,入間東藤沢店,35.814816,139.42151,3580012,埼玉県入間市東藤沢4-2-17,24時間営業
0000000715,松屋,上野浅草口店 ※3月5日15時より一時閉店、3月15日15時新規改装オープン予定,35.709309,139.780601,1100005,東京都台東区上野7-2-1,24時間営業
0000000716,松屋,山口店,34.163807,131.451053,7530066,山口県山口市泉町9-37,24時間営業
0000000717,松屋,山形深町店,38.233086,140.319712,9902462,山形県山形市深町1-2-28,24時間営業
0000000718,松屋,仙台大和町店,38.245423,140.923045,9840042,宮城県仙台市若林区大和町3-2-11,24時間営業
0000000719,松屋,金沢増泉店,36.556421,136.639562,9218027,石川県金沢市神田2-2-25,24時間営業
0000000720,松屋,高井戸店,35.67958,139.618433,1680071,東京都杉並区高井戸西1-29-3,24時間営業
0000000721,松屋,ひたちなか店,36.399834,140.511537,3120033,茨城県ひたちなか市市毛字原坪894-36,24時間営業
0000000723,松屋,浅草国際通店,35.71112,139.796106,1110032,東京都台東区浅草2-11-7 和田ビル,24時間営業
0000000725,松屋,三島店,35.106334,138.917766,4110835,静岡県三島市玉川243-1,24時間営業
0000000726,松屋,中井店,35.7113,139.690112,1610034,東京都新宿区上落合2-20-3,24時間営業
0000000727,松屋,所沢若狭店,35.799994,139.416796,3591151,埼玉県所沢市若狭4-2453-1,24時間営業
0000000728,松屋,山梨竜王店,35.635992,138.522856,4000117,山梨県甲斐市西八幡2234-1,24時間営業
0000000729,松屋,長野若里店,36.625842,138.203769,3800915,長野県長野市大字稲葉上千田沖312-2,24時間営業
0000000730,松屋,大宮大成町店,35.915724,139.617901,3300852,埼玉県さいたま市大宮区大成町3-517,24時間営業
0000000731,松屋,太田飯塚町店,36.279438,139.380471,3730817,群馬県太田市飯塚町1443,24時間営業
0000000732,松屋,富山掛尾店,36.664849,137.213457,9398212,富山県富山市掛尾町259,24時間営業
0000000734,松屋,花小金井駅前店,35.723625,139.516099,1870002,東京都小平市花小金井1-8-6 大沢ビル(ビックアロービル),24時間営業
0000000735,松屋,浦和所沢バイパス店,35.839038,139.572951,3540013,埼玉県富士見市水谷東1-1-2,24時間営業
0000000736,松屋,金沢工大前店,36.52572,136.632953,9218812,石川県野々市市扇が丘8-8,24時間営業
0000000737,松屋,青物横丁店,35.607837,139.748362,1400002,東京都品川区東品川3-23-18 アツミビル,24時間営業
0000000738,松屋,静岡御幸町店,34.970136,138.390556,4200857,静岡県静岡市葵区御幸町9-2-1,24時間営業
0000000739,松屋,長瀬店,34.647321,135.580576,5770807,大阪府東大阪市菱屋西1-17-14,24時間営業
0000000740,松屋,佐野店,36.304997,139.594606,3270831,栃木県佐野市浅沼町558-3,24時間営業
0000000741,松屋,芝大門店,35.653536,139.75633,1050012,東京都港区芝大門2-1-1 第2境野ビル,平日24時間営業※日・月・祝翌日は2時閉店、4時開店
0000000742,松屋,北44条店,43.110398,141.347704,0070840,北海道札幌市東区北44条東1-1-30,24時間営業
0000000743,松屋,後楽園店,35.701477,139.758249,1130033,東京都文京区本郷1-20-5 杉浦ビル,平日24時間営業※土・日・祝は5時から翌1時（ラストオーダー0:45）
0000000744,松屋,与野駅前店,35.882051,139.642141,3300071,埼玉県さいたま市浦和区上木崎1-4-2,24時間営業
0000000745,松屋,宇都宮オリオン通店,36.556822,139.887979,3200803,栃木県宇都宮市曲師町5-8 多喜屋ビル,24時間営業
0000000746,松屋,江戸川橋店,35.706665,139.734611,1120014,東京都文京区関口1-47-12 江戸川橋ビル1F,24時間営業
0000000747,松屋,岡山十日市店,34.633907,133.926064,7000856,岡山県岡山市北区十日市西町5-28,24時間営業
0000000748,松屋,南郷通店,43.03633,141.417923,0030022,北海道札幌市白石区南郷通9丁目南5-10,24時間営業
0000000749,松屋,中洲店,33.590682,130.407547,8100801,福岡県福岡市博多区中洲5-1-7 SPOONビル1階,24時間営業
0000000750,松屋,大宮桜木町店,35.904131,139.620325,3300854,埼玉県さいたま市大宮区桜木町2-472-3,24時間営業
0000000751,松屋,三郷店,35.841506,139.888376,3410024,埼玉県三郷市三郷2-1-4 ふじプラザビル,24時間営業
0000000752,松屋,上越藤野店,37.148744,138.253983,9430171,新潟県上越市藤野新田1259,24時間営業
0000000753,松屋,宇都宮簗瀬町店,36.538716,139.891409,3210933,栃木県宇都宮市簗瀬町1984-6,24時間営業
0000000755,松屋,川口並木店,35.817088,139.711353,3320034,埼玉県川口市並木4-6-20,24時間営業
0000000756,松屋,広島胡町店,34.389824,132.468784,7300021,広島県広島市中区胡町1-20永井興産胡町ビル1階,24時間営業
0000000757,松屋,京成高砂店,35.747222,139.870462,1250054,東京都葛飾区高砂2-38-5,24時間営業
0000000758,松屋,南浦和店,35.844861,139.673068,3360017,埼玉県さいたま市南区南浦和2-36-16 田中ビル,24時間営業
0000000759,松屋,豊洲IHIビル店,35.656054,139.796656,1350061,東京都江東区豊洲3-1-1 豊洲IHIビル107区,平日24時間営業※土・祝20:30まで、日8時から20:30、月・祝翌日6:30から
0000000760,松屋,南茨木店,34.798521,135.568639,5670868,大阪府茨木市沢良宜西1-2-20,24時間営業
0000000761,松屋,長野柳原店,36.654429,138.253877,3810017,長野県長野市大字小島86-1,24時間営業
0000000762,松屋,目白店,35.719039,139.708271,1710031,東京都豊島区目白3-5-13 フジヤビル1F,24時間営業
0000000763,松屋,難波千日前店,34.659969,135.506268,5420075,大阪府大阪市中央区難波千日前14-14,24時間営業
0000000765,松屋,春日部豊町店,35.968108,139.740136,3440066,埼玉県春日部市豊町1-27-2,24時間営業
0000000767,松屋,長久手店,35.168055,137.047512,4801121,愛知県長久手市武蔵塚702,24時間営業
0000000768,松屋,浦和田島通店,35.838516,139.642241,3360032,埼玉県さいたま市南区四谷3-7-6,24時間営業
0000000769,松屋,追浜店,35.312846,139.629812,2370064,神奈川県横須賀市追浜町3-13-13,24時間営業
0000000770,松屋,稲田堤店,35.630337,139.537956,2140001,神奈川県川崎市多摩区菅2-1-1,24時間営業
0000000771,松屋,鶴川店,35.58018,139.483541,1950053,東京都町田市能ケ谷1-5-2 apple studio 1F,24時間営業
0000000772,松屋,川口駅前店,35.798212,139.721335,3320015,埼玉県川口市川口1-1-1 CuPo・La専門店A105,24時間営業
0000000773,松屋,本高宮店,36.211123,137.963328,3900834,長野県松本市高宮中2-5,24時間営業
0000000774,松屋,川越城下町店,35.923754,139.495619,3500853,埼玉県川越市城下町7-8,24時間営業
0000000775,松屋,山形駅前店,38.244808,140.333181,9900039,山形県山形市香澄町1-5-17 第一大宝ビル,24時間営業
0000000778,松屋,船橋北口店,35.701075,139.988836,2730005,千葉県船橋市本町6-6-4 北口スクエアビル,24時間営業
0000000779,松屋,西小山店,35.611733,139.702061,1420062,東京都品川区小山6-5-1,24時間営業
0000000782,松屋,和光市駅前店,35.785057,139.614583,3510114,埼玉県和光市本町3-2 ステイパルビル,24時間営業
0000000783,松屋,御影店,34.712051,135.259318,6580054,兵庫県神戸市東灘区御影中町1-6-6 シティーホームズ御影,24時間営業
0000000784,松屋,桜台店,35.73508,139.665724,1760002,東京都練馬区桜台1-4-67,24時間営業
0000000785,松屋,赤羽西口店,35.77497,139.722126,1150055,東京都北区赤羽西1-38-2,24時間営業
0000000786,松屋,金沢示野店,36.576807,136.620236,9200069,石川県金沢市戸板西1-55 イオンタウン金沢示野レストラン棟,24時間営業
0000000787,松屋,足立江北店,35.774887,139.767624,1230872,東京都足立区江北3丁目35番12号,24時間営業
0000000788,松屋,植田一本松店,35.134474,136.988937,4680008,愛知県名古屋市天白区一本松2-701,24時間営業
0000000789,松屋,石神井台店,35.735274,139.588804,1770045,東京都練馬区石神井台6丁目7-2,24時間営業
0000000790,松屋,原団地店,35.841006,139.805781,3400011,埼玉県草加市栄町3-1-9,24時間営業
0000000791,松屋,西新宿3丁目店,35.681246,139.69411,1600023,東京都新宿区西新宿3-7-21 陽輪台西新宿林屋ビル,24時間営業
0000000792,松屋,戸七畝割店,35.773968,139.911077,2710092,千葉県松戸市松戸2303-16,24時間営業
0000000793,松屋,前橋元総社町店,36.381075,139.046783,3710846,群馬県前橋市元総社町90-1,24時間営業
0000000794,松屋,青柳町店,35.155824,136.941966,4640852,愛知県名古屋市千種区青柳町6丁目21-1,24時間営業
0000000795,松屋,福井大和田店,36.091948,136.254657,9100836,福井県福井市大和田2-1304,24時間営業
0000000797,松屋,上新庄店,34.745183,135.53638,5330005,大阪府大阪市東淀川区瑞光1-11-29 新高ビル1階,24時間営業
0000000799,松屋,池袋トキワ通店,35.729708,139.713122,1710021,東京都豊島区西池袋1丁目40番4号 川松ビル,24時間営業
0000000800,松屋,吉川店,35.873754,139.846312,3420045,埼玉県吉川市木売1-4-11,24時間営業
0000000801,松屋,大阪野田店,34.68679,135.478398,5530006,大阪府大阪市福島区吉野3-12-27,24時間営業
0000000802,松屋,戸田駅前店,35.812865,139.673226,3350021,埼玉県戸田市大字新曽字柳原329-1,24時間営業
0000000803,松屋,用賀店,35.623751,139.638238,1580097,東京都世田谷区用賀2-38-14,24時間営業
0000000804,松屋,庄内店,34.746221,135.477576,5610832,大阪府豊中市庄内西町2-22-10 幸栄ビル1F,24時間営業
0000000805,松屋,船堀店,35.682558,139.867726,1340091,東京都江戸川区船堀1-4-16 SKビル船堀,24時間営業
0000000806,松屋,大倉山店,35.518373,139.632838,2220037,神奈川県横浜市港北区大倉山3-1-28,5時から翌2時（ラストオーダー1:45）
0000000807,松屋,飯田橋駅前店,35.698439,139.74886,1020072,東京都千代田区飯田橋4丁目9-10 飯田橋第一ビル,24時間営業
0000000808,松屋,大森町店,35.568986,139.734289,1430015,東京都大田区大森西3-20-14,24時間営業
0000000809,松屋,門真店,34.735816,135.615588,5710075,大阪府門真市下島町30-13,24時間営業
0000000810,松屋,新宿3丁目店,35.688551,139.709934,1600022,東京都新宿区新宿3-11-11 ダイアン新宿ビル,24時間営業
0000000811,松屋,御殿場店,35.296013,138.924506,4120045,静岡県御殿場市川島田939-1,24時間営業
0000000812,松屋,あざみ野店,35.565131,139.555781,2250011,神奈川県横浜市青葉区あざみ野1-11-1 あざみ野センタービル1F,24時間営業
0000000813,松屋,上飯田店,35.200185,136.932292,4620808,愛知県名古屋市北区上飯田通1-13,24時間営業
0000000814,松屋,平和島店,35.575443,139.737746,1430016,東京都大田区大森北6-13-10 島田ビル,24時間営業
0000000815,松屋,三鷹店,35.700222,139.564431,1800006,東京都武蔵野市中町1-14-5,24時間営業
0000000817,松屋,成城学園前店,35.63686,139.603266,1570066,東京都世田谷区成城2-39-2 成城学園ビューハイツ1F,24時間営業
0000000818,松屋,武蔵境南口店,35.697317,139.548341,1800023,東京都武蔵野市境南町2-9-1 ビジネスセンター山口ビル,4時から翌2時（ラストオーダー1:45）
0000000820,松屋,青葉台店,35.540532,139.519519,2270062,神奈川県横浜市青葉区青葉台2-9-18 青葉台ハイツ1F,24時間営業
0000000821,松屋,小倉駅前店,33.882941,130.883245,8020002,福岡県北九州市小倉北区京町2-5-13,24時間営業
0000000822,松屋,麻生店,43.105356,141.342598,0010040,北海道札幌市北区北40条西4-2-5,平日6時から翌1時（ラストオーダー0:30）、土・日は24時間営業
0000000823,松屋,南越谷店,35.872334,139.794076,3430845,埼玉県越谷市南越谷1-19-8 吉澤第一ビル1F,24時間営業
0000000824,松屋,日暮里店,35.726458,139.774652,1160013,東京都荒川区西日暮里2-25-1-307,8時から24時（ラストオーダー23:30）
0000000825,松屋,桜新町店,35.628223,139.647611,1540015,東京都世田谷区桜新町1-12-9,24時間営業
0000000826,松屋,落合店,35.707194,139.687238,1610034,東京都新宿区上落合3-9-1 北村ビル,24時間営業
0000000827,松屋,参宮橋店,35.675056,139.696073,1510053,東京都渋谷区代々木4-6-2 宍戸ビル1F,24時間営業
0000000828,松屋,幡ヶ谷店,35.674503,139.680816,1510072,東京都渋谷区幡ヶ谷2-7-1,24時間営業
0000000829,松屋,瑞江店,35.689725,139.901743,1320011,東京都江戸川区瑞江2-3-11,24時間営業
0000000830,松屋,坂戸店,35.950893,139.401349,3500233,埼玉県坂戸市南町34-5,24時間営業
0000000831,松屋,浅草店,35.708932,139.796248,1110032,東京都台東区浅草1-12-8 大山ビル,24時間営業
0000000832,松屋,広島金座街店,34.38997,132.464511,7300035,広島県広島市中区本通1-4 サカタビルB1F,月曜から木曜：4時から翌3時（ラストオーダー2:45）、金曜：4時から、土曜：24時間営業、日曜：翌3時まで（ラストオーダー2:45）
0000000833,松屋,大鳥居店,35.548862,139.742692,1440047,東京都大田区萩中3-6-5,24時間営業
0000000835,松屋,札幌駅前通店,43.059908,141.355731,0600001,北海道札幌市中央区北1条西3丁目3番地 敷島北一条ビル,24時間営業
0000000837,松屋,渋谷清水橋店,35.685584,139.684943,1510071,東京都渋谷区本町3-39-3,24時間営業
0000000838,松屋,平和台店,35.754802,139.656337,1790085,東京都練馬区早宮2-17-39 ミリオンアネックス平和台,24時間営業
0000000839,松屋,新小岩北口店,35.714583,139.860781,1240025,東京都葛飾区西新小岩1-9-1,24時間営業
0000000840,松屋,西中島店,34.724856,135.499625,5320011,大阪府大阪市淀川区西中島6-7-3,24時間営業
0000000841,松屋,大船駅前店,35.348127,139.53469,2470056,神奈川県鎌倉市大船1-12-23,24時間営業
0000000842,松屋,南森町駅前店,34.694467,135.514954,5300041,大阪府大阪市北区天神橋2丁目北1-3,24時間営業
0000000843,松屋,越谷下間久里店,35.925931,139.783944,3430045,埼玉県越谷市下間久里980-1,24時間営業
0000000844,松屋,大森北口店,35.586093,139.733321,1400013,東京都品川区南大井6-24-1 セブンスターマンション第五大森,24時間営業
0000000845,松屋,東陽町店,35.666991,139.819814,1350016,東京都江東区東陽4-2-5,4時から翌2時
0000000846,松屋,尼崎潮江店,34.731859,135.434847,6600808,兵庫県尼崎市潮江1-27-15,24時間営業
0000000847,松屋,三国店,34.734163,135.486661,5320005,大阪府大阪市淀川区三国本町3-30-13,24時間営業
0000000848,松屋,新潟万代シテイ店,37.913296,139.060857,9500088,新潟県新潟市中央区万代1-1-22,5時から翌3時30分（ラストオーダー3:15）
0000000849,松屋,天満橋店,34.683556,135.519823,5400012,大阪府大阪市中央区谷町2-8-1 大手前M2ビル,24時間営業
0000000850,松屋,仙川店,35.658083,139.587946,1820002,東京都調布市仙川町1-11-16 ハラダビル,24時間営業
0000000851,松屋,三宮東店,34.692269,135.200087,6510096,兵庫県神戸市中央区雲井通5-2-18 サンパルビル1F,24時間営業
0000000852,松屋,高槻市駅前店,34.845959,135.625425,5690071,大阪府高槻市城北町2-2-7,24時間営業
0000000853,松屋,末広街道店,35.593472,140.128813,2600843,千葉県千葉市中央区末広2-3-4,24時間営業
0000000854,松屋,亀有南口店,35.76234,139.85227,1250061,東京都葛飾区亀有3-30-12,24時間営業
0000000855,松屋,大井競馬場店,35.588996,139.743949,1400012,東京都品川区勝島2-1-2 大井競馬場Ｌウイング2階,営業日限定※営業時間は開門から最終レース発走まで
0000000856,松屋,枚方店,34.811452,135.652363,5730032,大阪府枚方市岡東町5-24,24時間営業
0000000857,松屋,南林間店,35.492134,139.45047,2420006,神奈川県大和市南林間1-8-1,24時間営業
0000000859,松屋,日本橋店,34.664593,135.508776,5420073,大阪府大阪市中央区日本橋1-3-2 日本橋コウジィアパートメント,24時間営業
0000000860,松屋,川西能勢口店,34.825503,135.416534,6660033,兵庫県川西市栄町10-5 パルティ川西101号,24時間営業
0000000861,松屋,茗荷谷店,35.713684,139.741023,1120006,東京都文京区小日向4-6-23 パレスビル,24時間営業
0000000862,松屋,さがみ野店,35.468061,139.432027,2430401,神奈川県海老名市東柏ヶ谷2-30-24,24時間営業
0000000864,松屋,分倍河原店,35.665766,139.472421,1830021,東京都府中市片町2-22-1 山ニビル,24時間営業
0000000865,松屋,仙台クリスロード店,38.258192,140.878254,9800021,宮城県仙台市青葉区中央2-4-11 水晶堂ビル,24時間営業
0000000866,松屋,東伏見店,35.725291,139.567124,2020021,東京都西東京市東伏見2-4-6 高橋イーストビル,24時間営業
0000000867,松屋,垂水店,34.626819,135.057726,6550027,兵庫県神戸市垂水区神田町3番18号 ラ・メール垂水1F,24時間営業
0000000868,松屋,西葛西店,35.662807,139.862076,1340088,東京都江戸川区西葛西3-17-7,24時間営業
0000000869,松屋,姫路飾磨店,34.793606,134.654372,6728079,兵庫県姫路市飾磨区今在家1066,24時間営業
0000000870,松屋,南大沢店,35.610975,139.383918,1920364,東京都八王子市南大沢2-29,24時間営業
0000000871,松屋,馬橋店,35.808438,139.920961,2710051,千葉県松戸市馬橋117-1田口ビル,24時間営業
0000000873,松屋,北千住店,35.746614,139.80708,1200034,東京都足立区千住2-61,24時間営業
0000000874,松屋,調布駅前店,35.649258,139.547736,1820024,東京都調布市布田1-40-10 アルソス調布駅前北口ビル,24時間営業
0000000875,松屋,下石神井店,35.724612,139.610737,1770042,東京都練馬区下石神井4-1-7 MSビル1F,24時間営業
0000000876,松屋,幕張本郷1丁目店,35.66912,140.043635,2620033,千葉県千葉市花見川区幕張本郷1-3-11 一松ビル1F,24時間営業
0000000878,松屋,六甲道店,34.710999,135.242655,6570037,兵庫県神戸市灘区備後町3-2-16 タウンコート六甲,24時間営業
0000000879,松屋,北習志野店,35.718768,140.046083,2740063,千葉県船橋市習志野台2-6-1 小林ビル,24時間営業
0000000880,松屋,東池袋店,35.728841,139.717074,1700013,東京都豊島区東池袋1-40-2 近代BLD.8号館1F,24時間営業
0000000881,松屋,六地蔵店,34.932086,135.79616,6128003,京都府京都市伏見区桃山町西尾10番1,24時間営業
0000000883,松屋,京成小岩店,35.739168,139.887181,1330051,東京都江戸川区北小岩6-12-1 白坂ビル,24時間営業
0000000884,松屋,渋谷道玄坂上店 ※2月15日15時より一時閉店、3月下旬新規改装オープン予定,35.65412,139.699656,1500043,東京都渋谷区道玄坂1-18-8 渋谷道玄坂プラザ仁科屋ビル,24時間営業
0000000885,松屋,北24条店,43.087764,141.347958,0010023,北海道札幌市北区北23条西4-2-41,24時間営業
0000000887,松屋,十三東口店,34.716416,135.486261,5320023,大阪府大阪市淀川区十三東2-8-15,24時間営業
0000000888,松屋,春木店,34.47629,135.392504,5960006,大阪府岸和田市春木若松町18-31,24時間営業
0000000889,松屋,南千住店,35.730061,139.801431,1160003,東京都荒川区南千住7-1-1 アクレスティ南千住Ｍ2-201,24時間営業
0000000890,松屋,椎名町店,35.723455,139.698262,1710051,東京都豊島区長崎1-2-4 バイオレットインA室,24時間営業
0000000891,松屋,尼崎アマドゥ店,34.712544,135.400092,6600083,兵庫県尼崎市道意町7-1 アマドゥ内,6時から翌2時（ラストオーダー1:30）
0000000892,松屋,武蔵小金井店,35.697358,139.5106,1840004,東京都小金井市本町1-18-8 桜並SHビル,24時間営業
0000000893,松屋,狭山市駅前店,35.854641,139.415856,3501305,埼玉県狭山市入間川1-3-2 スカイテラス1階,24時間営業
0000000894,松屋,今津店,34.727661,135.354461,6638214,兵庫県西宮市今津曙町1-1 エキーマ今津1F,24時間営業
0000000895,松屋,京橋南店,34.693528,135.535689,5340025,大阪府大阪市都島区片町2-4-8 上室ビル,24時間営業
0000000896,松屋,池上店,35.569239,139.706291,1460082,東京都大田区池上6-2-17,24時間営業
0000000897,松屋,八尾店,34.591774,135.617316,5810033,大阪府八尾市志紀町南3-190-1,24時間営業
0000000899,松屋,阪神西宮店,34.733141,135.341013,6620973,兵庫県西宮市田中町2-3,24時間営業
0000000900,松屋,梅ヶ丘店,35.652911,139.6559,1540022,東京都世田谷区梅丘1-33-9,24時間営業
0000000901,松屋,鷹の台店,35.719962,139.464031,1870024,東京都小平市たかの台44-8 長谷川ビル,5時から翌2時
0000000902,松屋,浦和店,35.854424,139.658797,3300063,埼玉県さいたま市浦和区高砂1-10-18 浦和コスモビル,24時間営業
0000000903,松屋,鶴ヶ峰店,35.471644,139.550608,2410022,神奈川県横浜市旭区鶴ヶ峰1-12-3 大岡ビル103号,24時間営業
0000000904,松屋,豊中上津島店,34.755412,135.464459,5610843,大阪府豊中市上津島3-11-25,24時間営業
0000000905,松屋,赤羽東口店 ※3月18日15時より一時閉店、3月26日15時オープン予定,35.775238,139.724778,1150045,東京都北区赤羽1-2-6,24時間営業
0000000906,松屋,大名1丁目店,33.582981,130.398686,8100041,福岡県福岡市中央区大名1-1-10 大名TCビル,24時間営業
0000000907,松屋,守口市駅前店,34.7325,135.567783,5700027,大阪府守口市桜町9-8,24時間営業
0000000908,松屋,玉川学園前店,35.560041,139.465897,1940041,東京都町田市玉川学園2-11-21 第17通南ビル,5時から翌2時（ラストオーダー1:30）
0000000909,松屋,豊島園店,35.738877,139.652108,1760001,東京都練馬区練馬4-15-23 パークサイドハイツ,24時間営業
0000000910,松屋,西大井店,35.59851,139.725761,1400015,東京都品川区西大井1-4-20 コア・スターレ西大井ショッピングセンター,月曜以外24時間営業※月曜は2時閉店、4時開店
0000000911,松屋,富田店,34.832811,135.596632,5690814,大阪府高槻市富田町1-6-3,24時間営業
0000000912,松屋,草加西口店,35.825064,139.805463,3400034,埼玉県草加市氷川町2125-4 ウシヤマビル,24時間営業
0000000913,松屋,田無駅前店,35.724309,139.542524,1880011,東京都西東京市田無町4-2-12 A2ビル1階,24時間営業
0000000914,松屋,旭店,35.721573,140.653048,2892504,千葉県旭市ニ1131-1,月曜以外24時間営業※月曜は2時閉店、4時開店
0000000915,松屋,東久留米南町店,35.739581,139.529143,2030031,東京都東久留米市南町4-1-8,24時間営業
0000000916,松屋,西町店,43.076099,141.295007,0630061,北海道札幌市西区西町北4-1-8,5時から翌3時（ラストオーダー2:30）※金、土、祝前日は24時間営業
0000000917,松屋,平間店,35.558051,139.674475,2210015,神奈川県川崎市中原区北谷町8,24時間営業
0000000920,松屋,北赤羽店,35.784205,139.707815,1150051,東京都北区浮間3-1-38 近藤ビル,4時から翌3時（ラストオーダー2:30）
0000000921,松屋,大久保2丁目店,35.698826,139.71127,1690072,東京都新宿区大久保2-5-1,24時間営業
0000000922,松屋,川崎大師店,35.53227,139.730014,2100802,神奈川県川崎市川崎区大師駅前1-16-20 石川ビル,24時間営業
0000000923,松屋,武蔵新田店,35.565017,139.695321,1460093,東京都大田区矢口1-7-15 イセモトビル,24時間営業
0000000924,松屋,小田急永山店,35.626585,139.451441,2060025,東京都多摩市永山1-18-2 小田急マルシェ永山,24時間営業
0000000925,松屋,戸塚店,35.397139,139.536318,2440003,神奈川県横浜市戸塚区戸塚町16-16 16ビル,24時間営業
0000000926,松屋,市ヶ谷店,35.688296,139.739959,1020073,東京都千代田区九段北4-2-15 市ヶ谷プラザ1F,平日24時間営業※月・祝翌日：4:30から、土・祝日：翌2:30まで、日：4:30から翌2:30
0000000927,松屋,北越谷店,35.899268,139.782973,3430025,埼玉県越谷市大沢3-4-26 Fine北越谷,24時間営業
0000000928,松屋,姫路リオス店,34.823668,134.717883,6700821,兵庫県姫路市東郷町1454-3,24時間営業
0000000929,松屋,渋谷並木橋店,35.652466,139.708972,1500002,東京都渋谷区渋谷3-15-4 アロス渋谷ビル,24時間営業
0000000930,松屋,六本木4丁目店,35.660978,139.734746,1060032,東京都港区六本木4-11-11,24時間営業
0000000932,松屋,曽根店,34.770174,135.475396,5610802,大阪府豊中市曽根東町2-12-14,24時間営業
0000000933,松屋,寝屋川店,34.756793,135.63289,5720846,大阪府寝屋川市高宮栄町10-2,24時間営業
0000000934,松屋,市原白金通店,35.525685,140.109044,2900059,千葉県市原市白金町1-17,24時間営業
0000000935,松屋,吉塚店,33.603545,130.425369,8120046,福岡県福岡市博多区吉塚本町13-30 えきマチ1丁目吉塚,24時間営業
0000000936,松屋,西巣鴨店,35.740373,139.731416,1700001,東京都豊島区西巣鴨3-25-11 メトロエステート西巣鴨110・111号,24時間営業
0000000937,松屋,東住吉中野店,34.617931,135.542888,5460012,大阪府大阪市東住吉区中野4-3-22,24時間営業
0000000938,松屋,東戸塚西口店,35.427987,139.558838,2440805,神奈川県横浜市戸塚区川上町90-1 アップル東戸塚ビル,24時間営業
0000000940,松屋,南砂町店,35.667448,139.837424,1360076,東京都江東区南砂7-4-6,4時から翌2時
0000000942,松屋,八千代台東口店,35.696981,140.094851,2760032,千葉県八千代市八千代台東1-2-16 第7扇ビル,24時間営業
0000000943,松屋,妙典店,35.68918,139.92922,2720111,千葉県市川市妙典4-2-12 マーヴ妙典,24時間営業
0000000944,松屋,播磨町店,34.720563,134.870881,6750147,兵庫県加古郡播磨町南大中3-3-28,24時間営業
0000000945,松屋,東大和市駅前店,35.731016,139.436874,2070014,東京都東大和市南街5-93-13 ビル・エール1階,24時間営業
0000000946,松屋,堀切菖蒲園店,35.743976,139.829932,1240006,東京都葛飾区堀切4-10-2,24時間営業
0000000947,松屋,板橋店,35.744007,139.722739,1730004,東京都板橋区板橋1-50-1 柏家ビル,24時間営業
0000000949,松屋,玉出店,34.620968,135.493143,5570045,大阪府大阪市西成区玉出西2-4-8,24時間営業
0000000950,松屋,新大宮店,34.681902,135.814986,6308115,奈良県奈良市大宮町5-3-36,24時間営業
0000000951,松屋,江坂店,34.754483,135.497783,5640051,大阪府吹田市豊津町15-4,24時間営業
0000000952,松屋,淀屋橋店,34.688581,135.505968,5410041,大阪府大阪市中央区北浜3-2-25 京阪淀屋橋ビル,5時から23時（ラストオーダー22:30）
0000000954,松屋,姪浜店,33.578654,130.325623,8190005,福岡県福岡市西区内浜1-7-5 ウエストコート姪浜内,24時間営業
0000000955,松屋,住道店,34.705317,135.624362,5740041,大阪府大東市浜町9-10 住道駅前ビル,24時間営業
0000000956,松屋,小岩店,35.730704,139.88391,1330057,東京都江戸川区西小岩1-21-20 第23東ビル,24時間営業
0000000957,松屋,肥後橋店,34.688374,135.499382,5500002,大阪府大阪市西区江戸堀1-2-14 肥後橋官報ビル,24時間営業
0000000958,松屋,吹上店,36.106923,139.452998,3690112,埼玉県鴻巣市鎌塚3-10-12,月曜以外24時間営業※月曜は2時閉店（ラストオーダー1:30）、5時開店
0000000959,松屋,武蔵浦和店,35.840911,139.650135,3360027,埼玉県さいたま市南区沼影1-10-1 ラムザタワー1Ｆ,24時間営業
0000000960,松屋,新座馬場店,35.781208,139.577294,3520016,埼玉県新座市馬場1-4-13,24時間営業
0000000962,松屋,郡山駅前店,37.395129,140.390503,9638002,福島県郡山市駅前2-3-9 東京萬ビル,24時間営業
0000000963,松屋,三田駅前町店,34.882899,135.236314,6691528,兵庫県三田市駅前町19-10,24時間営業
0000000964,松屋,中山店,35.510685,139.5426,2260013,神奈川県横浜市緑区寺山町87-7,24時間営業
0000000966,松屋,深大寺3丁目店,35.686206,139.540927,1810016,東京都三鷹市深大寺3-8-7,4時から翌3時（ラストオーダー2:45）、祝日：5時から翌3時（ラストオーダー2:45）
0000000967,松屋,鷺沼店,35.574837,139.576162,2160004,神奈川県川崎市宮前区鷺沼1-11-6 鷺沼第一ビル,24時間営業
0000000968,松屋,箕面店,34.810216,135.461054,5620044,大阪府箕面市半町3-14-20,24時間営業
0000000969,松屋,本所吾妻橋店,35.705626,139.807873,1300001,東京都墨田区吾妻橋3-7-4 ライオンズマンション吾妻橋,24時間営業
0000000970,松屋,渋谷宮益坂上店,35.657072,139.708832,1500002,東京都渋谷区渋谷1-8-3 ＴＯＣ第1ビル,24時間営業
0000000971,松屋,大野城店,33.532328,130.482995,8160932,福岡県大野城市瓦田5-11-25,24時間営業
0000000972,松屋,東新宿店,35.692229,139.709915,1600021,東京都新宿区歌舞伎町2-2-21 ライオンズマンション歌舞伎町B102号室,6時から翌4時（ラストオーダー3:55）
0000000973,松屋,前橋三河町店,36.382169,139.084256,3710015,群馬県前橋市三河町2-16-16,24時間営業
0000000975,松屋,北本店,36.049001,139.530714,3640001,埼玉県北本市深井6-151,月曜以外24時間営業※月曜は2時閉店（ラストオーダー1:30）、5時開店
0000000976,松屋,塩尻店,36.115726,137.961354,3990742,長野県塩尻市大門泉町13-8,24時間営業
0000000977,松屋,小松川店,35.695929,139.851712,1320034,東京都江戸川区小松川3-90,24時間営業
0000000978,松屋,大宮南中丸店,35.912699,139.655356,3370041,埼玉県さいたま市見沼区大字南中丸519-4,24時間営業
0000000979,松屋,新大阪東口店,34.730648,135.505693,5330033,大阪府大阪市東淀川区東中島1-20-9 新大阪池永ビル,24時間営業
0000000980,松屋,川島店,35.975239,139.46968,3500152,埼玉県比企郡川島町大字上伊草1214-1,24時間営業
0000000981,松屋,中島新町店,35.120597,136.857983,4540932,愛知県名古屋市中川区中島新町4-105,24時間営業
0000000982,松屋,日野神明店,35.665424,139.398242,1910016,東京都日野市神明2-1-1,24時間営業
0000000984,松屋,牛田店,35.741176,139.814675,1200023,東京都足立区千住曙町3-1,24時間営業
0000000985,松屋,久留米通町店,33.315448,130.512713,8300018,福岡県久留米市通町1-16,24時間営業
0000000986,松屋,里塚店,42.978898,141.468318,0040801,北海道札幌市清田区里塚一条4-15-40,24時間営業
0000000987,松屋,岸里店,34.631928,135.496618,5570052,大阪府大阪市西成区潮路1-10-1 林 岸里駅前ビル,24時間営業
0000000988,松屋,鳥飼店,34.773368,135.587713,5660052,大阪府摂津市鳥飼本町3-16-59,24時間営業
0000000989,松屋,佐原店,35.896458,140.497066,2870002,千葉県香取市北1-13-10,24時間営業
0000000990,松屋,東大阪川田店,34.688424,135.620403,5780905,大阪府東大阪市川田1-15-8,24時間営業
0000000991,松屋,北野店,35.642089,139.357235,1920906,東京都八王子市北野町546-2 横溝ビル,24時間営業
0000000992,松屋,上溝店,35.554346,139.358643,2520243,神奈川県相模原市中央区上溝3-16-1,24時間営業
0000000993,松屋,諏訪店,36.014493,138.12722,3920012,長野県諏訪市大字四賀字赤沼1825-1,24時間営業
0000000995,松屋,浜寺店,34.539869,135.459272,5928342,大阪府堺市西区浜寺船尾町西5丁132-1,24時間営業
0000000996,松屋,梅屋敷店,35.564611,139.72803,1440052,東京都大田区蒲田2-4-5 スカイドムス,24時間営業
0000000997,松屋,都立家政店,35.720279,139.647057,1650032,東京都中野区鷺宮3-6-1 岡田ビル,24時間営業
0000000998,松屋,九品仏店,35.601757,139.664809,1580083,東京都世田谷区奥沢6-25-8,5時から翌2時
0000000999,松屋,所沢上安松店,35.787581,139.497031,3590025,埼玉県所沢市大字上安松822-44,24時間営業
0000001004,松屋,巣鴨店,35.730532,139.742835,1700002,東京都豊島区巣鴨2丁目5-2,24時間営業
0000001008,松屋,荻窪西口店,35.702096,139.622455,1670043,東京都杉並区上荻1-16-3,24時間営業
0000001013,松屋,亀有店,35.763793,139.851796,1250061,東京都葛飾区亀有3-25-1,24時間営業
0000001061,松屋,富士宮市役所店,35.218818,138.624777,4180073,静岡県富士宮市弓沢町150 富士宮市役所内7階,11時から14時（ラストオーダー13:30）※土・日と祝日及び年末年始は休み
0000001106,松屋,武蔵小杉店,35.574155,139.663274,2110005,神奈川県川崎市中原区新丸子町922 レイロービル1F,7時から翌1時
0000001107,松屋,西宮名塩SA店,34.825719,135.298896,6691141,兵庫県西宮市塩瀬町名塩白阪1252 中国自動車道上り線,24時間営業
0000001108,松屋,関西学院大学店,34.764739,135.349391,6620892,兵庫県西宮市上ヶ原一番町1-155 ラウンジ棟1F,基本10:00から17:00※営業は学校予定に準じます（夏期・冬期休業あり）。詳細は店舗にてご確認ください。
0000001202,チキン亭,西新宿店,35.691061,139.702282,1600023,東京都新宿区西新宿7-1-7 ダイカンプラザA館1F,24時間営業
0000001203,松乃家,津田沼南口店,35.688093,140.022667,2750026,千葉県習志野市谷津7-9-16 京葉ビル２ 1F,24時間営業
0000001207,松のや,仙台中央店,38.25703,140.882933,9800021,宮城県仙台市青葉区中央3-6-3 2F,24時間営業
0000001208,松のや,川口店,35.79817,139.721358,3320015,埼玉県川口市川口1-1-1 CuPo･La専門店A107,24時間営業
0000001209,松のや,町田店,35.538621,139.451144,1940013,東京都町田市原町田4-4-14,5時から翌3時（ラストオーダー2:40）
0000001213,松のや,練馬店,35.733868,139.656889,1760012,東京都練馬区豊玉北5-19-12,24時間営業
0000001214,松乃家,三鷹店,35.700151,139.564443,1800006,東京都武蔵野市中町1-14-5,24時間営業
0000001215,松乃家,大宮店,35.904848,139.628238,3300802,埼玉県さいたま市大宮区宮町1-50-2 いとや宮町ビル2F,8時から23時（ラストオーダー22:40）
0000001216,松乃家,川崎銀座街店,35.527885,139.703947,2100006,神奈川県川崎市川崎区砂子1-1-3 つる屋ビル,8時から翌1時（ラストオーダー0:40）
0000001218,松のや,立川店,35.693002,139.418285,1900022,東京都立川市錦町2-1-3 ICHIGO-M2ビル,24時間営業
0000001219,松のや,中野店,35.706294,139.668354,1640001,東京都中野区中野5-68-9 岸田ビル,24時間営業
0000001220,松乃家,戸店,35.781315,139.902135,2710091,千葉県松戸市本町4-4 GK松戸ビル,5時から翌2時（ラストオーダー1:40）
0000001221,松乃家,幕張本郷店,35.669367,140.043922,2620033,千葉県千葉市花見川区幕張本郷1-3-7,5時から翌2時（ラストオーダー1:40）
0000001222,松のや,東池袋店,35.728871,139.717059,1700013,東京都豊島区東池袋1-40-2 近代BLD.8号館2F,5時から翌2時30分（ラストオーダー2:00）※金曜日は24時間営業
0000001223,松のや,青葉台店,35.540737,139.519556,2270062,神奈川県横浜市青葉区青葉台2-9-16 青葉台フラワービル,5時から翌2時（ラストオーダー1:40）
0000001224,松のや,綾瀬店,35.759103,139.827018,1200005,東京都足立区綾瀬4-7-1,24時間営業
0000001225,松乃家,朝霞台店,35.81216,139.591189,3510033,埼玉県朝霞市浜崎1-3-10 AX-1ビル1F,5時から翌3時（ラストオーダー2:40）
0000001226,松のや,ひばりが丘店,35.748916,139.547838,2020002,東京都西東京市ひばりが丘北4-1-32,24時間営業
0000001228,松乃家,天王町店,35.450782,139.606565,2400003,神奈川県横浜市保土ヶ谷区天王町2-47-6 日振ビル,6時から翌1時（ラストオーダー0:45）
0000001231,松乃家,錦糸町店,35.691908,139.81745,1300022,東京都墨田区江東橋3-9-15 第3魚寅ビル,5時から翌2時（ラストオーダー1:40）
0000001232,松のや,下赤塚店,35.766731,139.647631,1750093,東京都板橋区赤塚新町1-24-1 暖誠堂ビル,24時間営業
0000001233,松のや,野方店,35.71553,139.656169,1650027,東京都中野区野方5-25-4 竹内ビル,24時間営業
0000001234,松のや,千歳烏山店,35.663936,139.605277,1570062,東京都世田谷区南烏山5-16-21 ライオン堂ビル,24時間営業
0000001235,松乃家,蕨店,35.824236,139.695039,3350002,埼玉県蕨市塚越1-4-18 トーカンマンション蕨,6時から翌1時（ラストオーダー0:45）
0000001236,松のや,新秋津店,35.774492,139.496889,1890001,東京都東村山市秋津町5-13-7,5時から翌2時（ラストオーダー1:45）
0000001237,松乃家,菊名店,35.506833,139.635037,2220011,神奈川県横浜市港北区菊名4-2-3 菊繁ビル,24時間営業
0000001239,松のや,千歳船橋店,35.644525,139.627506,1560055,東京都世田谷区船橋1-1-2 船橋コーポ,24時間営業
0000001240,松のや,用賀店,35.623806,139.6383,1580097,東京都世田谷区用賀2-38-15 田縁ビル,24時間営業
0000001241,松乃家,田無南口店,35.723524,139.542281,1880012,東京都西東京市南町5-5-3,9時から翌1時（ラストオーダー0:30）
0000001242,松のや,勝どき店,35.654113,139.778434,1040054,東京都中央区勝どき4-11-10,5時から翌1時30分（ラストオーダー1:00）
0000001244,松のや,赤羽店,35.776245,139.723988,1150045,東京都北区赤羽1-17-1 いなみやビル1F,24時間営業
0000001245,松乃家,東戸塚店,35.425868,139.561249,2440801,神奈川県横浜市戸塚区品濃町517-1 パークハウス南の街1F,6時から翌1時（ラストオーダー0:45）
0000001246,松乃家,武蔵新城店,35.583578,139.632864,2110044,神奈川県川崎市中原区新城5-1-3 フクシマビル,24時間営業
0000001248,松乃家,なんさん通り店,34.660019,135.506791,5420075,大阪府大阪市中央区難波千日前8-12 ショッププランナー国際東ビル,24時間営業
0000001249,松のや,本蓮沼店,35.765608,139.705886,1740052,東京都板橋区蓮沼町22-5 橋本コーポラス,24時間営業
0000001250,松乃家,茅ヶ崎店,35.327221,139.408197,2530044,神奈川県茅ヶ崎市新栄町1-6 湘南ISビル,24時間営業
0000001251,松乃家,下永谷店,35.409793,139.563274,2330016,神奈川県横浜市港南区下永谷5-3-10,24時間営業
0000001253,松乃家,行徳店,35.679814,139.91742,2720133,千葉県市川市行徳駅前2-3 ポニー行徳商業ビル,24時間営業
0000001254,松のや,武蔵新田店,35.564627,139.695163,1460093,東京都大田区矢口1-16-24 ザ・フォレストビル,24時間営業
0000001255,松のや,武蔵境店,35.700811,139.547245,1800022,東京都武蔵野市境2-2-18 MHビル,4時30分から翌3時（ラストオーダー2:45）
0000001256,松乃家,平井店,35.703401,139.845107,1320035,東京都江戸川区平井5-15-8 平井駅前ビルE棟,24時間営業
0000001257,松のや,板橋区役所前店,35.747781,139.713009,1730004,東京都板橋区板橋2-61-10 藤畑第一ビル,24時間営業
0000001258,松乃家,上田店,36.379953,138.271391,3860016,長野県上田市国分1-9-8,9時から翌2時（ラストオーダー1:30）
0000001259,松乃家,梅田店,34.700327,135.503604,5300017,大阪府大阪市北区角田町6-3 北大阪振興角田町ビル,24時間営業
0000001260,松のや,東新宿店,35.697585,139.710761,1690072,東京都新宿区大久保1-3-14 ワールドビジネスセンター,24時間営業
0000001264,松乃家,瓢箪山店,34.656626,135.637398,5798056,大阪府東大阪市若草町5-2,24時間営業
0000001265,松のや,天神北店,33.590012,130.39992,8100001,福岡県福岡市中央区天神3-16-22,24時間営業
0000001266,松乃家,防府店,34.052653,131.582034,7470026,山口県防府市緑町2-5-16,6時から翌2時（ラストオーダー1:30）
0000001267,松乃家,石橋店,34.804718,135.447716,5630032,大阪府池田市石橋1-3-10 MKビル1F,24時間営業
0000001268,松乃家,野毛店,35.444803,139.63183,2310064,神奈川県横浜市中区野毛町3-160-4 ちぇるる野毛ショッピングセンター,24時間営業
0000001269,松乃家,堂島店,34.693293,135.498045,5300003,大阪府大阪市北区堂島2-1-34 大西ビル,24時間営業
0000001270,松乃家,新橋店,35.664452,139.758498,1050004,東京都港区新橋2-2-5 丸山ビル1F,平日24時間営業※月・祝翌日8時から、土・祝日23時まで、日8時から23時
0000001271,松乃家,伊勢佐木町店,35.440131,139.634375,2310045,神奈川県横浜市中区伊勢佐木町2-76 キヨビル,24時間営業
0000001272,松乃家,南行徳店,35.669896,139.904718,2720143,千葉県市川市相之川4-8-2 ワイズビルディング,5時から翌2時（ラストオーダー1:40）
0000001273,松乃家,本厚木店,35.437836,139.368034,2430018,神奈川県厚木市中町2-5-3 厚木ヤングヒルビル,24時間営業
0000001274,松のや,中野新橋店,35.688607,139.677489,1640013,東京都中野区弥生町2-28-9 ホワイトベースビル,24時間営業
0000001275,松乃家,南森町店,34.693975,135.515349,5300041,大阪府大阪市北区天神橋2-5-18 南森町センタービル,24時間営業
0000001276,松乃家,上大岡店,35.405309,139.598737,2330002,神奈川県横浜市港南区上大岡西1-16-15,6時から翌1時（ラストオーダー0:45）
0000001277,松乃家,今福鶴見店,34.698976,135.563391,5380053,大阪府大阪市鶴見区鶴見4-1-31 イケハラビル1F,月曜から木曜：10時から翌1時（ラストオーダー0:30）、金曜：10時から、土曜：24時間営業、日曜：翌1時まで
0000001278,松のや,方南町店,35.680577,139.661907,1680062,東京都杉並区方南2-18-10,24時間営業
0000001279,松乃家,草加店,35.824776,139.806062,3400034,埼玉県草加市氷川町2121-3 フレアコート,24時間営業
0000001280,松のや,向日町店,34.927383,135.715621,6170006,京都府向日市上植野町南淀井4,5時から翌2時（ラストオーダー1:30）
0000001281,松乃家,橋本店,35.593052,139.348494,2520143,神奈川県相模原市緑区橋本6-2-1,24時間営業
0000001282,松のや,武蔵小金井店,35.698767,139.509521,1840004,東京都小金井市本町5-18-5 太平ビル1F,4時30分から翌2時30分（ラストオーダー2:00）
0000001283,松のや,南越谷店,35.872554,139.794286,3430845,埼玉県越谷市南越谷1-19-2 アバンセ南越谷,24時間営業
0000001284,松のや,長良町店,35.145881,136.875592,4540815,愛知県名古屋市中川区長良町3-32,5時から翌2時（ラストオーダー1:30）
0000001285,松のや,池田店,34.816639,135.433371,5630025,大阪府池田市城南1-9-16,24時間営業
0000001286,松のや,JR尼崎店,34.727514,135.433828,6600803,兵庫県尼崎市長洲本通1-4-2 レジュールアッシュ尼崎駅前,5時から翌2時（ラストオーダー1:30）
0000001287,松のや,尼崎店,34.716519,135.418133,6600884,兵庫県尼崎市神田中通2-18-9,9時から23時（ラストオーダー22:30）
0000001288,松乃家,中野南口店,35.702163,139.669542,1640001,東京都中野区中野2-25-8 中野駅南口ミナミビル,24時間営業
0000001289,松乃家,戸塚店,35.396131,139.536143,2440003,神奈川県横浜市戸塚区戸塚町104 戸塚ツタヤビル,5時から翌3時（ラストオーダー2:45）
0000001290,松乃家,北小金店,35.830017,139.934333,2700014,千葉県松戸市小金8,6時から翌2時（ラストオーダー1:40）
0000001291,松のや,園田店 ※3月19日15時より一時閉店、3月22日15時新規改装オープン予定,34.749259,135.450361,6610953,兵庫県尼崎市東園田町9-48-1 園田阪急プラザ1F,8時から24時30分（ラストオーダー24:10）
0000001292,松のや,奈良駅前店,34.678861,135.823304,6308115,奈良県奈良市大宮町1-1-10 梢ビル,平日：9時から23時（ラストオーダー22:30）、土・日・祝日：8時から23時（ラストオーダー22:30）
0000001293,松のや,名谷店,34.645751,135.069176,6550852,兵庫県神戸市垂水区名谷町字猿倉83-1,月曜から木曜：9時から翌1時（ラストオーダー0:30）、金曜：9時から翌2時（ラストオーダー1:30）、土曜：6時から翌2時（ラストオーダー1:30）、日・祝日：6時から翌1時（ラストオーダー0:30）
0000001294,松のや,四天王寺前夕陽ケ丘店,34.653883,135.517083,5430051,大阪府大阪市天王寺区四天王寺1-7-11,平日：10時から24時（ラストオーダー23:30）、土・日・祝日：8時から24時（ラストオーダー23:30）
0000001295,松のや,大阪駅前第3ビル店,34.695266,135.502386,5300001,大阪府大阪市北区梅田1-1-3 大阪駅前第3ビル地下1F B70・71号,7時から23時（ラストオーダー22:30）
0000001296,松のや,板宿店,34.656856,135.137383,6540021,兵庫県神戸市須磨区平田町2-2-2 板宿稲岡ビル,月曜以外24時間営業※月曜は4時閉店（ラストオーダー3:45）、5時開店
0000001297,松のや,椥辻店,34.968308,135.8173,6078163,京都府京都市山科区椥辻東潰34-2,5時から翌2時（ラストオーダー1:30）
0000001298,松のや,中野坂上店,35.694026,139.685203,1640011,東京都中野区中央2-2-2 アーリオン中原,5時から翌2時30分（ラストオーダー2:00）
0000001299,松のや,上板橋店,35.760644,139.680578,1740071,東京都板橋区常盤台4-32-6 ドミール常盤台,9時から24時（ラストオーダー23:30）
0000001304,トマトの花,吉祥寺店,35.702469,139.580768,1800004,東京都武蔵野市吉祥寺本町2-14-28,11時から22時（ラストオーダー21:30）
0000001305,松軒中華食堂,田無店,35.724401,139.542497,1880011,東京都西東京市田無町4-2-12 A2ビル2階,10時から翌1時（ラストオーダー0:30）
0000001306,松軒中華食堂,千歳烏山店,35.664873,139.603881,1570062,東京都世田谷区南烏山6-4-1 烏山かどやビル1F,10時から翌1時（ラストオーダー24:30）
0000001307,トマトの花,イオンモール日の出店,35.73134,139.278895,1900182,東京都西多摩郡日の出町大字平井字三吉野桜木237-3 イオンモール日の出3Fフードコート内,9時から22時（ラストオーダー21:30）※営業はイオンモール日の出に準じます
0000001308,トマトの花,イオンレイクタウンkaze店,35.874586,139.82784,3430828,埼玉県越谷市レイクタウン4-2-2 イオンレイクタウンkaze,9時から22時（ラストオーダー21:30）※営業はイオンレイクタウンkazeに準じます
0000001309,松軒中華食堂,仙川店,35.657675,139.588338,1820002,東京都調布市仙川町1-16-4 栗本ビル1F,10時から翌1時（ラストオーダー24:30）
0000001310,松のや,花園町店,34.642719,135.499469,5570031,大阪府大阪市西成区鶴見橋1-3-24,24時間営業
0000001311,松のや,すすきの店,43.053081,141.358378,0640804,北海道札幌市中央区南4条西3-1-1 第3グリーンビル,24時間営業
0000001312,松のや,大和高田店,34.493015,135.738145,6350054,奈良県大和高田市曽大根122-7,日曜から木曜：9時から23時（ラストオーダー22時30分）、金・土・祝前日：9時から24時（ラストオーダー23時30分）
0000001313,松のや,堀田店,35.109656,136.924772,4670852,愛知県名古屋市瑞穂区明前町11-6,5時から翌2時（ラストオーダー1:30）
0000001314,松のや,金岡店,34.557727,135.525075,5918022,大阪府堺市北区金岡町192-1 Pモール,9時から翌1時（ラストオーダー0:30）
0000001315,松のや,だいどう豊里店,34.740279,135.547449,5330013,大阪府大阪市東淀川区豊里7-10-18 ナインライブテナントビル,月曜から木曜：8時から翌1時（ラストオーダー0:30）、金曜：8時から翌2時（ラストオーダー1:30）、土曜：5時から翌2時（ラストオーダー1:30）、日・祝日：5時から翌1時（ラストオーダー0:30）
0000001316,松のや,長久手店,35.17181,137.030311,4801153,愛知県長久手市作田1-1107,5時から翌2時（ラストオーダー1:30）
0000001318,松のや,十三店,34.715912,135.484833,5320024,大阪府大阪市淀川区十三本町1-5-8 十三センタービル1F,24時間営業
0000001319,松のや,西神南店 ※3月11日15時より一時閉店、3月14日18時オープン予定,34.694937,135.031361,6512243,兵庫県神戸市西区井吹台西町1-1-2,9時から23時（ラストオーダー22:30）
0000001320,松のや,相模原陽光台店,35.546954,139.381325,2520226,神奈川県相模原市中央区陽光台5-5-2,24時間営業
0000001321,松のや,深江橋店,34.676033,135.561226,5360021,大阪府大阪市城東区諏訪4-3-1 ロイヤル・プラザ1F,24時間営業
0000001322,松のや,武庫之荘店,34.747532,135.395901,6610033,兵庫県尼崎市南武庫之荘1-14-1 森陽ビル1F,24時間営業
0000001323,松のや,沼袋店,35.717233,139.66611,1650025,東京都中野区沼袋3-27-6 リバティハイツ高橋,24時間営業
0000001324,松のや,札幌駅前通店,43.060267,141.355574,0600001,北海道札幌市中央区北1条西3-3-11 桂和北1条ビル,平日：6時から翌3時（ラストオーダー2:40）、土・日・祝日：6時から翌2時（ラストオーダー1:40）
0000001325,松のや,相模原店,35.577317,139.373276,2520231,神奈川県相模原市中央区相模原2-2-19 エイコーマンション1F,24時間営業
0000001326,松のや,立川北口店,35.695413,139.418225,1900012,東京都立川市曙町2-13-11,24時間営業
0000001327,松のや,石神井公園店,35.739914,139.608476,1770041,東京都練馬区石神井町3-25-2 大松ビル,5時から翌2時（ラストオーダー1:30）
0000001328,松のや,原店,34.567963,135.566376,5800016,大阪府松原市上田8-14-13,10時から23時（ラストオーダー22:30）
0000001330,松のや,清須店,35.195627,136.867129,4520008,愛知県清須市西枇杷島町恵比須8-2,5時から翌2時（ラストオーダー1:30）
0000001331,松のや,名駅西口店,35.168731,136.881526,4530014,愛知県名古屋市中村区則武1-6-3 ベルヴュオフィス名古屋1F,5時から翌2時（ラストオーダー1:30）
0000001332,松のや,仙台扇町店,38.266456,140.951973,9830034,宮城県仙台市宮城野区扇町5-5-1,6時から翌3時（ラストオーダー2:45）
0000001333,松のや,湘南台店,35.392646,139.470551,2520804,神奈川県藤沢市湘南台1-13-1,5時から翌3時（ラストオーダー2:45）
0000001334,松のや,明石店,34.645128,134.994228,6730891,兵庫県明石市大明石町1-6-1 パピオスあかし,24時間営業
0000001335,松のや,紙屋町店,34.391039,132.458692,7300031,広島県広島市中区紙屋町2-2-26 山本ビル,4時から翌1時（ラストオーダー0:30）
0000001336,松のや,姫島店,34.701474,135.460619,5550025,大阪府大阪市西淀川区姫里1-26-18,24時間営業
0000001337,松のや,川越西口店,35.902867,139.48538,3501123,埼玉県川越市脇田本町6-8 栄光ビル,24時間営業
0000001338,松のや,江戸川橋店,35.706106,139.734976,1120014,東京都文京区関口1-10-11 朝日江戸川橋マンション105号,6時から翌1時（ラストオーダー0:30）
0000001339,松のや,貝塚店,34.441922,135.371044,5970021,大阪府貝塚市小瀬1-28-13,10時から翌1時（ラストオーダー0:30）
0000001340,松のや,浮間舟渡店,35.788489,139.694821,1740041,東京都板橋区舟渡1-12-12,24時間営業
0000001341,松のや,姫路野里店,34.835513,134.714176,6700841,兵庫県姫路市城東町180,月曜から木曜：9時から翌1時（ラストオーダー0:30）、金曜：9時から翌2時（ラストオーダー1:30）、土曜：5時から翌2時（ラストオーダー1:30）、日・祝日：5時から翌1時（ラストオーダー0:30）
0000001342,松のや,京王八王子店,35.65518,139.345959,1920046,東京都八王子市明神町4-6-3 みつげんビル1F,24時間営業
0000001343,松のや,魚住店,34.697565,134.913408,6740074,兵庫県明石市魚住町清水28番3,5時から翌2時（ラストオーダー1:30）
0000001344,松のや,西宮西田町店,34.740442,135.341614,6620034,兵庫県西宮市西田町1-29,5時から翌2時（ラストオーダー1:30）
0000001345,松のや,瀬戸店,35.205889,137.06848,4890972,愛知県瀬戸市西原町2-88,平日：9時から翌2時（ラストオーダー1:30）、土・日・祝日：5時から翌2時（ラストオーダー1:30）
0000001346,松のや,岩塚本通店,35.154977,136.850738,4530861,愛知県名古屋市中村区岩塚本通3-12,5時から翌2時（ラストオーダー1:30）
0000001347,松のや,周船寺店,33.571114,130.252065,8190373,福岡県福岡市西区周船寺3-11-10,24時間営業
0000001348,松のや,相模大野店,35.528165,139.438717,2520303,神奈川県相模原市南区相模大野3-2-1 BONO相模大野ノースモール202,8時から24時（ラストオーダー23:30）
0000001349,松のや,半田店,34.873905,136.918211,4750836,愛知県半田市青山1-4-9,月曜から木曜：5時から翌2時（ラストオーダー1:30）、金曜：5時から、土曜・祝前日：24時間営業、日曜・祝日：翌2時まで
0000001350,松のや,徳島南昭和町店,34.053424,134.557348,7700944,徳島県徳島市南昭和町2-34-1,24時間営業
0000001351,松のや,イオンモール八千代緑が丘店,35.724864,140.075975,2760049,千葉県八千代市緑が丘2-1-3 イオンモール八千代緑が丘 4階,9時から22時（ラストオーダー21:30）※営業はイオンモール八千代緑が丘に準じます
0000001352,松のや,桂川店,34.964572,135.720694,6018212,京都府京都市南区久世上久世町524-1,月曜から金曜・祝日：9時から翌0時30分（ラストオーダー0:00）、土・日：7時から翌0時30分（ラストオーダー0:00）
0000001353,松のや,中延店,35.6026,139.716461,1420053,東京都品川区中延4-6-17 エクセレントII 1F,9時から翌1時30分（ラストオーダー1:00）
0000001354,松のや,ル・シーニュ府中店,35.668472,139.483439,1830023,東京都府中市宮町1-100 ル・シーニュ1-19,24時間営業
0000001355,松のや,岡山厚生町店,34.653666,133.915192,7000985,岡山県岡山市北区厚生町2-12-15,24時間営業
0000001356,松のや,茂原店,35.432589,140.291388,2970078,千葉県茂原市高師台3-1-4,5時から翌1時（ラストオーダー0:30）
0000001357,松のや,服部店,34.757076,135.464778,5610858,大阪府豊中市服部西町5-18-2,5時から翌2時（ラストオーダー1:30）
0000001358,松のや,つくば東大通り店,36.102853,140.112464,3050005,茨城県つくば市天久保4-6-8,6時から翌2時（ラストオーダー1:45）
0000001359,松のや,高槻千代田町店,34.848333,135.633819,5690087,大阪府高槻市千代田町4-5,日曜から木曜：9時から23時30分（ラストオーダー23時）、金・土・祝前日：9時から翌2時（ラストオーダー1時30分）
0000001361,松のや,久留米店,33.284164,130.526376,8300055,福岡県久留米市上津1-15-1,24時間営業
0000001362,松のや,熊本新市街店,32.795383,130.709186,8600803,熊本県熊本市中央区新市街9-4 熊本第一ファームビル1F,24時間営業
0000001363,松のや,糸島店,33.55062,130.192656,8191121,福岡県糸島市荻浦579-1,10時から翌0時30分（ラストオーダー0時）
0000001364,松のや,鷺沼店,35.575131,139.575811,2160004,神奈川県川崎市宮前区鷺沼3-1-23 鷺沼片桐ビル1階,24時間営業
0000001365,松のや,富士インター店,35.165702,138.67437,4170061,静岡県富士市伝法3104-1(地番),24時間営業
0000001366,松のや,イオンモール木更津店,35.36192,139.91207,2920835,千葉県木更津市築地1-4,9時から21時※営業はイオンモール木更津に準じます
0000001367,松のや,西川口店,35.811425,139.706239,3320021,埼玉県川口市西川口1-22-20 西川口ビル1F,24時間営業
0000001368,松のや,干隈店,33.548338,130.35115,8140163,福岡県福岡市早良区干隈3-29-6,24時間営業
0000001369,松のや,西東京新町店,35.708686,139.541768,2020023,東京都西東京市新町4-6-7,9時から24時（ラストオーダー23:30）
0000001370,松のや,グリーンモール山室店,36.67475,137.2393,9398005,富山県富山市中市10-4,5時から翌2時（ラストオーダー1:30）
0000001371,松のや,イオンモール浜松市野店,34.737257,137.766487,4350052,静岡県浜松市東区天王町字諏訪1981-3,9時から22時※営業はイオンモール浜松市野に準じます
0000001372,松のや,井山手店,34.829884,135.724202,6100355,京都府京田辺市山手西2-1-1,日曜から木曜：9時から23時30分（ラストオーダー23時）、金・土・祝前日：9時から翌0時30分（ラストオーダー0時）
0000001373,松のや,岩出店,34.258005,135.321853,6496228,和歌山県岩出市大町41-1,月曜から木曜：9時から翌1時（ラストオーダー0:30）、金曜：9時から翌2時（ラストオーダー1:30）、土曜・祝日：5時から翌2時（ラストオーダー1:30）、日曜：5時から翌1時（ラストオーダー0:30）
0000001374,松のや,西鈴蘭台店,34.717915,135.128905,6511133,兵庫県神戸市北区鳴子2-1-5,9時から23時（ラストオーダー22:30）
0000001375,松のや,雑色店,35.547174,139.717601,1440055,東京都大田区仲六郷2-28-2,24時間営業
0000001376,松のや,千鳥橋店,34.681912,135.461135,5540014,大阪府大阪市此花区四貫島1-1-2 千鳥橋駅南館,24時間営業
0000001377,松のや,青物横丁店,35.607645,139.747861,1400004,東京都品川区南品川2-17-18 SGビル1階,24時間営業
0000001378,松のや,長岡天神店,34.92285,135.695794,6170824,京都府長岡京市天神1丁目30番1号,7時から24時（ラストオーダー23:30）
0000001379,松のや,和歌山太田店,34.225922,135.199915,6408323,和歌山県和歌山市太田4-5-9,5時から翌2時（ラストオーダー1:30）
0000001380,松のや,志染店,34.778682,135.010583,6730541,兵庫県三木市志染町広野1丁目74,9時から23時（ラストオーダー22:30）
0000001381,松のや,ふじみ野店,35.857431,139.525526,3540035,埼玉県富士見市ふじみ野西1-20-2 第7マツモトビル106,24時間営業
0000001382,松のや,戸新田店,35.788976,139.9262,2702241,千葉県松戸市松戸新田289-6,5時から翌2時（ラストオーダー1:30）
0000001383,松のや,北谷店,26.312135,127.761911,9040115,沖縄県中頭郡北谷町字美浜2-1-9,10時から24時（ラストオーダー23:30）
0000001384,松のや,高松瓦町店,34.336308,134.051754,7600051,香川県高松市南新町5-5 ミキビル1F・2F,6時から翌2時（ラストオーダー1:30）
0000001385,松のや,春日井店,35.232719,136.960557,4860914,愛知県春日井市若草通2-26-1,平日：9時から翌2時（ラストオーダー1:30）、土・日・祝日：5時から翌2時（ラストオーダー1:30）
0000001386,松のや,杉田店,35.380964,139.621453,2350033,神奈川県横浜市磯子区杉田1-12-28 魚七フードビル,6時から翌1時（ラストオーダー0:45）
0000001387,松のや,イオンモールいわき小名浜店,36.943485,140.906628,9718555,福島県いわき市いわき都市計画小名浜港背後地震災復興土地区画整理事業地内,10時から21時※営業はイオンモールいわき小名浜に準じます
0000001388,松のや,阪東橋店,35.433458,139.628566,2320022,神奈川県横浜市南区高根町3-17-28 マークス横濱阪東橋,6時から翌1時（ラストオーダー0:45）
0000001389,松のや,堺東店,34.571945,135.486364,5900077,大阪府堺市堺区中瓦町2-3-12 きくやビル1階,24時間営業
0000001390,松のや,上牧店,34.559492,135.720634,6390200,奈良県北葛城郡上牧町大字上牧3344番1(地番),月曜から木曜：9時から24時（ラストオーダー23:30）、金曜：9時から翌2時（ラストオーダー1:30）、土曜：5時から翌2時（ラストオーダー1:30）、日・祝日：5時から24時（ラストオーダー23:30）
0000001391,松のや,河内天美店,34.583634,135.539597,5800032,大阪府松原市天美東7-7-7 ロイヤルコート天美1F,9時から24時（ラストオーダー23:30）
0000001392,松のや,南浦和店,35.845031,139.673712,3360017,埼玉県さいたま市南区南浦和2-36-11 カトレアビル,5時から翌2時（ラストオーダー1:30）
0000001393,松のや,鹿児島宇宿店,31.53661,130.541544,8900073,鹿児島県鹿児島市宇宿2丁目24-16,24時間営業
0000001394,松のや,大和店,35.466363,139.463739,2420021,神奈川県大和市中央4-1-2 近藤ビル,24時間営業
0000001395,松のや,アル・プラザ金沢店,36.588381,136.648364,9200014,石川県金沢市諸江町30-1 アル・プラザ金沢別棟,5時から翌2時（ラストオーダー1:30）
0000001396,松のや,倉敷玉島店,34.544182,133.683443,7138102,岡山県倉敷市玉島1-1394-2,5時から翌2時（ラストオーダー1:30）
0000001397,松のや,ホテルユニゾ横浜駅西店,35.460547,139.619602,2200005,神奈川県横浜市西区南幸2-17-6 ホテルユニゾ横浜駅西,24時間営業
0000001398,松のや,西巣鴨店,35.74059,139.731166,1700001,東京都豊島区西巣鴨3-25-11 メトロエステート201号,9時から23時（ラストオーダー22:30）
0000001399,松のや,石和店,35.639759,138.630433,4060032,山梨県笛吹市石和町四日市場1608-2,9時から23時（ラストオーダー22:30）
0000001402,テラスヴェルト,cafe terrasse verte,35.700137,139.564447,1800006,東京都武蔵野市中町1-14-5 ２F,月から土7時から23時（ラストオーダー22:30）、日祝10時から22時（ラストオーダー21:30）
