storeid,brand,name,lat,lon,postalCode,address,business_hour1,business_hour2,business_hour3
1,すき家,平塚店,35.3279988887733,139.340819955374,254-0052,神奈川県平塚市平塚1-9-26,24時間営業,,
2,すき家,長原駅東店（旧上池台店）,35.6013923067623,139.69985810426,145-0064,東京都大田区上池台1-44-1　ライオンズマンション102,24時間営業,※3月1日(金)～3月12日(火)まで、改装工事のため閉店いたします。,
5,すき家,守谷店,35.941055844159,139.994454109039,302-0128,茨城県守谷市けやき台5-2-1,24時間営業,,
6,すき家,松戸店,35.7728639765848,139.907196878139,271-0081,千葉県松戸市二十世紀が丘美野里町15-1,24時間営業,,
8,すき家,汐入店,35.5017313411203,139.686315484692,230-0042,神奈川県横浜市鶴見区仲通1-54　アネックスつるみ102,24時間営業,,
9,すき家,16号岩槻店（旧岩槻店）,35.9459337180985,139.711774582929,339-0053,埼玉県さいたま市岩槻区城町2-10-59,24時間営業,,
10,すき家,石和店,35.6433937872391,138.626468369827,406-0032,山梨県笛吹市石和町四日市場字白山町1713-1,24時間営業,,
11,すき家,大宮清河寺店（旧大宮店）,35.9321960025626,139.58350725688,331-0048,埼玉県さいたま市西区清河寺字須場1232-5,24時間営業,,
13,すき家,焼津店,34.8790452941704,138.31010345052,425-0091,静岡県焼津市八楠3-19-1,8:00～24:00,,
14,すき家,前橋大渡町店（旧前橋中央店）,36.3950019871333,139.054769579576,371-0854,群馬県前橋市大渡町1-1-1,24時間営業,,
15,すき家,高崎緑町店,36.3515946758629,139.006506142131,370-0073,群馬県高崎市緑町1-29-9,24時間営業,,
16,すき家,太田南矢島店（旧太田店）,36.2677117914423,139.377298377373,373-0861,群馬県太田市南矢島町928-1,9:00～24:00,,
19,すき家,浜松住吉店,34.7341980827645,137.725906415074,430-0906,静岡県浜松市中区住吉3-11-20,24時間営業,,
20,すき家,熊谷西店,36.1610046304423,139.363493604032,360-0817,埼玉県熊谷市新島261-2,24時間営業,,
23,すき家,栃木店,36.3946018320673,139.727258470632,328-0075,栃木県栃木市箱森町41-5,24時間営業,,
24,すき家,守山店,35.2083950997731,136.944363097418,463-0090,愛知県名古屋市守山区瀬古東2-1104,24時間営業,,
26,すき家,辻堂店,35.3280008870915,139.455235453179,251-0045,神奈川県藤沢市辻堂東海岸1-2-1,24時間営業,,
27,すき家,高崎IC店,36.3416298964244,139.053530473427,370-0015,群馬県高崎市島野町大岩996-1,24時間営業,,
29,すき家,太田中央店,36.2866689438419,139.36216292811,373-0821,群馬県太田市下浜田町1369-1,24時間営業,,
32,すき家,木更津店,35.3772725012017,139.944772528772,292-0044,千葉県木更津市太田4-13,24時間営業,,
34,すき家,小平店,35.7302786102208,139.434619752824,187-0033,東京都小平市中島町22-19,24時間営業,,
35,すき家,春日井高蔵寺店,35.265345879837,137.035606508449,487-0016,愛知県春日井市高蔵寺町北1-197,24時間営業,,
36,すき家,大和中央店,35.4761046047446,139.461789200313,242-0018,神奈川県大和市深見西2-4-3,24時間営業,,
37,すき家,浦安店,35.6551374483265,139.89394506628,279-0041,千葉県浦安市堀江6-4-29　メゾン浦安1F,24時間営業,,
38,すき家,足利店,36.3050188758527,139.470635852355,326-0331,栃木県足利市福富町1107-1,24時間営業,,
41,すき家,横浜橋店,35.436615961916,139.631636357429,232-0032,神奈川県横浜市南区万世町1-19,24時間営業,,
42,すき家,南砂店,35.6760813755633,139.83355745035,136-0076,東京都江東区南砂5-14-6　江原ビル,24時間営業,,
43,すき家,朝比奈店,35.3278759362844,139.616313748193,236-0031,神奈川県横浜市金沢区六浦4-11-34　サングレイスビル101,24時間営業,,
44,すき家,前橋野中町店（旧前橋東店）,36.3806238855649,139.107215886022,379-2166,群馬県前橋市野中町50-1,24時間営業,,
46,すき家,流山店,35.8416425549745,139.897113992928,270-0163,千葉県流山市南流山7-1-10,24時間営業,,
48,すき家,立場店,35.4142619103518,139.50134154096,245-0015,神奈川県横浜市泉区中田西1-1-41,24時間営業,,
49,すき家,指扇店,35.9142890137946,139.566733085629,331-0062,埼玉県さいたま市西区大字土屋字上谷510-2,24時間営業,,
50,すき家,熊谷BP店,36.1543712465972,139.415398765468,360-0012,埼玉県熊谷市大字上之字宮の前4004-1,月 10:00～24:00　火～金・0:00～24:00,土日 10:00～24:00,
51,すき家,蓮根駅西店,35.7853813846659,139.676432966486,174-0046,東京都板橋区蓮根2-29-6　蓮根ビル1F,24時間営業,,
52,すき家,安中店,36.3333947492297,138.915162343976,379-0115,群馬県安中市中宿1丁目字石合891-1,24時間営業,,
53,すき家,都筑東山田店,35.5575383154411,139.600385051407,224-0023,神奈川県横浜市都筑区東山田3-18-5,24時間営業,,
54,すき家,糀谷店,35.5542731264735,139.72859955366,144-0035,東京都大田区南蒲田3-3-1　こうじや駅前ビル1F,24時間営業,,
55,すき家,蒔田店,35.4310564892757,139.611881587373,232-0016,神奈川県横浜市南区宮元町2-31　村串ビル1F,24時間営業,,
56,すき家,前橋南店,36.3752542795175,139.065083521219,371-0805,群馬県前橋市南町2-46-6,24時間営業,,
57,すき家,八王子南店,35.6282648870061,139.39192410717,192-0361,東京都八王子市越野25-34,24時間営業,,
58,すき家,湘南LT店,35.3661675997547,139.453040822433,251-0861,神奈川県藤沢市大庭5434-9,24時間営業,,
59,すき家,竜ヶ崎NT店,35.9313020043205,140.176075585783,301-0001,茨城県龍ヶ崎市久保台1-1-1,24時間営業,,
61,すき家,福生店,35.7503034326134,139.324435203695,197-0012,東京都福生市加美平1-19-7,24時間営業,,
62,すき家,竹ノ塚店,35.7980983255659,139.801810024017,121-0812,東京都足立区西保木間1-17-20,24時間営業,,
63,すき家,川越氷川町店（旧川越店）,35.9313536096476,139.489063194718,350-0851,埼玉県川越市氷川町29-1,24時間営業,,
64,すき家,小田原早川店（旧小田原西店）,35.2441376596497,139.138596166969,250-0021,神奈川県小田原市早川3-19-6,24時間営業,,
65,すき家,南葛西店,35.6537594477623,139.872752445316,134-0085,東京都江戸川区南葛西2-2-2　第2サクマビル1F,24時間営業,,
66,すき家,足立栗原店,35.7838523512015,139.786014769557,123-0842,東京都足立区栗原4-9-6　荒堀ビル1F,24時間営業,,
67,すき家,佐倉店,35.7300545306721,140.185662667488,285-0837,千葉県佐倉市王子台2-12-22,24時間営業,,
69,すき家,東金BP店,35.5705727362558,140.378567601637,283-0005,千葉県東金市田間846-5,24時間営業,,
70,すき家,戸塚南店,35.3675335332834,139.498946669319,245-0065,神奈川県横浜市戸塚区東俣野町1029-1,24時間営業,,
72,すき家,西船橋店,35.7036556962034,139.963514832244,273-0026,千葉県船橋市山野町10-1,24時間営業,,
73,すき家,千葉白井店,35.7961089066642,140.061436331672,270-1422,千葉県白井市復字中山1450,24時間営業,,
74,すき家,瀬戸店,35.2107050646604,137.067816904992,489-0931,愛知県瀬戸市高根町1-68,24時間営業,,
76,すき家,宇都宮北店,36.5935326332036,139.925788656097,321-0982,栃木県宇都宮市御幸ヶ原町68-32　林ハイツ1F,24時間営業,,
78,すき家,4号さくら店,36.6761749568742,139.960573072983,329-1323,栃木県さくら市卯の里五丁目59-1,24時間営業,,
79,すき家,静岡IC店,34.9514697119382,138.386302676223,422-8051,静岡県静岡市駿河区中野新田字橋下57-93,月～金 10:00～23:00　,土日 9:00～23:00　祝 10:00～23:00,
80,すき家,相模原共和店,35.5613943882266,139.399165473839,229-0039,神奈川県相模原市中央区共和3-6-17,24時間営業,,
81,すき家,笠寺店,35.1025691399942,136.925210394307,457-0071,愛知県名古屋市南区千竃通4-20-1,24時間営業,,
82,すき家,五領町店,36.0317283171019,139.41904272126,355-0031,埼玉県東松山市五領町15-15,24時間営業,,
83,すき家,相模原上鶴間店（旧相模原東店）,35.5238853862005,139.449251930261,252-0302,神奈川県相模原市南区上鶴間2-7-2,24時間営業,,
84,すき家,東松山店,36.0254254172853,139.405265822313,355-0073,埼玉県東松山市上野本1164-1,24時間営業,,
86,すき家,戸祭店,36.5743588378487,139.877344117818,320-0053,栃木県宇都宮市戸祭町3001-1,24時間営業,,
87,すき家,黒川北店,35.2029773352341,136.911945483587,462-0841,愛知県名古屋市北区黒川本通り5-19-1,24時間営業,,
88,すき家,宇都宮東店,36.5553692204691,139.910188375653,321-0945,栃木県宇都宮市宿郷3-21-30,24時間営業,,
89,すき家,高津野川店,35.5722471301014,139.622593640822,213-0022,神奈川県川崎市高津区千年50,24時間営業,,
91,すき家,一宮妙興寺店,35.2874059646875,136.793883345321,491-0915,愛知県一宮市宮地2-13-4,24時間営業,,
92,すき家,市原白金店（旧 白金店）,35.5279683330324,140.104137910124,290-0059,千葉県市原市白金町1-58-2,24時間営業,,
94,すき家,つくば天久保店,36.1061949059862,140.109124481651,305-0005,茨城県つくば市天久保4-6-5,24時間営業,,
95,すき家,幕張店,35.6542681628188,140.056748252318,262-0032,千葉県千葉市花見川区幕張町5-417-207,24時間営業,,
96,すき家,下館店,36.2922169942332,139.920630181331,308-0846,茨城県筑西市布川1310-13,24時間営業,,
97,すき家,神栖店,35.8921729411004,140.658014307421,314-0127,茨城県神栖市大字木崎字新扇2841-1,24時間営業,,
99,すき家,129号厚木山際店（旧厚木北店）,35.4966979018913,139.363181996853,243-0803,神奈川県厚木市山際281-1,24時間営業,,
100,すき家,桶川店,36.0045638212419,139.567812450239,363-0012,埼玉県桶川市末広2-2-8　平澤ビル1F,24時間営業,,
101,すき家,高崎東店,36.3196323547829,139.027764181765,370-0851,群馬県高崎市上中居町190-1,24時間営業,,
102,すき家,館山店,34.9913412585199,139.879894576594,294-0043,千葉県館山市安布里字青木田190-2,24時間営業,,
103,すき家,大原店,35.247035950016,140.394295637699,298-0004,千葉県いすみ市大原9539-1,24時間営業,,
104,すき家,刈谷店,35.0141919457192,137.021743669011,448-0003,愛知県刈谷市一ツ木町4-1-8,24時間営業,,
105,すき家,255号小田原成田店（旧小田原東店）,35.2942633614111,139.167660889489,250-0862,神奈川県小田原市成田408-1,24時間営業,,
106,すき家,岩井店,36.0478509747109,139.892554876331,306-0631,茨城県坂東市大字岩井字新畑4298-1,24時間営業,,
108,すき家,125号下妻店（旧下妻店）,36.1797043201394,139.969122723801,304-0062,茨城県下妻市下妻戊106-1,24時間営業,,
109,すき家,浜野店,35.5553660607455,140.125916506522,260-0824,千葉県千葉市中央区浜野町1025,24時間営業,,
110,すき家,松本中央店,36.2173752071812,137.960591406993,390-0835,長野県松本市高宮東1-25,24時間営業,,
111,すき家,都筑ふれあいの丘店,35.5395106972805,139.562742341046,224-0007,神奈川県横浜市都筑区荏田南1-1,24時間営業,,
112,すき家,西新宿店,35.6946803619503,139.698586136506,160-0023,東京都新宿区西新宿7-10-16　千徳ビル,24時間営業,,
113,すき家,牛久店,35.985874107498,140.153571330762,300-1233,茨城県牛久市栄町3-191-1,24時間営業,,
114,すき家,二宮店,35.3068790707236,139.253715384051,259-0123,神奈川県中郡二宮町二宮1352-4,24時間営業,,
117,すき家,下平間店,35.5483485276194,139.683480518008,212-0053,神奈川県川崎市幸区下平間274-11　スズキハイツ1F,24時間営業,,
118,すき家,旭店,35.7250637176943,140.64925106337,289-2504,千葉県旭市二字宮前1684-1,24時間営業,,
119,すき家,御殿場店,35.307199408767,138.925170154684,412-0042,静岡県御殿場市萩原809-2,24時間営業,,
120,すき家,真岡上高間木店（旧真岡店）,36.44018704141,139.986577613139,321-4337,栃木県真岡市上高間木3-10-8,24時間営業,,
121,すき家,芝山店,35.7206229188855,140.019731326675,274-0816,千葉県船橋市芝山2-9-1,24時間営業,,
122,すき家,長野南店,36.6082909008943,138.167687596335,381-2215,長野県長野市稲里町中氷鉋字中川原599,24時間営業,,
123,すき家,ひたちなか店,36.3970484361097,140.549693388833,312-0011,茨城県ひたちなか市中根3319-6,24時間営業,,
126,すき家,4号杉戸堤根店（旧 杉戸店）,36.0144665585965,139.75335908477,345-0024,埼玉県北葛飾郡杉戸町堤根4024-1,24時間営業,,
127,すき家,富山呉羽店,36.7257583666777,137.151641569041,930-0108,富山県富山市本郷東部9-1,24時間営業,,
128,すき家,いわき平店,37.0480594719846,140.890112362627,970-8036,福島県いわき市平谷川瀬1丁目10-6,24時間営業,,
129,すき家,富山豊田店,36.7227862588637,137.235408082497,931-8311,富山県富山市豊田2-70-4,24時間営業,,
130,すき家,幸手店,36.0724425631071,139.720605524206,340-0115,埼玉県幸手市中2-12-35,24時間営業,,
131,すき家,いわき湯本店,36.9855460810434,140.869777763269,972-8312,福島県いわき市常磐下船尾町古内290-12,24時間営業,,
133,すき家,新杉田店,35.38537815874,139.618580634362,235-0033,神奈川県横浜市磯子区杉田1-6-6　第3アズサワビル,24時間営業,,
135,すき家,野々市御経塚店,36.5501938992651,136.600052128883,921-8801,石川県野々市市御経塚1531,24時間営業,,
136,すき家,磐田店,34.7347420727477,137.878149579702,438-0016,静岡県磐田市岩井2339,10:00～22:00,,
137,すき家,水戸IC店,36.3863571011594,140.391896985982,311-4143,茨城県水戸市大塚町1531-1,24時間営業,,
138,すき家,金沢高柳店,36.5956126387714,136.662885097054,920-0005,石川県金沢市高柳町3-9-1,24時間営業,,
139,すき家,23号多賀城町前店,38.2863632869891,141.010228145034,985-0845,宮城県多賀城市町前3-7-7,24時間営業,,
141,すき家,東陽町駅西口店（旧東陽町店）,35.6697553464508,139.815417303722,135-0016,東京都江東区東陽3-27-30　ミラ・フローレス1F,24時間営業,,
142,すき家,船橋南店,35.6878495936455,139.994437991924,273-0012,千葉県船橋市浜町1-41-10　第3土井ビル1F,24時間営業,,
143,すき家,仙台松森店,38.3033939492486,140.91388841731,981-3111,宮城県仙台市泉区松森字陣ヶ原5-1,24時間営業,,
144,すき家,高岡南店,36.7388403973135,137.014045449444,933-0871,富山県高岡市駅南5-5-5,24時間営業,,
145,すき家,米沢徳町店,37.9231458826184,140.095573886776,992-0047,山形県米沢市徳町134-1,24時間営業,,
146,すき家,7号酒田北新橋店,38.9240877345782,139.858432768792,998-0865,山形県酒田市北新橋1-19-1,24時間営業,,
147,すき家,飯田店,35.5316940837765,137.864038776765,395-0001,長野県飯田市座光寺4705-1,月～金 10:00～23:00,土日 9:00～22:00,
148,すき家,4号郡山日和田店,37.4407046745164,140.379959705863,963-0534,福島県郡山市日和田町字原12-110,24時間営業,,
149,すき家,大分中央店,33.2484121744153,131.660861860463,870-0914,大分県大分市日岡1-3-22,24時間営業,,
150,すき家,苅田店,33.7652999584426,130.977910611277,800-0353,福岡県京都郡苅田町尾倉1-3-1,24時間営業,,
151,すき家,本牧店,35.4296516854582,139.662218860484,231-0806,神奈川県横浜市中区本牧町2-364,24時間営業,,
152,すき家,相模原緑が丘店（旧相模原南店）,35.5447319781522,139.381795461431,252-0225,神奈川県相模原市中央区緑が丘1-46-28,24時間営業,,
153,すき家,高岡熊野店,36.7614555229924,137.016599196005,933-0903,富山県高岡市熊野町5-30,24時間営業,,
154,すき家,秋田東店,39.711876051796,140.149236231627,010-0042,秋田県秋田市桜1-12-11,24時間営業,,
156,すき家,弘前中央店,40.5963547406006,140.480896015771,036-8004,青森県弘前市大字大町3-1-4,24時間営業,,
157,すき家,秋田北店,39.7709444398983,140.068799358595,011-0951,秋田県秋田市土崎港相染町字大谷地36-4,24時間営業,,
158,すき家,上越店,37.150431741055,138.227806250824,943-0802,新潟県上越市大豆1-9-27,24時間営業,,
159,すき家,佐賀南店,33.2391727112385,130.299189260473,840-0023,佐賀県佐賀市本庄町袋305-2,24時間営業,,
160,すき家,新潟中央店,37.9009158745032,139.036627021639,950-0973,新潟県新潟市中央区上近江2丁目1番18号,24時間営業,,
161,すき家,八日市場店,35.69977940827,140.549861315192,289-2144,千葉県匝瑳市八日市場イ194-1,24時間営業,,
163,すき家,須賀川店,37.2900669669832,140.368010134641,962-0023,福島県須賀川市大黒町282,24時間営業,,
164,すき家,会津若松店,37.5069649237599,139.941225035755,965-0021,福島県会津若松市山見町239-1,24時間営業,,
165,すき家,花園IC店,36.1214094811677,139.239709596298,369-1245,埼玉県深谷市荒川字天神174,10:00～22:00,,
166,すき家,486号福山駅家店,34.5447269897136,133.338468401236,720-1131,広島県福山市駅家町万能倉288-1,24時間営業,,
167,すき家,関内店,35.4418427361967,139.637997810662,231-0028,神奈川県横浜市中区翁町1-4-14　浜吉ビル1F,24時間営業,,
168,すき家,飯塚西店,33.6262261193745,130.669840377906,820-0089,福岡県飯塚市小正298-2,24時間営業,,
169,すき家,おゆみ野店,35.5502868671803,140.17278784778,266-0033,千葉県千葉市緑区おゆみ野南5-7-1,24時間営業,,
171,すき家,東広島御薗宇店,34.4181708066335,132.750217526883,739-0024,広島県東広島市西条町大字御薗宇字下上戸648-1,24時間営業,,
172,すき家,福岡空港店,33.6070597626139,130.458898778962,811-2205,福岡県糟屋郡志免町別府北1-3-18,24時間営業,,
173,すき家,三原店,34.3932317795089,133.06667156069,723-0052,広島県三原市皆実町3-1-1,24時間営業,,
174,すき家,中津店,33.5941062329378,131.195278775296,871-0030,大分県中津市中殿町3-31-14,24時間営業,,
175,すき家,山口維新公園前店,34.1585920047342,131.436020289197,753-0811,山口県山口市維新公園5-2-10,24時間営業,,
176,すき家,115号福島方木田店,37.7400608417706,140.451071682367,960-1101,福島県福島市大森字北島45-1,24時間営業,,
177,すき家,鶴屋町店,35.4691803769286,139.62262338424,221-0835,神奈川県横浜市神奈川区鶴屋町2-11-6,24時間営業,,
179,すき家,長岡IC店,37.4626781505468,138.821092600999,940-2023,新潟県長岡市蓮潟1-1-53,24時間営業,,
180,すき家,土浦店,36.0845064116825,140.205640798077,300-0031,茨城県土浦市東崎町11-3,24時間営業,,
181,すき家,米子中央店,35.4396685087248,133.339630706672,683-0805,鳥取県米子市西福原1-1-45,24時間営業,,
182,すき家,三和町店,36.224441541531,139.797746285344,306-0128,茨城県古河市上片田字新田前843-1,24時間営業,,
183,すき家,大曲店,39.4545005076423,140.498085500207,014-0044,秋田県大仙市戸蒔字錨169,24時間営業,,
184,すき家,西那須野店,36.8987846439984,139.98587988749,329-2706,栃木県那須塩原市睦104-31,24時間営業,,
185,すき家,館林緑町店（旧館林店）,36.2356470736403,139.531063750441,374-0025,群馬県館林市緑町1-30-19,24時間営業,,
186,すき家,広島観音店,34.3793223584755,132.426242888194,733-0035,広島県広島市西区南観音6-14-18,24時間営業,,
187,すき家,福岡和白店,33.6811925457902,130.436076427431,811-0202,福岡県福岡市東区和白1-1-21,24時間営業,,
188,すき家,青森西店,40.8261544269919,140.725118485121,038-0011,青森県青森市篠田2-19-26,24時間営業,,
190,すき家,久留米中央店,33.2946199489539,130.528286847628,839-0863,福岡県久留米市国分町字御供田1604-7,24時間営業,,
191,すき家,412号厚木林店（旧厚木西店）,35.4577215735851,139.350617890579,243-0816,神奈川県厚木市林4-12-34,24時間営業,,
193,すき家,福岡BP店,33.5666699334752,130.459895278247,812-0857,福岡県福岡市博多区西月隈4-5-5,9:00～22:00,,
194,すき家,新潟西店,37.8883845990777,138.99819329055,950-2022,新潟県新潟市西区小針2-38-12,24時間営業,,
195,すき家,秋田南店,39.6989037922904,140.115374641131,010-0062,秋田県秋田市牛島東1-5-3,24時間営業,,
196,すき家,佐久店,36.2809456421081,138.470178936777,385-0021,長野県佐久市大字長土呂260-1,24時間営業,,
197,すき家,倉敷田ノ上店,34.5874605658208,133.757169438531,710-0831,岡山県倉敷市田ノ上939-1,24時間営業,,
198,すき家,つくば中央店,36.0726221545537,140.095883516106,305-0035,茨城県つくば市松代1-6-4,24時間営業,,
199,すき家,小山店,36.3126649843298,139.8194573643,323-0807,栃木県小山市城東6-8-14,24時間営業,,
200,すき家,101号つがる柏店,40.8060629123986,140.419962253218,038-3107,青森県つがる市柏稲盛字岡本89,24時間営業,,
201,すき家,富士宮店,35.2399234814273,138.619145056517,418-0003,静岡県富士宮市ひばりが丘1155,24時間営業,,
202,すき家,広大前店,34.4104907271653,132.71454195446,739-0047,広島県東広島市西条下見5-1-7,24時間営業,,
204,すき家,呉広店,34.2284462320841,132.630575088167,737-0131,広島県呉市広中町1-21,24時間営業,,
205,すき家,福岡西店,33.564193830867,130.317998010036,819-0041,福岡県福岡市西区拾六町1-25-8,24時間営業,,
207,すき家,宇都宮西店,36.5598488209113,139.851133629381,320-0851,栃木県宇都宮市鶴田町2-39-42,24時間営業,,
208,すき家,八戸北店,40.5201394620798,141.493103795632,031-0072,青森県八戸市城下4-14-14,24時間営業,,
209,すき家,2国姫路市川橋店,34.8282834468305,134.712962027269,670-0825,兵庫県姫路市市川橋通1-9,10:00～翌2:00,,
210,すき家,青森東店,40.8274102845696,140.78190482235,030-0961,青森県青森市浪打2-11-20,24時間営業,,
211,すき家,南武庫之荘店,34.7450641347397,135.38774898547,661-0033,兵庫県尼崎市南武庫之荘4-19-10,24時間営業,,
214,すき家,高島平駅前店,35.7897915172688,139.663321630076,175-0082,東京都板橋区高島平8-11-11　SDビル,24時間営業,,
215,すき家,富士厚原店,35.1848772337827,138.65591953713,419-0201,静岡県富士市厚原99-5,24時間営業,,
216,すき家,諏訪IC店,36.0182577003329,138.124445023368,392-0012,長野県諏訪市大字四賀字赤沼1818,24時間営業,,
217,すき家,日立金沢店（旧日立南店）,36.5399177532791,140.622127461248,316-0015,茨城県日立市金沢町1-13-10,24時間営業,,
218,すき家,難波元町店,34.6618094138483,135.498223088749,556-0011,大阪府大阪市浪速区難波中3-6-12　ナンバグランドビル,24時間営業,,
219,すき家,静岡流通通り店,35.0016502575784,138.406765332834,420-0803,静岡県静岡市葵区千代田7-9-25,24時間営業,,
220,すき家,蒲郡栄町店,34.8235846717503,137.219236322049,443-0035,愛知県蒲郡市栄町9-41,24時間営業,,
221,すき家,南船場店,34.6768376667432,135.506129517903,542-0081,大阪府大阪市中央区南船場2-2-10,24時間営業,,
222,すき家,新潟東店,37.9210238821295,139.0934030472,950-0872,新潟県新潟市東区牡丹山4-1-27,24時間営業,,
223,すき家,盛岡西店,39.6915293298405,141.134668384836,020-0866,岩手県盛岡市本宮3-5-10,24時間営業,,
224,すき家,広島祇園店,34.4460087528943,132.469149309719,731-0113,広島県広島市安佐南区西原5-6-5,24時間営業,,
225,すき家,春日井中央店,35.2514382397155,136.974226968588,486-0845,愛知県春日井市瑞穂通7-16-1,10:00～22:00,,
227,すき家,上六店,34.6638642808693,135.519095705122,543-0001,大阪府大阪市天王寺区上本町6-9-20,24時間営業,,
229,すき家,岩沼中央店,38.1080921901194,140.873568258874,989-2433,宮城県岩沼市桜3-12-15,24時間営業,,
230,すき家,姫路広畑店,34.7954534178634,134.621588905217,671-1154,兵庫県姫路市広畑区吾妻町3-21,24時間営業,,
231,すき家,門真中央店,34.7357927568177,135.601949956523,571-0076,大阪府門真市大池町16-25,24時間営業,,
232,すき家,新宿南店,35.6899387372558,139.703759258553,160-0022,東京都新宿区新宿3-32-2,24時間営業,,
233,すき家,成田東店,35.7843642685453,140.328290266053,286-0022,千葉県成田市寺台28-1,24時間営業,,
235,すき家,本厚木店,35.4418151483636,139.362454306681,243-0018,神奈川県厚木市中町3-13-1,24時間営業,,
236,すき家,三宮店,34.6943355992061,135.192760015011,650-0012,兵庫県神戸市中央区北長狭通1-20-2,24時間営業,,
237,すき家,立町店,34.3941341597351,132.461037094309,730-0032,広島県広島市中区立町2-1　立町中央ビル1F,24時間営業,,
238,すき家,橿原店,34.5212021799014,135.797445546435,634-0007,奈良県橿原市葛本町東笠706,24時間営業,,
240,すき家,中山店,35.5086428455307,139.544418895267,226-0011,神奈川県横浜市緑区中山町791-2,24時間営業,,
242,すき家,明石西IC店,34.7192204903942,134.893636488858,674-0074,兵庫県明石市魚住町清水2128-2,24時間営業,,
243,すき家,脇浜店,34.7010246928579,135.21363769535,651-0072,兵庫県神戸市中央区脇浜町2-5-19,24時間営業,,
244,すき家,円町店,35.0188022607789,135.732183886824,604-8463,京都府京都市中京区西ノ京円町23　円町杉本ビル1F,24時間営業,,
245,すき家,新井店,37.0275740337043,138.226950034685,944-0075,新潟県妙高市大字猪野山55-16,月・0:00～24:00,火～金・5:00～24:00,土日・0:00～24:00
246,すき家,浦和桜田店,35.853107660348,139.623493133405,338-0833,埼玉県さいたま市桜区桜田3-1-16,24時間営業,,
247,すき家,菅原店,34.7416435610264,135.524790817332,533-0022,大阪府大阪市東淀川区菅原7-5-31,24時間営業,,
248,すき家,君津外箕輪店（旧君津店）,35.3188989747013,139.926124820913,299-1173,千葉県君津市外箕輪3-17-21,24時間営業,,
249,すき家,四条店,35.0034546926954,135.761527434353,600-8007,京都府京都市下京区四条通高倉西入ル立売西町67,24時間営業,,
252,すき家,水海道店,36.0232829955512,140.000930618211,303-0016,茨城県常総市新井木町字江畑102-3,10:00～23:00,,
253,すき家,武蔵中原店,35.5813417570056,139.641021969365,211-0053,神奈川県川崎市中原区上小田中4-2-1　Beans1F,24時間営業,,
254,すき家,甲南店,34.7220787584833,135.273166226532,658-0084,兵庫県神戸市東灘区甲南町3-8-16,24時間営業,,
255,すき家,花巻中央店,39.3964826246878,141.122761570739,025-0062,岩手県花巻市上小舟渡218-2,24時間営業,,
256,すき家,北白川店,35.0364319660706,135.791461485416,606-8252,京都府京都市左京区北白川上終町7,24時間営業,,
257,すき家,鴻巣店,36.0606939281427,139.520075774562,365-0036,埼玉県鴻巣市天神1-7-6,24時間営業,,
258,すき家,高槻西店,34.8402330514601,135.590441380942,569-1144,大阪府高槻市大畑町26-17,24時間営業,,
259,すき家,長野中央店,36.6426255985819,138.201600698881,380-0905,長野県長野市鶴賀(七瀬南部)320-1,24時間営業,,
260,すき家,池袋西店,35.7276514456083,139.708079385445,171-0021,東京都豊島区西池袋2-39-11,24時間営業,,
261,すき家,明幹加古川店,34.7452647889178,134.83802879666,675-0021,兵庫県加古川市尾上町安田305-1,24時間営業,,
262,すき家,松戸中央店,35.7930365897868,139.909982384588,271-0065,千葉県松戸市南花島2-32-9,24時間営業,,
263,すき家,原町店,37.6327566525043,140.985407247292,975-0038,福島県南相馬市原町区日の出町109-1-1,24時間営業,,
265,すき家,岡山野田店,34.6537093009323,133.899594559715,700-0971,岡山県岡山市北区野田3-17-1,24時間営業,,
268,すき家,新松戸店,35.824133630204,139.91506608603,270-0034,千葉県松戸市新松戸3-271　神谷第一ビル,24時間営業,,
269,すき家,嵐山店,36.0396373639574,139.317489957605,355-0227,埼玉県比企郡嵐山町大字千手堂37-2,月～金 9:00～23:00,土日祝 10:00～22:00,
271,すき家,海老名さがみ野店（旧海老名東店）,35.470485297781,139.435250274208,243-0401,神奈川県海老名市東柏ヶ谷6-21-20,24時間営業,,
272,すき家,安曇野IC店,36.3008280955164,137.921347212343,399-8201,長野県安曇野市豊科大字南穂高148-2,月～木・9:00～翌6:00,金～日・9:00～24:00,
273,すき家,下永谷店,35.4104489292457,139.561768642563,233-0016,神奈川県横浜市港南区下永谷5-1-15,24時間営業,,
274,すき家,早稲田南店,35.7058456901909,139.722137555344,162-0042,東京都新宿区早稲田町74　STビル1F,24時間営業,,
275,すき家,江戸堀店,34.6888778052296,135.492368995182,550-0002,大阪府大阪市西区江戸堀1-24-25　マッセ肥後橋ビル2号館,24時間営業,,
277,すき家,関目店,34.7082322300291,135.546149748642,536-0007,大阪府大阪市城東区成育2-13-15　アイビーマンション1F,24時間営業,,
279,すき家,浦安駅前店,35.664730839964,139.892416973665,279-0004,千葉県浦安市猫実4-18-26　浦安サンライズビル1F,24時間営業,,
280,すき家,阪東橋店,35.4371116280054,139.625096877703,232-0022,神奈川県横浜市南区高根町3-17-4　サンコート大通公園　横浜阪東橋,24時間営業,,
281,すき家,金港町店,35.4692054423644,139.626523059222,221-0056,神奈川県横浜市神奈川区金港町6-13　エムズ横浜,24時間営業,,
282,すき家,京都外大前店,35.0034025603492,135.718645442508,615-0057,京都府京都市右京区西院東貝川町20,24時間営業,,
283,すき家,日立田尻店（旧日立北店）,36.6256957296923,140.681676899258,319-1416,茨城県日立市田尻町4-6-7,24時間営業,,
284,すき家,東池袋店,35.7317067145564,139.716503499098,170-0013,東京都豊島区東池袋1-31-1　バロックコート101号室,24時間営業,,
285,すき家,高萩店,36.7159581202563,140.719244067494,318-0014,茨城県高萩市東本町3-22-2,24時間営業,,
286,すき家,潮見店,35.6569692628664,139.818211549309,135-0052,東京都江東区潮見2-10-22,24時間営業,,
287,すき家,新横浜店,35.5085221434677,139.614805833031,222-0033,神奈川県横浜市港北区新横浜2-6-17,24時間営業,,
288,すき家,鶴岡道形店,38.7576719641433,139.844862392037,997-0012,山形県鶴岡市大字道形字二ツ屋61-2,24時間営業,※現在閉店中です,
289,すき家,蒲田南店,35.5589835609832,139.718708491537,144-0052,東京都大田区蒲田4-42-12　新生ビル1F,※2月20日(水)朝9:00～4月9日(火)朝9:00 まで、改装工事のため一時閉店いたします。,24時間営業,
292,すき家,白根店,37.7752981516305,139.017981298881,950-1227,新潟県新潟市南区鯵潟四反田605-1,24時間営業,,
294,すき家,安城中央店,34.9530875608205,137.080354948389,446-0043,愛知県安城市城南町1-2-1,24時間営業,,
295,すき家,山形大野目店,38.2818196407571,140.360188728327,990-0073,山形県山形市大野目4-2-24,24時間営業,,
298,すき家,宝塚安倉店,34.7926955189463,135.376998796104,665-0825,兵庫県宝塚市安倉西4-608,24時間営業,,
299,すき家,船場中央店,34.6822995341439,135.50335894094,541-0054,大阪府大阪市中央区南本町3-2-6,24時間営業,,
300,すき家,梅田東店,34.7047124049248,135.502803510584,530-0027,大阪府大阪市北区堂山町15-15,24時間営業,,
301,すき家,西大路七条店,34.989016557181,135.732149150133,600-8884,京都府京都市下京区西七条南衣田町72,24時間営業,,
302,すき家,駒沢大学前店,35.6308178524166,139.656839766387,154-0012,東京都世田谷区駒沢1-20-4,24時間営業,,
303,すき家,豊橋柱店,34.7496458894907,137.376881912144,441-8052,愛知県豊橋市柱三番町110,24時間営業,,
304,すき家,三田店,35.6473023471394,139.744757816927,108-0014,東京都港区芝5-25-9,24時間営業,,
305,すき家,宝来店,34.6844357443962,135.776559209096,631-0842,奈良県奈良市菅原町556-1,24時間営業,,
306,すき家,森下店,35.6882100243108,139.798662567632,135-0004,東京都江東区森下2-18-8,24時間営業,,
307,すき家,大池橋店,34.6538451733371,135.540642988098,544-0032,大阪府大阪市生野区中川西3-10-15,24時間営業,,
308,すき家,四条木屋町店,35.0036351125258,135.770764714453,600-8011,京都府京都市下京区四条通小橋東入橋本町109　ビュッフェビル,24時間営業,,
310,すき家,西本町店,34.683545108805,135.496177257796,550-0005,大阪府大阪市西区西本町1-7-14　西本町八幡ビル,24時間営業,,
311,すき家,六角橋店,35.4869118704399,139.625872297943,221-0802,神奈川県横浜市神奈川区六角橋1-11-1,24時間営業,,
312,すき家,柏崎店,37.3606841912378,138.558266347193,945-0822,新潟県柏崎市穂波町8-17,24時間営業,,
313,すき家,燕三条店,37.6424582415859,138.941214624463,955-0093,新潟県三条市大字下須頃字八枚田241-1,24時間営業,,
314,すき家,吉祥寺南店,35.702740438632,139.577401940714,180-0003,東京都武蔵野市吉祥寺南町1-11-1,24時間営業,,
315,すき家,とうきょうスカイツリー駅前店（旧業平橋店）,35.7090363088222,139.808897147565,130-0002,東京都墨田区業平1-18-12,24時間営業,,
316,すき家,百万遍店,35.0292630729604,135.7791267288,606-8225,京都府京都市左京区田中門前町28-20　ドムス百万遍,24時間営業,,
317,すき家,鶯谷店,35.7228165218757,139.778255446686,110-0003,東京都台東区根岸1-6-10,24時間営業,,
318,すき家,倉敷宮前店,34.6122347467021,133.766562795428,710-0065,岡山県倉敷市宮前357-2,24時間営業,,
319,すき家,大和駅前店,35.4704857645015,139.46197277713,242-0017,神奈川県大和市大和東1-3-12,24時間営業,,
321,すき家,上田店,36.4155613751248,138.223269632643,386-0041,長野県上田市大字秋和字立石344-4,月火 10:00～翌5:00　水 10:00～24:00　木金 0:00～24:00,土 0:00～翌5:00　日 10:00～翌5:00,
322,すき家,甲府西店,35.6619646719921,138.520492427015,400-0113,山梨県甲斐市富竹新田1279-1,24時間営業,,
323,すき家,香芝IC店,34.5649927631607,135.701419560447,639-0265,奈良県香芝市上中69-3,24時間営業,,
324,すき家,鈴鹿中央通り店,34.8765061931809,136.580822182677,513-0801,三重県鈴鹿市神戸4-6-25,24時間営業,,
325,すき家,倉敷連島店,34.5497320445902,133.738020821637,712-8012,岡山県倉敷市連島2-9-18,24時間営業,,
326,すき家,西葛西店,35.670174103629,139.858149291142,134-0088,東京都江戸川区西葛西1-15-9　秋元第一ビル,24時間営業,,
327,すき家,豊橋浜道店,34.7163757786817,137.405350246521,441-8117,愛知県豊橋市浜道町字浜道96-5,24時間営業,,
328,すき家,豊田下市場店,35.0650936293231,137.159478497513,471-0875,愛知県豊田市下市場町5-43-1,10:00～22:00,※現在閉店中です,
329,すき家,龍谷大店,34.9635428624782,135.762208660032,612-8411,京都府京都市伏見区竹田久保町21-7　ビル・マルジョウ,24時間営業,,
330,すき家,高田馬場店,35.7115197731667,139.704383212997,169-0075,東京都新宿区高田馬場1-28-4　工新別館ビル,24時間営業,,
331,すき家,新習志野店,35.6664161297912,140.014745625668,275-0024,千葉県習志野市茜浜2-1-12,24時間営業,,
332,すき家,銚子店,35.736571311366,140.804593743525,288-0837,千葉県銚子市長塚町1-465-1,24時間営業,,
333,すき家,行徳北店,35.688196583039,139.919622522636,272-0115,千葉県市川市富浜3-2-24,24時間営業,,
334,すき家,槙島店,34.911787655131,135.783276237992,611-0041,京都府宇治市槙島町二十四56-3,24時間営業,,
335,すき家,富里店,35.7382016682625,140.326122571715,286-0221,千葉県富里市七栄439-1,24時間営業,,
336,すき家,水沢中央店,39.1366250582933,141.149806845805,023-0827,岩手県奥州市水沢区太日通り1-4-13,24時間営業,,
338,すき家,八戸南店,40.5024249796282,141.477870043142,039-1166,青森県八戸市根城3-4-5,24時間営業,,
339,すき家,青森南店,40.7953636893134,140.748783770887,030-0113,青森県青森市第二問屋町1-2-1,24時間営業,,
340,すき家,溜池山王店,35.6705748322643,139.743290200522,107-0052,東京都港区赤坂1-5-2　外堀通ビル1F,24時間営業,,
341,すき家,品川東店,35.629327838024,139.742308014715,108-0075,東京都港区港南2-2-3　Mビル1F,24時間営業,,
342,すき家,本荘店,39.3938263139012,140.029582480585,015-0011,秋田県由利本荘市石脇字尾花沢57-60,24時間営業,,
343,すき家,長居店,34.6072757874244,135.513271016795,558-0004,大阪府大阪市住吉区長居東4-21-2　泉第2ハイツ,24時間営業,,
344,すき家,南塚口七丁目店,34.7460394548678,135.412048589166,661-0012,兵庫県尼崎市南塚口町7-6-19,24時間営業,,
345,すき家,富山掛尾店,36.6655433215746,137.209707574974,939-8212,富山県富山市掛尾町401-3,24時間営業,,
346,すき家,武蔵小山店,35.6192896278775,139.703794453236,142-0062,東京都品川区小山3-25-13,24時間営業,,
347,すき家,戸田駅前店,35.8187346254436,139.66863652261,335-0021,埼玉県戸田市大字新曽668-2,24時間営業,,
348,すき家,結城店,36.2903653280339,139.861610168153,307-0001,茨城県結城市大字結城9746-1,24時間営業,,
350,すき家,彦根店,35.2619918000558,136.240809058989,522-0053,滋賀県彦根市大藪町20,24時間営業,,
351,すき家,笠間店,36.3928769086145,140.261770548205,309-1611,茨城県笠間市笠間487-1,24時間営業,,
352,すき家,弁天町みなと通店,34.6655325731487,135.463350257911,552-0003,大阪府大阪市港区磯路1-1-7　灘浜ビル,24時間営業,,
353,すき家,那珂湊店,36.3499681705014,140.580149694024,311-1235,茨城県ひたちなか市田中後7681,24時間営業,,
355,すき家,防府天神店,34.0566081025101,131.574091574085,747-0034,山口県防府市天神2-3-36,24時間営業,,
356,すき家,浄心店,35.192497802002,136.890399422182,451-0061,愛知県名古屋市西区浄心1-1-50　浄心ステーションビル南館,24時間営業,,
357,すき家,熊谷籠原店,36.1739034360809,139.310491300766,360-0846,埼玉県熊谷市大字拾六間763-1,24時間営業,,
358,すき家,総和十間道路店,36.1932382054759,139.733739426756,306-0234,茨城県古河市上辺見鹿養大道北531-2,24時間営業,,
359,すき家,八尾山賀店,34.6454960395182,135.602716828483,581-0812,大阪府八尾市山賀町1-37,24時間営業,,
360,すき家,安城篠目店,34.9804838344199,137.06658510823,446-0073,愛知県安城市篠目町竜田87-7,10:00～22:00,,
362,すき家,8号黒部店,36.8828086713322,137.462862101913,938-0801,富山県黒部市荻生1653,9:00～23:00,,
363,すき家,東園田店,34.7548441140365,135.446451159971,661-0953,兵庫県尼崎市東園田町4-63-1,24時間営業,,
364,すき家,新南陽店,34.070592607202,131.774493453616,746-0014,山口県周南市古川町5-15,24時間営業,,
365,すき家,141号韮崎店,35.7218809366674,138.450903502918,407-0003,山梨県韮崎市藤井町北下條字枇杷塚1398-2,24時間営業,,
366,すき家,八事店,35.1369583568368,136.963734500293,466-0834,愛知県名古屋市昭和区広路町字石坂38-1　フィオ-レ八事,月～金 7:00～24:00,土日 10:00～24:00,
367,すき家,広島八丁堀店,34.3974324735419,132.464213623069,730-0013,広島県広島市中区八丁堀1-8　エイトビル,24時間営業,,
368,すき家,南岩国店,34.1383309952006,132.20831986115,740-0032,山口県岩国市尾津町2-20-33,24時間営業,,
369,すき家,松阪中央MV店,34.5779202182572,136.54134004388,515-0015,三重県松阪市宮町字堂ノ後130,24時間営業,,
370,すき家,段原店,34.3896229815555,132.477281508506,732-0811,広島県広島市南区段原3-3-32　シャルマン・S,24時間営業,,
371,すき家,あきる野睦橋通り店,35.7230389140911,139.296365179217,197-0828,東京都あきる野市秋留2-1-5,24時間営業,,
372,すき家,岩槻城北東店,35.9711196937024,139.699215299567,339-0073,埼玉県さいたま市岩槻区上野1-20-5,24時間営業,,
373,すき家,鯖江神明店,35.9709828806795,136.175498780659,916-0029,福井県鯖江市北野町18-11,24時間営業,,
374,すき家,139号富士田島店,35.1522486077284,138.693804282168,417-0031,静岡県富士市田島142-1,10:00～22:00,,
375,すき家,つくば学園西大通り店,36.1355587520882,140.079748346981,300-3257,茨城県つくば市筑穂1-5-7,24時間営業,,
376,すき家,阪急庄内南店,34.746203054384,135.475997437406,561-0832,大阪府豊中市庄内西町5-1-3,24時間営業,,
377,すき家,鶴見総合高校南店,35.5070803228536,139.69257971815,230-0038,神奈川県横浜市鶴見区栄町通1-10-15　盛田ビル1F,24時間営業,,
378,すき家,千代田町店,36.1290558218213,140.222030441132,315-0056,茨城県かすみがうら市上稲吉1959-1,24時間営業,,
379,すき家,金沢駅西店,36.5844545907882,136.626798052287,920-0025,石川県金沢市駅西本町6-3-7,24時間営業,,
380,すき家,6号水戸住吉店,36.3377635159881,140.477485726603,310-0844,茨城県水戸市住吉町47-1,24時間営業,,
381,すき家,富山中川原店,36.6769300116865,137.248970456574,930-0953,富山県富山市秋吉182-1,24時間営業,,
382,すき家,高根沢店,36.6172245435655,139.989400615579,329-1231,栃木県塩谷郡高根沢町宝石台3-14-7,24時間営業,,
384,すき家,南仙台柳生店,38.1978415008098,140.874795968694,981-1106,宮城県仙台市太白区柳生1-3-9,24時間営業,,
385,すき家,能代南BP店,40.1911865053861,140.025121690761,016-0862,秋田県能代市字寿域長根42-22,24時間営業,,
386,すき家,環七平和島店,35.5774513405917,139.736483942698,143-0011,東京都大田区大森本町2-30-2　プレール大森EAST101号,24時間営業,,
387,すき家,阪急淡路西口店,34.7398699955396,135.516542417354,533-0032,大阪府大阪市東淀川区淡路4-11-15　井上ビル1F,24時間営業,,
389,すき家,鳥取安長店,35.5134795276743,134.199804760129,680-0913,鳥取県鳥取市安長字上赤田167-1,24時間営業,,
390,すき家,中百舌鳥店,34.555267209168,135.498830444231,591-8023,大阪府堺市北区中百舌鳥町4-557-1,24時間営業,,
391,すき家,247号半田店,34.8870576778788,136.921265090008,475-0922,愛知県半田市昭和町3-20,24時間営業,,
392,すき家,東雲晴海通り店,35.6459395962919,139.801565661837,135-0062,東京都江東区東雲1-6-17,24時間営業,,
393,すき家,4号古川店,38.5742433288463,140.946637670226,989-6156,宮城県大崎市古川西館3-9-1,24時間営業,,
394,すき家,はびきの伊賀店,34.5582136483646,135.58336384369,583-0876,大阪府羽曳野市伊賀4-5-6,24時間営業,,
395,すき家,2国笠岡店,34.49872060544,133.518192538199,714-0084,岡山県笠岡市三番町2-30,月～木 9:00～22:00　金～土 0:00～24:00,日9:00～22:00,
396,すき家,郡山富久山店,37.4070321870869,140.397124830824,963-8071,福島県郡山市富久山町久保田字太郎殿前2-12,24時間営業,,
397,すき家,岸和田和泉IC北店,34.4620145575028,135.428004509131,596-0805,大阪府岸和田市田治米町343-1,24時間営業,,
398,すき家,1国刈谷店,35.0313850565001,137.018867838382,448-0005,愛知県刈谷市今川町西高山7-1,24時間営業,,
399,すき家,駒込霜降橋店,35.7394508602313,139.746820069186,170-0003,東京都豊島区駒込2-7-11　比米ビル,24時間営業,,
400,すき家,東広島八本松店,34.4455499992496,132.712623554972,739-0142,広島県東広島市八本松東2-10-8,24時間営業,,
401,すき家,160号氷見店,36.8420077303467,136.984217620542,935-0024,富山県氷見市窪851-1,24時間営業,,
402,すき家,仙台岩切店,38.3057737959549,140.951490740443,983-0821,宮城県仙台市宮城野区岩切字青津目8-1,24時間営業,,
403,すき家,長浜IC店,35.393995709999,136.287006366216,526-0847,滋賀県長浜市山階町496-2,24時間営業,,
404,すき家,1国掛川店,34.7763045521826,138.004257192762,436-0054,静岡県掛川市城西2-10-3,24時間営業,,
405,すき家,1国四日市八田店,34.9954165468941,136.645399677473,510-0001,三重県四日市市八田3-2-24,24時間営業,,
406,すき家,19号塩尻広丘店,36.141067397914,137.952698631763,399-0702,長野県塩尻市広丘野村1503-1,24時間営業,,
407,すき家,7号村上店,38.2184753473925,139.487966860138,958-0824,新潟県村上市大字本町988-1,24時間営業,,
408,すき家,東海店,36.4646723125499,140.581408474398,319-1112,茨城県那珂郡東海村村松1151-6,24時間営業,,
409,すき家,伏見新堀川店,34.934350798397,135.751532557539,612-8206,京都府京都市伏見区下鳥羽六反長町112,月 10:00～24:00　火～木 0:00～24:00　,金 0:00～22:00　土日祝 10:00～22:00,
410,すき家,175号平野芝崎店,34.6968005547542,134.982671238079,651-2254,兵庫県神戸市西区平野町芝崎255-1,24時間営業,,
411,すき家,6号石岡店,36.193352747983,140.296649894501,315-0038,茨城県石岡市旭台1-1-5,24時間営業,,
412,すき家,150号大須賀店,34.6760446530551,137.968591160325,437-1304,静岡県掛川市西大渕1684-1,24時間営業,,
413,すき家,住吉新大橋通店,35.6887077359157,139.813824618852,135-0002,東京都江東区住吉2-2-7　住吉Sビル1F,24時間営業,,
414,すき家,今市芹沼店,36.739978473738,139.709767908624,321-2405,栃木県日光市芹沼字石神殿1467,24時間営業,,
415,すき家,152号茅野店,36.0023807811348,138.171792933359,391-0003,長野県茅野市本町東5291-1,24時間営業,,
416,すき家,三好町店,35.0845382024312,137.063274758453,470-0224,愛知県みよし市三好町下畷2-10,24時間営業,,
417,すき家,17号深谷西店,36.1965130701906,139.268966486042,366-0818,埼玉県深谷市大字萱場鍋店116-1,24時間営業,,
418,すき家,いわき小名浜店,36.9503468947946,140.891656178206,971-8101,福島県いわき市小名浜字松之中10,24時間営業,,
419,すき家,23号伊勢店,34.5084624971287,136.723563941986,516-0007,三重県伊勢市小木町高野699-1,24時間営業,,
420,すき家,柏篠籠田店,35.8736958273879,139.94677922566,270-0132,千葉県流山市駒木205-1,24時間営業,,
421,すき家,124号波崎店,35.7496188125761,140.820948173398,314-0408,茨城県神栖市波崎8370-1,24時間営業,,
422,すき家,289号白河店,37.1173016025184,140.195675457718,961-0853,福島県白河市新高山41-1,24時間営業,,
423,すき家,305号上小松店,36.4094499164312,136.464356823502,923-0802,石川県小松市上小松町137-1,24時間営業,,
424,すき家,センター北店,35.5550999277254,139.5823402734,224-0014,神奈川県横浜市都筑区牛久保東1-32-1,24時間営業,,
425,すき家,近江八幡店,35.1209593622699,136.096384769602,523-0032,滋賀県近江八幡市白鳥町森前117-4,24時間営業,,
426,すき家,足利芳町店,36.3341124240139,139.470255655378,326-0035,栃木県足利市芳町21,24時間営業,,
427,すき家,豊川中央通店,34.8214434699267,137.391764036818,442-0051,愛知県豊川市中央通2-57-1,月～金 0:00～24:00　,土日 9:00～24:00,
428,すき家,新潟河渡店,37.9330844502548,139.104364359301,950-0015,新潟県新潟市東区河渡庚252-1,24時間営業,,
429,すき家,住之江大和川通店,34.6050005816514,135.471655688787,559-0024,大阪府大阪市住之江区新北島1-9-5,24時間営業,,
430,すき家,塩尻志学館高校前店,36.119341136054,137.954152566994,399-0703,長野県塩尻市広丘高出1486-230,24時間営業,,
431,すき家,9号亀岡千代川店,35.0439227132378,135.54614901347,621-0042,京都府亀岡市千代川町高野林西ノ畑15-5,24時間営業,,
432,すき家,出雲高岡店,35.3844741555758,132.752432847776,693-0066,島根県出雲市高岡町540-1,24時間営業,,
433,すき家,1国水口店,34.9837206512984,136.140842396833,528-0058,滋賀県甲賀市水口町北泉2-2,24時間営業,,
434,すき家,横手IC店,39.2981099086694,140.555720137204,013-0043,秋田県横手市安田向田173-3,24時間営業,,
435,すき家,1国桑名店,35.0754767247398,136.684648842466,511-0811,三重県桑名市東方福島前655-1,24時間営業,,
436,すき家,中川十番町店,35.1244332658074,136.881826046122,454-0055,愛知県名古屋市中川区十番町1-279,24時間営業,,
437,すき家,2国福山高西店,34.4435740756773,133.236050175851,729-0106,広島県福山市高西町4-4-9,24時間営業,,
438,すき家,なんば楽座店,34.6660703644263,135.499221698502,542-0076,大阪府大阪市中央区難波4-3-19,24時間営業,,
439,すき家,西大路駅南店,34.9800230803682,135.73247453723,601-8468,京都府京都市南区唐橋西平垣町1-7,24時間営業,,
440,すき家,和歌山西浜店,34.2078559354043,135.159162150534,641-0036,和歌山県和歌山市西浜778,24時間営業,,
441,すき家,1国島田店,34.8374633096847,138.180406691989,427-0041,静岡県島田市中河町8992-2,月～金 0:00～24:00,土～日 10:00～24:00,
442,すき家,つくば上横場店,36.0402957548821,140.088148980312,305-0854,茨城県つくば市上横場2289-3,24時間営業,,
443,すき家,東海大前店,35.3660952817669,139.27218556785,257-0003,神奈川県秦野市南矢名3-12-3,24時間営業,,
444,すき家,岐阜北方店,35.4302687575573,136.683595370714,501-0438,岐阜県本巣郡北方町平成4-4-1,24時間営業,,
445,すき家,348号山形南館店,38.2314218385296,140.304622885897,990-2461,山形県山形市南館210-9,24時間営業,,
446,すき家,滑川柳原店（旧8号滑川店）,36.7624888856874,137.358564915146,936-0023,富山県滑川市柳原253-1,24時間営業,,
447,すき家,6号いわき四倉店,37.0953767705871,140.977495982245,979-0202,福島県いわき市四倉町上仁井田南姥田6-1,24時間営業,,
449,すき家,大正駅南店,34.6615118411416,135.476335753508,551-0002,大阪府大阪市大正区三軒家東4-6-12,24時間営業,,
450,すき家,座間広野台店,35.5061125724121,139.41787257689,252-0012,神奈川県座間市広野台1-25-5,24時間営業,,
451,すき家,印西BP店,35.833406180525,140.149657009829,270-1325,千葉県印西市竹袋623-1,24時間営業,,
452,すき家,小山西城南店,36.293184626233,139.806890693847,323-0820,栃木県小山市西城南4-19-7,24時間営業,,
453,すき家,龍野店,34.8575558116544,134.550514726028,679-4167,兵庫県たつの市龍野町富永383-1,24時間営業,,
454,すき家,鹿沼栄町店,36.5527432474049,139.774789741305,322-0028,栃木県鹿沼市栄町1-35-9,24時間営業,,
455,すき家,125号阿見店,36.040587589713,140.210882385087,300-0337,茨城県稲敷郡阿見町中郷2-29-16,24時間営業,,
456,すき家,大田原美原店,36.8611669703679,140.015934956948,324-0047,栃木県大田原市美原1-1-6,10:00~24:00,,
457,すき家,東海大池公園店,35.0287030368956,136.902725385183,476-0014,愛知県東海市富貴ノ台6-129,24時間営業,,
458,すき家,258号大垣IC店,35.3250988907833,136.619715518608,503-0935,岐阜県大垣市島里2-21-6,24時間営業,,
459,すき家,432号竹原店,34.3496269331595,132.903871255636,725-0012,広島県竹原市下野町小井手3256-1,24時間営業,,
460,すき家,水戸笠原店,36.3376867849777,140.44152677205,310-0852,茨城県水戸市笠原町976-21,24時間営業,,
461,すき家,釜利谷店,35.3478383865268,139.608482923774,236-0042,神奈川県横浜市金沢区釜利谷東4-53-11,24時間営業,,
462,すき家,124号鹿嶋店,35.9369339831164,140.641902751037,314-0023,茨城県鹿嶋市谷原1383-2,24時間営業,,
463,すき家,福井春江店,36.1264111959227,136.21976933595,919-0416,福井県坂井市春江町江留下宇和江48,24時間営業,,
464,すき家,出雲市駅南店,35.3601868648068,132.758813158469,693-0008,島根県出雲市駅南町2-5-1,24時間営業,,
465,すき家,312号峰山店,35.6089158037703,135.079900330016,627-0005,京都府京丹後市峰山町新町1527-4,24時間営業,,
466,すき家,亀山ハイウェイオアシス店,34.867786993249,136.414206976965,519-0166,三重県亀山市布気町字高塚793-1(東名阪自動車道亀山HW内),24時間営業,,
467,すき家,亀田店,37.8703673078958,139.090652274886,950-0156,新潟県新潟市江南区早苗2-248-1,24時間営業,,
468,すき家,富士見鶴瀬店,35.8536188547718,139.53597676691,354-0034,埼玉県富士見市上沢1-18-60,24時間営業,,
469,すき家,長野SBC通り店,36.6707233947321,138.199778723049,380-0802,長野県長野市上松1-16-41,月～木  0:00～24:00　金 0:00～翌5:00,土 10:00～翌5:00　日 10:00～24:00,
470,すき家,蒲生四丁目店,34.7000591836356,135.544334997919,536-0016,大阪府大阪市城東区蒲生4-21-8,24時間営業,,
471,すき家,259号田原店,34.6722083604827,137.298602534477,441-3412,愛知県田原市谷熊町備後42-1,24時間営業,,
472,すき家,51号潮来店,35.956336725896,140.583781406751,311-2410,茨城県潮来市延方西1462-3,24時間営業,,
473,すき家,山形城西店,38.2606184666206,140.322172028491,990-0832,山形県山形市城西町4-19-19,24時間営業,,
474,すき家,岡崎緑丘店,34.916566233289,137.178284608219,444-0806,愛知県岡崎市緑丘2-15-21,24時間営業,,
475,すき家,18号千曲店,36.5384175893158,138.122730936272,387-0006,長野県千曲市大字粟佐1379-1,24時間営業,,
476,すき家,13号新庄店,38.7476667242039,140.310551399919,996-0041,山形県新庄市大字鳥越496-16,24時間営業,,
477,すき家,6号相馬店,37.8091700865085,140.926437910266,976-0013,福島県相馬市小泉字根岸784-1,24時間営業,,
478,すき家,354号土浦南店,36.062576112798,140.181461871489,300-0817,茨城県土浦市大字永国848-9,24時間営業,,
479,すき家,浜北美薗店,34.8092191852214,137.803135435685,434-0033,静岡県浜松市浜北区西美薗2519-2,24時間営業,,
480,すき家,129号平塚四之宮店,35.3541552541005,139.356514391994,254-0018,神奈川県平塚市東真土2-5-53,24時間営業,,
481,すき家,江南大間店,35.3329622965328,136.862845242599,483-8251,愛知県江南市大間町新町159-1,24時間営業,,
482,すき家,296号佐倉井野店,35.7174021726144,140.132215188852,285-0855,千葉県佐倉市井野1572-2,24時間営業,,
483,すき家,四街道鹿放ヶ丘店,35.6687689672804,140.143890625286,284-0008,千葉県四街道市鹿放ヶ丘459-1,24時間営業,,
484,すき家,松原阿保店,34.5841110153552,135.55940103018,580-0043,大阪府松原市阿保6-871-1,24時間営業,,
485,すき家,伊勢崎フォリオ店,36.3384830851447,139.185009143587,372-0007,群馬県伊勢崎市安堀町1858-3,24時間営業,,
486,すき家,新潟東大通店,37.9148742279723,139.059642523041,950-0087,新潟県新潟市中央区東大通2-1-21,24時間営業,,
487,すき家,431号米子日吉津店,35.4444013004219,133.385311417223,689-3553,鳥取県西伯郡日吉津村大字日吉津1305-1,24時間営業,,
488,すき家,桐生相生店,36.4142203680943,139.302401184607,376-0011,群馬県桐生市相生町2-489-1,24時間営業,,
489,すき家,419号高浜店,34.937784117029,136.996223751194,444-1332,愛知県高浜市湯山町2-5-1,24時間営業,,
490,すき家,新下関店,34.0141290343883,130.953851429378,751-0885,山口県下関市形山みどり町15-10,24時間営業,,
491,すき家,尾西篭屋店,35.310539971049,136.767339206764,494-0002,愛知県一宮市篭屋1-2-22,24時間営業,,
492,すき家,南大井店,35.5919061385019,139.73391432384,140-0013,東京都品川区南大井3-7-20,24時間営業,,
493,すき家,佐野大橋店,36.3106968775302,139.565931287813,327-0003,栃木県佐野市大橋町3239-1,24時間営業,,
494,すき家,116号吉田店,37.6980471550843,138.885452806854,959-0264,新潟県燕市吉田字流間3716-3,24時間営業,,
495,すき家,黒磯住吉店,36.9643701464022,140.050490946045,325-0062,栃木県那須塩原市住吉町77-12,24時間営業,,
496,すき家,弘前青山店,40.6274291479375,140.478222306944,036-8062,青森県弘前市大字青山5-28-1,24時間営業,,
497,すき家,敦賀木崎店,35.6432171013095,136.048043902664,914-0814,福井県敦賀市木崎19号白丸14-1,24時間営業,,
498,すき家,128号鴨川店,35.1104947479154,140.109575292966,296-0044,千葉県鴨川市広場字汐入765-1,24時間営業,,
499,すき家,加古川平岡町店,34.7449399794528,134.862850639073,675-0101,兵庫県加古川市平岡町新在家418-2,24時間営業,,
500,すき家,136号三島店,35.0878798936149,138.929855975592,411-0815,静岡県三島市安久146-3,24時間営業,,
501,すき家,新高円寺東店,35.6976675157443,139.649349532457,166-0011,東京都杉並区梅里1-7-17,24時間営業,,
502,すき家,一宮中島通店,35.3187501047447,136.809365060727,491-0072,愛知県一宮市中島通1-32-2,24時間営業,,
503,すき家,城山向原店,35.5891294804142,139.303932105773,252-0104,神奈川県相模原市緑区向原3-1-4,24時間営業,,
504,すき家,荻窪三丁目店,35.7029860114807,139.627603871293,167-0051,東京都杉並区荻窪3-47-23,24時間営業,,
505,すき家,八街文違店,35.6837797551205,140.312717857584,289-1104,千葉県八街市文違301-814,24時間営業,,
506,すき家,北本荒井店,36.019502151135,139.515965512663,364-0026,埼玉県北本市荒井2-413-1,24時間営業,,
507,すき家,藤岡IC店,36.2585248988482,139.069567690488,375-0015,群馬県藤岡市中栗須14-6,24時間営業,,
509,すき家,147号大町店,36.4934011586641,137.860585891152,398-0002,長野県大町市大字大町6759,月～火 10:00～24:00　水～土 10:00～翌5:00,日 10:00～24:00,
510,すき家,10号大分大学前店,33.1823009686843,131.61637721019,870-1121,大分県大分市大字鴛野1373-1,24時間営業,,
511,すき家,6号北茨城店,36.8095666415274,140.762520329738,319-1714,茨城県北茨城市関南町神岡上字二ツ島26-2,24時間営業,,
512,すき家,浜松西IC店,34.7594752567674,137.687097363088,431-1103,静岡県浜松市西区湖東町字東名南5926-2,10:00～翌1:00,,
513,すき家,41号大沢野店,36.6011439906822,137.203526053724,939-2252,富山県富山市上大久保1052-1,24時間営業,,
514,すき家,氷上町店,35.1542441494926,135.047610058956,669-3466,兵庫県丹波市氷上町稲継68-6,24時間営業,,
515,すき家,301号湖西店,34.7171723959596,137.53462252945,431-0442,静岡県湖西市古見字高田984-7,24時間営業,,
517,すき家,市原松ヶ島店,35.508862440278,140.063255240712,290-0035,千葉県市原市松ヶ島2-18-1,9:00～24:00,,
518,すき家,栗東大宝店,35.04014546477,135.966792586666,520-3035,滋賀県栗東市霊仙寺3-8-32,24時間営業,,
519,すき家,北上常盤台店,39.298828813269,141.117616772428,024-0012,岩手県北上市常盤台2-5-133,24時間営業,,
520,すき家,袋井川井店,34.7476410747222,137.91590223931,437-0064,静岡県袋井市川井45,24時間営業,,
521,すき家,伊勢原桜台店,35.3966186894978,139.320229616776,259-1132,神奈川県伊勢原市桜台2-13-14,24時間営業,,
522,すき家,駒ヶ根店,35.7413850348292,137.930305839982,399-4116,長野県駒ヶ根市上穂北64,24時間営業,,
523,すき家,黒石泉町店,40.6455949056785,140.601034882108,036-0374,青森県黒石市大字泉町91,24時間営業,,
524,すき家,180号総社店,34.6796653474324,133.768587855622,719-1125,岡山県総社市井手字天原下956-1,24時間営業,,
525,すき家,136号大仁店,35.0062027284741,138.941862906062,410-2325,静岡県伊豆の国市神島47-2,24時間営業,,
526,すき家,野洲市三宅店,35.0672559449778,136.017170210056,520-2362,滋賀県野洲市市三宅字七ノ井2424,24時間営業,,
527,すき家,箕輪BP店,35.9015828707569,137.99224443056,399-4601,長野県上伊那郡箕輪町中箕輪11338-1,24時間営業,,
528,すき家,環八羽田店,35.5512323968068,139.74772005018,144-0043,東京都大田区羽田4-3-3,24時間営業,,
529,すき家,豊栄北陽店,37.9412485914613,139.184705088921,950-3309,新潟県新潟市北区北陽1-2480-5,24時間営業,,
530,すき家,169号天理店,34.5894905623725,135.836755526208,632-0033,奈良県天理市勾田町82-1,24時間営業,,
531,すき家,大泉中央店,36.2546297347034,139.41798365644,370-0516,群馬県邑楽郡大泉町中央1-7-20,24時間営業,,
532,すき家,下羽生店,36.1655887248028,139.546451809547,348-0026,埼玉県羽生市大字下羽生字岸町921-2,24時間営業,,
533,すき家,小千谷店,37.3192355813943,138.797513664272,947-0053,新潟県小千谷市千谷川4-10-3,24時間営業,,
534,すき家,157号大野店,35.9937361009937,136.499189739596,912-0015,福井県大野市中挾2字足リ原8-19,24時間営業,,
535,すき家,上尾平塚店,35.9887986816282,139.606406637626,362-0011,埼玉県上尾市大字平塚1696-1,24時間営業,,
536,すき家,416号福井開発店,36.0846031874723,136.236802068742,910-0842,福井県福井市開発4-309,24時間営業,,
537,すき家,鶴里駅南店,35.1026541727272,136.943507759701,457-0021,愛知県名古屋市南区鶴里町1-61,24時間営業,,
538,すき家,秦野室川橋店,35.3673387728411,139.241122534792,257-0031,神奈川県秦野市曽屋5788-5,24時間営業,,
539,すき家,403号加茂店,37.6619180078797,139.046996332218,959-1314,新潟県加茂市番田5-20,24時間営業,,
540,すき家,泉南中小路店,34.3773793046363,135.27693150834,590-0533,大阪府泉南市中小路2-383,10:00～24:00,,
541,すき家,389号大牟田店,33.0329614334748,130.442261040517,836-0047,福岡県大牟田市大正町3-4-3,24時間営業,,
542,すき家,厚木長谷店,35.4310893224912,139.329007578291,243-0036,神奈川県厚木市長谷篭堰642-3,24時間営業,,
543,すき家,431号境港店,35.5070912072516,133.254970466366,684-0054,鳥取県境港市財ノ木町字中灘236-4,24時間営業,,
544,すき家,長岡宮内店,37.4236086238051,138.847486096957,940-1155,新潟県長岡市宮内町字山伏3350-1,24時間営業,,
545,すき家,さいたま宿店,35.8751231955163,139.598110338791,338-0814,埼玉県さいたま市桜区宿135-1,24時間営業,,
546,すき家,秋田泉店,39.731699224549,140.102402541663,010-0917,秋田県秋田市泉中央1-3-11,24時間営業,,
547,すき家,新大阪西宮原店,34.7338166410955,135.494168998628,532-0004,大阪府大阪市淀川区西宮原1-8-41　新大阪南愛ビル1階,24時間営業,,
548,すき家,八幡店,35.1209593622699,136.096384769602,614-8071,京都府八幡市八幡五反田39-4,24時間営業,,
549,すき家,34号鳥栖店,33.3828929536984,130.50932019144,841-0081,佐賀県鳥栖市萱方町177-1,24時間営業,,
550,すき家,南草津店,35.0024400881793,135.952885755604,525-0059,滋賀県草津市野路6-8-22,24時間営業,,
551,すき家,大府長草店,35.0194571265487,136.953018300813,474-0053,愛知県大府市柊山町3-389,24時間営業,,
552,すき家,おもちゃのまち店,36.4621464475097,139.832601334015,321-0216,栃木県下都賀郡壬生町大字壬生丁210-3,24時間営業,,
553,すき家,山口大内店,34.1578302938738,131.492436750047,753-0214,山口県山口市大字大内御堀1443-4,24時間営業,,
554,すき家,161号大津真野店,35.1359897357552,135.923555930781,520-0232,滋賀県大津市真野5-36-10,月～木 0:00～24:00　金～日 9:00～24:00,,
555,すき家,一関山目店,38.9369234165247,141.121068428116,021-0062,岩手県一関市山目字寺前46-1,24時間営業,,
556,すき家,18号小諸店,36.3365948771029,138.417289377852,384-0043,長野県小諸市諸1-5-11,24時間営業,,
557,すき家,宗像赤間店,33.8092380604693,130.565808090588,811-4185,福岡県宗像市赤間駅前2-2-19,24時間営業,,
558,すき家,可児下恵土店,35.4174715035271,137.048686750589,509-0203,岐阜県可児市下恵土字広瀬5890-1-1,24時間営業,,
559,すき家,三木志染店,34.7789925700222,135.0129449392,673-0541,兵庫県三木市志染町広野1-263-1,24時間営業,,
560,すき家,292号中野店,36.7585232282724,138.378029043292,383-0012,長野県中野市大字一本木319-3,24時間営業,,
561,すき家,429号倉敷玉島店,34.5473574011737,133.680283226037,713-8102,岡山県倉敷市玉島1-9-9,24時間営業,,
562,すき家,沼津原町中店,35.1315229915872,138.801963753969,410-0311,静岡県沼津市原町中3-13-10,24時間営業,,
563,すき家,流山江戸川台店,35.8990206762264,139.902368692232,270-0103,千葉県流山市美原2-137-1,24時間営業,,
564,すき家,塩山熊野店,35.6919616709581,138.723202266438,404-0036,山梨県甲州市塩山熊野58-1,24時間営業,,
565,すき家,神戸鹿の子台店,34.8651462860572,135.212554672472,651-1513,兵庫県神戸市北区鹿の子台北町8-4-2,24時間営業,,
566,すき家,143号上田原店,36.3897920453179,138.215159270573,386-1102,長野県上田市大字上田原437-12,24時間営業,,
567,すき家,玉造駅前店,34.6747439036623,135.532316328412,540-0004,大阪府大阪市中央区玉造1-5-8　大倉ビル,24時間営業,,
568,すき家,161号大津下阪本店,35.0601076181297,135.878352623444,520-0105,滋賀県大津市下阪本3-6-28,24時間営業,,
569,すき家,西脇野村店,34.9765186442408,134.964063792191,677-0054,兵庫県西脇市野村町1795-192,月 9:00～24:00　火～金 0:00～24:00　,土 0:00～22:00　日 9:00～22:00,
570,すき家,郡山鳴神店,37.3918035341032,140.33328083424,963-0207,福島県郡山市鳴神3-238,24時間営業,,
571,すき家,静岡池田店,34.9770009850846,138.424697478604,422-8005,静岡県静岡市駿河区池田863,月～金 8:30～24:00 ,土日 9:00～24:00,
572,すき家,千葉犢橋店,35.6722497582292,140.099167790308,262-0013,千葉県千葉市花見川区犢橋町1510,24時間営業,,
574,すき家,北新宿一丁目店,35.7018345099561,139.693617886356,169-0074,東京都新宿区北新宿1-12-12　サンエスビル1F,24時間営業,,
575,すき家,112号寒河江店,38.3687132818354,140.289691970738,991-0013,山形県寒河江市高田129-1,24時間営業,,
576,すき家,岡山福田店,34.6199523055873,133.928511212613,702-8021,岡山県岡山市南区福田229-1,24時間営業,,
577,すき家,木曽川店,35.3520284303854,136.774162840769,493-0001,愛知県一宮市木曽川町黒田字中沼北ノ切5-2,24時間営業,,
578,すき家,208号柳川店,33.1768920916031,130.407131219367,832-0806,福岡県柳川市三橋町柳河827-4,24時間営業,,
579,すき家,十日町店,37.1382668447434,138.747651416086,948-0000,新潟県十日町市丑601-1,24時間営業,,
580,すき家,海老名上河内店,35.4216572495462,139.391115632368,243-0415,神奈川県海老名市上河内297-3,24時間営業,,
581,すき家,河原町三条店,35.0094011265008,135.768706286564,604-8005,京都府京都市中京区河原町三条上ル恵比須町432,24時間営業,,
582,すき家,藤枝田沼店,34.8435379558855,138.260960555679,426-0061,静岡県藤枝市田沼4-7-10,10:00～24:00,,
584,すき家,新津ウオロク前店,37.8053019189021,139.115232396246,956-0865,新潟県新潟市秋葉区善道555,24時間営業,,
585,すき家,水戸末広町店,36.3904094193203,140.454009141028,310-0053,茨城県水戸市末広町2-3-7,24時間営業,,
586,すき家,三沢緑町店,40.685999419849,141.377232170243,033-0032,青森県三沢市緑町3-8-15,24時間営業,,
587,すき家,三国本町店,34.7333201491478,135.485228652866,532-0005,大阪府大阪市淀川区三国本町2-13-14,24時間営業,,
588,すき家,天童東芳賀店,38.3411259475824,140.368791394132,994-0061,山形県天童市東芳賀3-2-15,24時間営業,,
589,すき家,寒川宮山店,35.3856298194569,139.381240333671,253-0106,神奈川県高座郡寒川町宮山3460-1,24時間営業,,
590,すき家,42号海南店,34.159058232799,135.198611399063,642-0001,和歌山県海南市船尾264-1,24時間営業,,
591,すき家,139号都留桂店,35.535847071795,138.871571299761,402-0034,山梨県都留市桂町876-1,24時間営業,,
592,すき家,365号四日市野田店,34.9844831653389,136.607494162272,510-0815,三重県四日市市野田2-2-34,月 0:00～24:00 火～木 10:00～24:00 金 9:00～24:00,土日 0:00～24:00,
593,すき家,135号伊東吉田店,34.9345168504615,139.120544423181,414-0051,静岡県伊東市吉田346-1,24時間営業,,
594,すき家,ジョイフル本田新田店,36.3039368782223,139.301938245694,370-0314,群馬県太田市新田市野井町592-13　新田ショッピングセンターニコ・モール,9:00～19:30,,
595,すき家,大和高田神楽店,34.5283926923529,135.743592465562,635-0025,奈良県大和高田市大字神楽280-2,10:00～22:00,,
596,すき家,19号中津川IC店,35.4754428316966,137.479709951779,509-9131,岐阜県中津川市千旦林204-2,24時間営業,,
597,すき家,津山小田中店,35.0638295831833,133.993998112658,708-0006,岡山県津山市小田中1301-1,24時間営業,,
598,すき家,18号安中原市店,36.3183608984074,138.872990427464,379-0133,群馬県安中市原市612-3,24時間営業,,
600,すき家,1国大津瀬田店,34.9832821579103,135.922258903518,520-2141,滋賀県大津市大江4-5-6,24時間営業,,
601,すき家,190号宇部西割店,33.9768207971856,131.207980375456,759-0204,山口県宇部市大字妻崎開作871-2,24時間営業,,
602,すき家,本厚木一番街店,35.4423462481855,139.365060176922,243-0018,神奈川県厚木市中町2-12-1,24時間営業,,
603,すき家,伊賀上野店,34.7748600224582,136.12991181085,518-0828,三重県伊賀市平野中川原484-1,24時間営業,,
604,すき家,伊勢上地店,34.5020589835649,136.658131337632,516-0051,三重県伊勢市上地町3112-3,24時間営業,,
605,すき家,松阪光町店,34.5505935714146,136.51826544073,515-0051,三重県松阪市光町868,24時間営業,,
606,すき家,21号大垣中野店,35.3787288376903,136.611120429605,503-0022,岐阜県大垣市中野町78-2,24時間営業,,
607,すき家,君津東坂田店,35.3365912289954,139.893174520513,299-1144,千葉県君津市東坂田2-3-13,24時間営業,,
608,すき家,421号八日市店,35.1054099729919,136.211062072866,527-0033,滋賀県東近江市東沖野1-4-3,24時間営業,,
609,すき家,北新横浜店,35.5168898343058,139.61335973449,223-0059,神奈川県横浜市港北区北新横浜1-4-8,24時間営業,,
610,すき家,四日市泊店,34.9416806761603,136.60045727315,510-0884,三重県四日市市泊町2-34,24時間営業,,
611,すき家,293号田沼店,36.370655182021,139.581573338982,327-0317,栃木県佐野市田沼町字稲荷久保1341-1,24時間営業,,
612,すき家,会津門田店,37.4803309830839,139.902389765173,965-0846,福島県会津若松市門田町飯寺字村西882-2,24時間営業,,
613,すき家,倉敷下庄店,34.638610973041,133.823354642155,701-0112,岡山県倉敷市下庄619-5,24時間営業,,
614,すき家,加西北条店,34.9285884863504,134.836455485862,675-2311,兵庫県加西市北条町横尾294-1,24時間営業,,
615,すき家,5号小樽朝里店,43.1754356268327,141.057956277596,047-0152,北海道小樽市新光2-1-4,24時間営業,,
616,すき家,175号小野黒川店,34.8544881192855,134.950090016253,675-1371,兵庫県小野市黒川町1375,24時間営業,,
617,すき家,472号射水店,36.7177438346995,137.081650806309,939-0331,富山県射水市下条新1482-1,24時間営業,,
618,すき家,福山多治米店,34.4638599163501,133.37659284759,720-0824,広島県福山市多治米町5-28-13,24時間営業,,
619,すき家,1国草津大路店,35.0189761127045,135.969673044449,525-0032,滋賀県草津市大路3-138,9:00～24:00,,
620,すき家,静岡下川原店,34.9355333721808,138.371043288429,421-0113,静岡県静岡市駿河区下川原3-34-7,10:00～24:00,,
621,すき家,日野南平店,35.6584920488585,139.398633269229,191-0041,東京都日野市南平4-40-1,24時間営業,,
622,すき家,広島温品店,34.4119802774093,132.507082170774,732-0033,広島県広島市東区温品5-9-3,9:00～22:00,,
623,すき家,24号高野口名古曽店,34.3028866366076,135.558585714026,649-7203,和歌山県橋本市高野口町名古曽字丹生下948-1,24時間営業,,
624,すき家,坂戸にっさい店,35.9688658442913,139.369619720407,350-0269,埼玉県坂戸市にっさい花みず木3-19-3,24時間営業,,
625,すき家,豊橋運動公園前店,34.757992454848,137.422191931522,440-0034,愛知県豊橋市豊岡町143-1,24時間営業,,
626,すき家,36号清田里塚店,42.9839750547842,141.458977344853,004-0801,北海道札幌市清田区里塚一条3-2-10,24時間営業,,
627,すき家,加古川東神吉店,34.7870155621283,134.81990032417,675-0055,兵庫県加古川市東神吉町西井ノ口284-1,24時間営業,,
628,すき家,263号佐賀大和IC店,33.3017798442648,130.279887980572,840-0201,佐賀県佐賀市大和町尼寺3386-1,24時間営業,,
629,すき家,守山森宮店,35.2085696394138,136.966784560632,463-0096,愛知県名古屋市守山区森宮町219,月～金 7:00～22:00,土日 10:00～22:00,
631,すき家,17号六日町IC東店,37.0811650802702,138.885375107609,949-6608,新潟県南魚沼市美佐島字野田道516-4,24時間営業,,
632,すき家,荏原町駅前店,35.6035036183306,139.708360078737,142-0053,東京都品川区中延5-3-10,24時間営業,,
633,すき家,岡山西大寺店,34.6575995157759,134.015229499429,704-8174,岡山県岡山市東区松新町3-1,24時間営業,,
634,すき家,359号婦中店,36.6640523416464,137.176282364007,939-2716,富山県富山市婦中町下轡田444-1,24時間営業,,
635,すき家,菰野ミルクロード店,35.0075615476394,136.528979342394,510-1232,三重県三重郡菰野町大字宿野297-3,24時間営業,,
636,すき家,鶴岡西新斎店,38.7353887832428,139.812554990095,997-0045,山形県鶴岡市西新斎町7-9,24時間営業,,
637,すき家,福井御幸店,36.0536368211461,136.239304675692,910-0854,福井県福井市御幸4-10-28,24時間営業,,
638,すき家,西永福店,35.6789353992991,139.636115938492,168-0064,東京都杉並区永福3-56-30,24時間営業,,
639,すき家,和歌山榎原店,34.2563421119046,135.125852406469,640-8434,和歌山県和歌山市榎原字西塩田215-1,24時間営業,,
640,すき家,各務原蘇原店,35.4124860080711,136.846669035321,504-0831,岐阜県各務原市蘇原瑞穂町2-62-1,月～木 9:30～23:00 金 9:30～24:00,土 0:00～24:00,日 9:00～23:00
641,すき家,岡谷若宮店,36.0627335282417,138.062523951223,394-0032,長野県岡谷市若宮2丁目5-2,月～木 10:00～24:00,金～日 10:00～翌3:00,
642,すき家,富士柚木店,35.157616277884,138.640998142728,416-0908,静岡県富士市柚木310-1,24時間営業,,
643,すき家,環七西新井店,35.7779089388805,139.776903855441,123-0845,東京都足立区西新井本町2-2-25,24時間営業,,
644,すき家,国分野口店,31.7380751334215,130.755752963934,899-4341,鹿児島県霧島市国分野口東6-16,24時間営業,,
645,すき家,豊田美里店,35.0786194888567,137.180192821052,471-0805,愛知県豊田市美里4-9-7,24時間営業,,
646,すき家,笠懸阿左美店,36.3790326771773,139.29863839516,379-2311,群馬県みどり市笠懸町阿左美630-2,24時間営業,,
647,すき家,熊本秋津店,32.7778285045388,130.779633658958,861-2102,熊本県熊本市東区沼山津3-1-11,24時間営業,,
648,すき家,富田林川面店,34.516859741521,135.615355313263,584-0014,大阪府富田林市川面町2-4-16,24時間営業,,
649,すき家,成田江弁須店,35.770184980406,140.29812036899,286-0047,千葉県成田市江弁須490-16,24時間営業,,
650,すき家,299号入間野田店,35.8454869670495,139.346304282374,358-0054,埼玉県入間市野田1571-2,24時間営業,,
651,すき家,38号釧路鳥取店,43.0118254906449,144.357933084565,084-0906,北海道釧路市鳥取大通3-4-12,24時間営業,,
652,すき家,1国亀山店,34.8696117499586,136.490966073723,519-0101,三重県亀山市井田川町51-1,24時間営業,,
653,すき家,11号徳島川内店,34.1101378885378,134.577188593619,771-0136,徳島県徳島市川内町平石古田36-2,24時間営業,,
655,すき家,10号姶良宮島店,31.7307039785864,130.628599141139,899-5431,鹿児島県姶良市西餠田522-2,24時間営業,,
656,すき家,春日部増田新田店,35.9470604114991,139.752009800661,344-0025,埼玉県春日部市大字増田新田字西93-1,24時間営業,,
657,すき家,栃木駅北店,36.3734838749598,139.730801093278,328-0043,栃木県栃木市境町10-4,24時間営業,,
658,すき家,155号稲沢一色店,35.2377746141359,136.746605390407,492-8365,愛知県稲沢市一色下方町285-3,10:00～24:00,,
659,すき家,千本中立売店,35.0249098391199,135.742263046303,602-8284,京都府京都市上京区千本通中立売下ル亀屋町50,24時間営業,,
660,すき家,1国清水渋川店,35.0175138494453,138.470998434533,424-0053,静岡県静岡市清水区渋川477-4,24時間営業,,
661,すき家,八王子平岡店,35.6637410268433,139.324556957279,192-0061,東京都八王子市平岡町25-2,24時間営業,,
662,すき家,27号小浜店,35.482376788593,135.776764671664,917-0241,福井県小浜市遠敷24-26-1,24時間営業,,
663,すき家,45号東松島矢本店,38.4312569784454,141.250069054581,981-0501,宮城県東松島市赤井字八反谷地80-7,24時間営業,,
664,すき家,有松桶狭間店,35.0518521687101,136.962969593792,458-0919,愛知県名古屋市緑区桶狭間神明3816,月～金 6:00～23:00,土日 10:00～23:00,
665,すき家,イオン千葉NT店,35.8019991672666,140.112424603693,270-1350,千葉県印西市中央北3-2,10:00～22:00,,
666,すき家,上尾平方店,35.9513891910586,139.565522588928,362-0055,埼玉県上尾市平方領領家三ッ塚4-1,24時間営業,,
667,すき家,西尾永吉店,34.8600253021566,137.049096829562,445-0871,愛知県西尾市永吉町3-74,10:00～22:00,,
668,すき家,197号大分庄境店,33.2439732068138,131.708687259674,870-0241,大分県大分市庄境4-15,24時間営業,,
669,すき家,118号常陸大宮泉店,36.5331544343781,140.422511572818,319-2144,茨城県常陸大宮市泉字中村田462-6,24時間営業,,
670,すき家,八代新地町店,32.5067439024724,130.58958331392,866-0016,熊本県八代市新地町10-2,24時間営業,,
671,すき家,枚方招提北店,34.8454316253086,135.683752281068,573-1138,大阪府枚方市招提北町1-2241-1,24時間営業,,
672,すき家,宮前平店,35.5834544675846,139.586501122211,216-0035,神奈川県川崎市宮前区馬絹1-5-5　ソアールシーノ1F,24時間営業,,
673,すき家,久喜栗原店,36.0738076818652,139.703958232778,346-0012,埼玉県久喜市栗原2-2-5,24時間営業,,
674,すき家,安城緑町店,34.9717069875255,137.050230481724,446-0055,愛知県安城市緑町1-17-8,10:00～23:00,,
675,すき家,大森北三丁目店,35.5843427271793,139.730843260493,143-0016,東京都大田区大森北3-1-13,24時間営業,,
676,すき家,足利南大町店,36.3192688923036,139.415712813053,326-0836,栃木県足利市南大町321-2,24時間営業,,
677,すき家,四日市芝田店,34.9682435559283,136.609926096972,510-0822,三重県四日市市芝田1-5-5,24時間営業,,
678,すき家,春日白水店,33.5170749610852,130.444031379416,816-0844,福岡県春日市大字上白水246-1,24時間営業,,
679,すき家,奈良七条店,34.6625394090437,135.788666989588,630-8051,奈良県奈良市七条町164-1,24時間営業,,
680,すき家,綱島樽町店,35.5314253551034,139.63676684346,222-0001,神奈川県横浜市港北区樽町2-1-34,24時間営業,,
681,すき家,8号高岡北島店,36.7412973813457,136.983648971819,933-0838,富山県高岡市北島婦計459-2,24時間営業,,
682,すき家,2国明石魚住店,34.6918220131012,134.924356310326,674-0071,兵庫県明石市魚住町金ヶ崎324-1,24時間営業,,
683,すき家,仙台水の森店,38.2965170085204,140.856087700935,981-0962,宮城県仙台市青葉区水の森3-31-1,24時間営業,,
684,すき家,大垣上面店,35.3601761098984,136.643499428184,503-0817,岐阜県大垣市上面4-1-1,24時間営業,,
685,すき家,第一京浜鮫洲店,35.6046079654415,139.741355620969,140-0011,東京都品川区東大井4-7-11,24時間営業,,
686,すき家,関雄飛ヶ丘店,35.4846461464153,136.898891931073,501-3254,岐阜県関市雄飛ヶ丘39-1,24時間営業,,
687,すき家,前橋下小出店,36.4069129067047,139.069032013301,371-0031,群馬県前橋市下小出町1-8-13,24時間営業,,
688,すき家,ビアレ横浜並木店,35.3619707711358,139.6407079301,236-0005,神奈川県横浜市金沢区並木2-13-7,24時間営業,,
689,すき家,京成津田沼駅北店,35.6851665150928,140.024399793837,275-0016,千葉県習志野市津田沼3-9-3,24時間営業,,
690,すき家,鹿屋寿店,31.3874739669767,130.879776863461,893-0014,鹿児島県鹿屋市寿8-20-7,24時間営業,,
691,すき家,行徳駅前店,35.6836430906086,139.914436496338,272-0133,千葉県市川市行徳駅前1-22-11,24時間営業,,
692,すき家,南アルプス桃園店,35.6196371271106,138.465466723673,400-0301,山梨県南アルプス市桃園1695,24時間営業,,
693,すき家,上池台三丁目店,35.5942230692375,139.699609010622,145-0064,東京都大田区上池台3-13-3,24時間営業,,
694,すき家,171号向日店,34.9397715413577,135.715941652612,617-0004,京都府向日市鶏冠井町清水7-1,24時間営業,,
695,すき家,函館漁火通店,41.7756592098208,140.770168799904,042-0934,北海道函館市広野町3-3,24時間営業,,
696,すき家,南陽警察署西店,38.0441068319814,140.159100818842,999-2221,山形県南陽市椚塚字山崎1684-1,24時間営業,,
697,すき家,北千住西口店,35.7509977821416,139.800334537604,120-0034,東京都足立区千住3-1-10,24時間営業,,
698,すき家,430号倉敷水島店,34.5232402970706,133.762003105345,712-8044,岡山県倉敷市東塚1-16-29,24時間営業,,
699,すき家,三島徳倉店,35.1460183196584,138.90950748843,411-0044,静岡県三島市徳倉910-2,10:00～22:00,,
700,すき家,桑名大仲新田店,35.0824049966106,136.612236203912,511-0947,三重県桑名市大仲新田字屋敷319-119,月～木 10:00～23:00,金～日 10:00～21:00,
701,すき家,イオンモール利府店,38.3269385569119,140.971991118892,981-0112,宮城県宮城郡利府町利府字新屋田前22,9:00～21:00,,
702,すき家,魚津本江店,36.8187818344257,137.410909087014,937-0805,富山県魚津市本江字雲雀作2555-1,24時間営業,,
703,すき家,岐阜正木店,35.4510364395469,136.741670980192,502-0857,岐阜県岐阜市正木南2-1-38,24時間営業,,
704,すき家,新座道場店,35.7691683136188,139.560363074767,352-0024,埼玉県新座市道場2-18-9　ラークアベニュータガイ1F,24時間営業,,
705,すき家,2国福山南本庄店,34.4861026297728,133.350084024919,720-0077,広島県福山市南本庄2-7-4,24時間営業,,
706,すき家,寒川田端店,35.3518936818644,139.379877278088,253-0114,神奈川県高座郡寒川町田端1445-1,24時間営業,,
707,すき家,蔵前駅前店,35.7037554659242,139.791915189956,111-0051,東京都台東区蔵前2-6-6,24時間営業,,
708,すき家,17号上里店,36.2563202730867,139.157006363634,369-0305,埼玉県児玉郡上里町大字神保原町2211-2,10:00～翌4:00,,
709,すき家,焼津小川店,34.8500633670227,138.308553524875,425-0035,静岡県焼津市東小川8-11-12,24時間営業,,
710,すき家,大山店,35.7488989843581,139.697282081549,173-0023,東京都板橋区大山町24-10　常磐ビル1F,24時間営業,,
711,すき家,イオンモール盛岡南店,39.683670344688,141.12874118341,020-0866,岩手県盛岡市本宮稲荷10-1,9:00～21:00,,
712,すき家,17号本庄店,36.2456840085412,139.194410413694,367-0051,埼玉県本庄市本庄4-7-11,10:00～翌4:00,,
713,すき家,羽島竹鼻店,35.3275567000812,136.70018122283,501-6244,岐阜県羽島市竹鼻町丸の内4-70,24時間営業,,
714,すき家,酒田若竹店,38.902329161531,139.83869291008,998-0834,山形県酒田市若竹町2-1-15,24時間営業,,
715,すき家,京田辺興戸店,34.8135832286181,135.771351194795,610-0332,京都府京田辺市興戸犬伏32-1,24時間営業,,
716,すき家,伊勢崎除ヶ町店,36.2830183910452,139.196842381483,372-0832,群馬県伊勢崎市除ヶ町324-1,24時間営業,,
717,すき家,岐阜南鶉店,35.375838737775,136.730827287805,500-8285,岐阜県岐阜市南鶉5-18-1,24時間営業,,
718,すき家,石巻元倉店,38.4413169280581,141.308786214946,986-0811,宮城県石巻市元倉1-21-12,24時間営業,,
719,すき家,裾野二ツ屋店,35.1663849532918,138.905109138114,410-1128,静岡県裾野市二ツ屋155-1,24時間営業,,
720,すき家,城陽久世店,34.8595922887789,135.776642803431,610-0102,京都府城陽市久世南垣内172-1,24時間営業,,
721,すき家,アクロスプラザ湯河原店,35.1452180742689,139.113196720184,259-0301,神奈川県足柄下郡湯河原町中央一丁目1617-54,24時間営業,,
722,すき家,250号赤穂駅前店,34.7559752987983,134.392112558637,678-0239,兵庫県赤穂市加里屋69-11,24時間営業,,
723,すき家,新木場駅南店,35.6441926852811,139.824587996959,136-0082,東京都江東区新木場1-4-7,24時間営業,,
724,すき家,48号仙台折立店,38.266456646969,140.810342328673,982-0261,宮城県仙台市青葉区折立1-21-20,24時間営業,,
725,すき家,金沢大桑店,36.5357934323176,136.675971209189,921-8045,石川県金沢市大桑3-41,24時間営業,,
726,すき家,八千代高津店,35.7126486005596,140.089440071285,276-0037,千葉県八千代市高津東1-6-18,24時間営業,,
727,すき家,イオンモール札幌発寒店,43.0960693321164,141.277069790533,063-0828,北海道札幌市西区発寒8条12-1-1,9:00～21:00,,
728,すき家,7号新発田中曽根店,37.9615513623306,139.308633028609,957-0067,新潟県新発田市中曽根町3-10-12,24時間営業,,
729,すき家,101号男鹿店,39.9057016710641,139.924427921158,010-0341,秋田県男鹿市船越字内子294-1881,24時間営業,,
730,すき家,甲府昭和店,35.6163411987389,138.519356844359,409-3851,山梨県中巨摩郡昭和町河西1201,月～木 0:00～24:00 金 0:00～22:00,土 10:00～22:00,日 10:00～24:00
731,すき家,熊本四方寄店,32.8585239289893,130.709669087024,861-5515,熊本県熊本市北区四方寄町508-6,24時間営業,,
732,すき家,静岡国吉田店,34.9929388296816,138.430701523866,422-8004,静岡県静岡市駿河区国吉田4-2-20,月～木 10:00～22:00　金 10:00～24:00,土 5:00～24:00　日 5:00～22:00,
733,すき家,府中本宿店,35.6772788752623,139.459207929042,183-0032,東京都府中市本宿町4-29-1,24時間営業,,
734,すき家,1国富士鮫島店,35.1410660943168,138.67226880781,416-0934,静岡県富士市鮫島360-1,月～木 10:00～24:00,金～日 10:00～翌5:00,
735,すき家,新居浜高木店,33.9534459956962,133.286687428166,792-0031,愛媛県新居浜市高木町2-11,24時間営業,,
736,すき家,川越木野目店,35.8930963261497,139.521633918039,350-0016,埼玉県川越市大字木野目1560-1,24時間営業,,
737,すき家,行田向町店,36.1387971276415,139.465886956273,361-0075,埼玉県行田市向町17-11,24時間営業,,
738,すき家,曙橋店,35.6936528105999,139.721159586895,162-0065,東京都新宿区住吉町8-25,24時間営業,,
739,すき家,イオンモール八千代緑が丘店,35.72764866282,140.073537923462,276-0049,千葉県八千代市緑が丘2-1-3,9:00～22:00,,
741,すき家,豊橋広小路店,34.7641555700133,137.383830666932,440-0881,愛知県豊橋市広小路1-37,24時間営業,,
742,すき家,松山問屋町店,33.8636256814616,132.750490816964,791-8018,愛媛県松山市問屋町4-17,24時間営業,,
743,すき家,新潟笹口店,37.9092649902606,139.068935342901,950-0912,新潟県新潟市中央区南笹口2-1-60,24時間営業,,
744,すき家,4号仙台泉ヶ丘店,38.3570460703767,140.870875630089,981-3201,宮城県仙台市泉区泉ヶ丘3-13-24,24時間営業,,
745,すき家,18号長野北尾張部店,36.6555240576004,138.240071354441,381-0014,長野県長野市大字北尾張部字鳥田257-1,24時間営業,,
746,すき家,128号東茂原店,35.4163036543893,140.313409283233,297-0032,千葉県茂原市東茂原1-41,24時間営業,,
747,すき家,熊本東ＢＰ店,32.8254548069228,130.764168028106,861-8019,熊本県熊本市東区下南部3-17-71,24時間営業,,
748,すき家,中野坂上店,35.6976710918223,139.679171222295,164-0011,東京都中野区中央2-30-2,24時間営業,,
749,すき家,東大阪高井田店,34.6785502406634,135.568556476764,577-0066,大阪府東大阪市高井田本通7-1-30,24時間営業,,
750,すき家,153号伊那店,35.8484520419239,137.969308504092,396-0021,長野県伊那市大字伊那282-1,月 10:00～24:00 火～木 0:00～24:00 金 0:00～22:00 ,土日 10:00～22:00 ,
751,すき家,38号帯広柏林台店,42.9290943519054,143.165932833049,080-0027,北海道帯広市西17条南1-25-1,24時間営業,,
752,すき家,福岡志免店,33.5827684408412,130.488923792838,811-2243,福岡県糟屋郡志免町志免東3-1-12,24時間営業,,
753,すき家,海老名河原口店,35.4486361759625,139.383538908205,243-0433,神奈川県海老名市河原口5-4-28,24時間営業,,
754,すき家,鈴蘭台鳴子店,34.721827896076,135.126841168025,651-1133,兵庫県神戸市北区鳴子2-1-4,月～金・0:00～24:00,土日祝・9:00～22:00,
755,すき家,駒岡店,35.5249999009622,139.65093485158,230-0071,神奈川県横浜市鶴見区駒岡1-27-4,24時間営業,,
756,すき家,125号八千代町店,36.1887977706058,139.888387621165,300-3572,茨城県結城郡八千代町大字菅谷604-1,24時間営業,,
757,すき家,7号大館店,40.2739945786509,140.533208459351,017-0864,秋田県大館市根下戸新町9-25,24時間営業,,
758,すき家,今治北日吉店,34.0600837470999,132.98400793288,794-0054,愛媛県今治市北日吉町3-5-53,24時間営業,,
759,すき家,高松中央IC店,34.3126679801615,134.073322780032,760-0080,香川県高松市木太町9区550-1,24時間営業,,
760,すき家,3号宇土店,32.6912994677083,130.670679191908,869-0411,熊本県宇土市水町68-1,24時間営業,,
761,すき家,192号徳島国府店,34.0710977538101,134.47353872154,779-3123,徳島県徳島市国府町観音寺字大溝122-1,24時間営業,,
762,すき家,24号岩出西野店,34.2592547056199,135.308079916302,649-6235,和歌山県岩出市西野121-2,24時間営業,,
763,すき家,港区南陽店,35.1126884495728,136.820427519358,455-0884,愛知県名古屋市港区七反野2-111,10:00～翌5:00,,
764,すき家,伏見石田店,34.9382773623933,135.801504337733,601-1436,京都府京都市伏見区石田西ノ坪1-9,24時間営業,,
765,すき家,菊川加茂店,34.7403792555605,138.085342390731,439-0031,静岡県菊川市加茂2659,24時間営業,,
766,すき家,大山東町店,35.7488935517902,139.704289833145,173-0014,東京都板橋区大山東町22-8,24時間営業,,
767,すき家,仙川店,35.6614919221559,139.584679069049,182-0002,東京都調布市仙川町1-11-13　大平ビル１Ｆ,24時間営業,,
768,すき家,ジョイフル本田瑞穂店,35.7607787282572,139.357797783943,190-1212,東京都西多摩郡瑞穂町殿ヶ谷442,9:00～20:00,,
769,すき家,松阪市場庄町店,34.6048652617498,136.517994630852,515-2121,三重県松阪市市場庄町1332,24時間営業,,
770,すき家,8号坂井丸岡店,36.1563504372093,136.264248985573,910-0265,福井県坂井市丸岡町朝陽2-102-1,24時間営業,,
771,すき家,新宿六丁目店,35.6958756655666,139.70738479519,160-0022,東京都新宿区新宿6-28-10,24時間営業,,
772,すき家,松江菅田店,35.4839820001205,133.063437159359,690-0824,島根県松江市菅田町24-1,24時間営業,,
773,すき家,26号高石店,34.5154310267472,135.441644805551,592-0012,大阪府高石市西取石7-11-1,24時間営業,,
774,すき家,430号倉敷児島店,34.4666644388496,133.811705471632,711-0912,岡山県倉敷市児島小川町3682-5,24時間営業,,
775,すき家,上福岡駅前店,35.8745886904925,139.511855582338,356-0004,埼玉県ふじみ野市上福岡1-8-2　森田ビル１Ｆ,24時間営業,,
776,すき家,イオン幕張店,35.6518118394867,140.045460136225,261-0021,千葉県千葉市美浜区ひび野1-3　イオン幕張,10:00～21:30,,
777,すき家,尻手駅前店,35.5315758943456,139.684462875416,212-0016,神奈川県川崎市幸区南幸町3-109-1,24時間営業,,
778,すき家,11号観音寺植田店,34.1250357497006,133.687220707535,768-0012,香川県観音寺市植田町字東原3-1,月～木 5:00～24:00　金～日 10:00～24:00,,
779,すき家,24号天理嘉幡店,34.5916185454739,135.797930041531,632-0084,奈良県天理市嘉幡町590-1,24時間営業,,
780,すき家,浜松駅南口店,34.7026324363478,137.734148572955,430-0926,静岡県浜松市中区砂山町324-8　第一伊藤ビル１Ｆ,24時間営業,,
781,すき家,八王子楢原店,35.678588908237,139.310090530562,193-0803,東京都八王子市楢原町397-5,24時間営業,,
782,すき家,長堀橋駅南店,34.6728242129611,135.506463008347,542-0082,大阪府大阪市中央区島之内1-21-19　協和島之内ビル１Ｆ,24時間営業,,
783,すき家,211号八幡西店,33.8346534055229,130.75709520074,807-0071,福岡県北九州市八幡西区上の原3-1-6,24時間営業,,
784,すき家,坂出横津店,34.3186520681867,133.866923256889,762-0005,香川県坂出市横津町3-2-15,24時間営業,,
785,すき家,四日市塩浜店,34.9302467700598,136.624872994163,510-0854,三重県四日市市塩浜本町1-9-5,24時間営業,,
786,すき家,134号横須賀長坂店,35.2301619846989,139.618678884514,240-0101,神奈川県横須賀市長坂2-11-2,24時間営業,,
787,すき家,11号新居浜外山店,33.9378561942677,133.313910885142,792-0823,愛媛県新居浜市外山町甲18-28,月～土 10:00～24:00　日 10:00～22:00,,
788,すき家,越前押田店,35.9078545512337,136.186724644104,915-0083,福井県越前市押田2-1-1,24時間営業,,
790,すき家,イオンモール旭川西店,43.793842753333,142.326646049536,070-0823,北海道旭川市緑町23-2161-3,9:00～21:00,,
791,すき家,野々市新庄店,36.5028494313417,136.610947015242,921-8824,石川県野々市市新庄三丁目253番,24時間営業,,
792,すき家,26号泉佐野鶴原店,34.4255441766393,135.341901950324,598-0071,大阪府泉佐野市鶴原1855-3,24時間営業,,
793,すき家,末広町店,36.3904094193203,140.454009141028,101-0021,東京都千代田区外神田6-15-14,24時間営業,,
794,すき家,2国大竹西栄店,34.2183366160068,132.224886190222,739-0603,広島県大竹市西栄一丁目7-13,9:00～24:00,,
795,すき家,長津田みなみ台店,35.5215056567377,139.497876057206,226-0018,神奈川県横浜市緑区長津田みなみ台一丁目38番6号,24時間営業,,
796,すき家,モリタウン昭島店,35.7138902324041,139.363524745165,196-0014,東京都昭島市田中町562-1,10:00～21:00 ,,
797,すき家,126号東金南上宿店,35.5507497922698,140.358985973989,283-0066,千葉県東金市南上宿5-38-33,24時間営業,,
798,すき家,イオンモール高松店,34.3520239543969,134.004330308691,761-8012,香川県高松市香西本町1-1　イオンモール高松3F,10:00～21:00,,
799,すき家,41号高山店,36.1558259434025,137.244179571823,506-0052,岐阜県高山市下岡本町3014番5,24時間営業,,
800,すき家,仙台福室店,38.2587618586204,140.966173074724,983-0005,宮城県仙台市宮城野区福室字小原一番1-2,24時間営業,,
801,すき家,ラウンドワン和歌山店,34.1985373915542,135.185464561898,641-0007,和歌山県和歌山市小雑賀739-3,24時間営業,,
802,すき家,東大阪加納店,34.7002549131985,135.61910627922,578-0901,大阪府東大阪市加納八丁目24-7,24時間営業,,
803,すき家,119号宇都宮一条店,36.5547434678849,139.879174035736,320-0821,栃木県宇都宮市一条三丁目1番8号,24時間営業,,
804,すき家,141号佐久跡部店,36.2316106923433,138.457202563945,385-0054,長野県佐久市跡部46-4,24時間営業,,
805,すき家,西条新田店,33.9297760217708,133.190945913782,793-0028,愛媛県西条市新田155,月～金 9:00～24:00 ,土日 0:00～24:00　,
806,すき家,今治衣干店,34.051061413279,133.017787209657,794-0813,愛媛県今治市衣干町1942-4,24時間営業,,
807,すき家,桐生新宿店,36.3969401587843,139.343630500692,376-0006,群馬県桐生市新宿三丁目2番14号,24時間営業,,
808,すき家,イオン福島店,37.7883405146414,140.457636691805,960-0112,福島県福島市南矢野目西荒田35,9:00～21:00,,
809,すき家,49号郡山IC店,37.4242208021595,140.343578486319,963-8041,福島県郡山市富田町字池ノ上36-1,24時間営業,,
810,すき家,松山南江戸店,33.8371462513264,132.748191116132,790-0062,愛媛県松山市南江戸二丁目7-6,24時間営業,,
811,すき家,三鷹駅南口店,35.7007131576053,139.561621400179,181-0013,東京都三鷹市下連雀3-23-12　アージェントビル,24時間営業,,
812,すき家,盛岡青山店,39.7260689534083,141.117884854923,020-0133,岩手県盛岡市青山三丁目7番1号,24時間営業,,
813,すき家,21号各務原鵜沼店,35.4027860758812,136.934278317211,509-0132,岐阜県各務原市鵜沼西町三丁目234,月～木 9:00～22:00 金 0:00～24:00,土 5:00～24:00,日 9:00～22:00
814,すき家,高知IC店,33.5705244245602,133.555392189217,780-0072,高知県高知市杉井流9-15,24時間営業,,
815,すき家,岐阜入舟店,35.4112091351769,136.779335519438,500-8152,岐阜県岐阜市入舟町四丁目19番地,24時間営業,,
816,すき家,堺津久野店,34.5382928530716,135.46355721081,593-8329,大阪府堺市西区下田町26番地23号,24時間営業,,
817,すき家,岡山新保店,34.6378856699922,133.912882795877,700-0945,岡山県岡山市南区新保395-1,24時間営業,,
818,すき家,169号桜井三輪店,34.5236238455332,135.844020733565,633-0001,奈良県桜井市大字三輪元松之本方114-4,24時間営業,,
819,すき家,東武蒲生駅前店,35.8664500080836,139.791893811288,343-0836,埼玉県越谷市蒲生寿町16-18,24時間営業,,
820,すき家,東舞鶴白鳥店,35.4601939389263,135.38236955838,625-0062,京都府舞鶴市字森小字ムシウ218-1,24時間営業,,
821,すき家,阿南富岡店,33.9193371017154,134.651899785789,774-0030,徳島県阿南市富岡町10-1,24時間営業,,
822,すき家,富士吉田赤富士通り店,35.4803998681719,138.803452843434,403-0005,山梨県富士吉田市上吉田東2丁目1-50,24時間営業,,
824,すき家,稲荷町駅前店,35.7115597433445,139.782434229091,110-0015,東京都台東区東上野五丁目1番4号,24時間営業,,
825,すき家,4号盛岡西見前店,39.6490621729576,141.164611464676,020-0833,岩手県盛岡市西見前18地割35番9,24時間営業,,
826,すき家,越谷花田店,35.9102179141773,139.79690526861,343-0015,埼玉県越谷市花田2-33-1,24時間営業,,
827,すき家,松山枝松店,33.8361517540652,132.786785734455,790-0962,愛媛県松山市枝松1-9-16,24時間営業,,
828,すき家,佐野鐙塚店,36.3054709174794,139.606189296172,327-0815,栃木県佐野市鐙塚町177-1,24時間営業,,
829,すき家,板宿店,34.659696619329,135.134467284515,654-0022,兵庫県神戸市須磨区大黒町三丁目3番26号　山本ビル,24時間営業,,
831,すき家,495号古賀花見店,33.7462287090302,130.471545487054,811-3112,福岡県古賀市花見東一丁目15-13,24時間営業,,
832,すき家,浜松中田店,34.7352596545964,137.75878308026,435-0057,静岡県浜松市東区中田町509番地,9:30～23:00,,
833,すき家,横浜北幸店,35.4661330937281,139.616375154579,220-0004,神奈川県横浜市西区北幸二丁目10番50号　北幸山田ビル1F,24時間営業,,
834,すき家,船橋習志野店,35.6977752477673,140.060860351896,274-0071,千葉県船橋市習志野五丁目5番1号,24時間営業,,
835,すき家,奈良神殿店,34.6577188011119,135.81976046261,630-8441,奈良県奈良市神殿町547,10:00～22:00,,
836,すき家,武蔵境北口店,35.7044741135378,139.543962138029,180-0022,東京都武蔵野市境2-3-26,24時間営業,,
837,すき家,6号ひたちなか田彦店,36.4113154006139,140.510983446711,312-0063,茨城県ひたちなか市大字田彦1569-1,24時間営業,,
838,すき家,むつ中央店,41.2861502400659,141.187128378752,035-0073,青森県むつ市中央二丁目9番1号,24時間営業,,
840,すき家,57号諫早小川町店,32.8324489377004,130.057514170788,854-0053,長崎県諫早市小川町53-1,24時間営業,,
841,すき家,堺片蔵店,34.484557556117,135.515077906399,590-0121,大阪府堺市南区片蔵1333番1,24時間営業,,
842,すき家,11号高松屋島店,34.33962881908,134.111514755653,761-0104,香川県高松市高松町3009番9,24時間営業,,
843,すき家,藤沢湘南台店,35.399205056479,139.462034665346,252-0804,神奈川県藤沢市湘南台四丁目14番地の4,24時間営業,,
844,すき家,竜ヶ崎馴柴店,35.9115613496706,140.176742828251,301-0007,茨城県龍ヶ崎市馴柴町718-1,24時間営業,,
845,すき家,ザ・モール郡山店,37.3973738649759,140.370430270295,963-8017,福島県郡山市長者1-1-56,10:00～21:00,,
846,すき家,宮崎大島店,31.9414500705578,131.440919752255,880-0824,宮崎県宮崎市大島町292-1,24時間営業,,
847,すき家,国分寺本多店,35.7051943364374,139.481619782342,185-0011,東京都国分寺市本多2-16-1,24時間営業,,
848,すき家,155号常滑大鳥店,34.9043702151565,136.838579493119,479-0849,愛知県常滑市虹の丘三丁目53-2,月～金 0:00～24:00,土日 10:00～24:00,
849,すき家,新座野火止店,35.7916249109676,139.550782558589,352-0011,埼玉県新座市野火止三丁目15番19号,24時間営業,,
851,すき家,飯塚市役所前店,33.6448811476021,130.690273655271,820-0005,福岡県飯塚市新飯塚20番24号,24時間営業,,
852,すき家,55号徳島沖浜店,34.0492403571991,134.552349849476,770-8054,徳島県徳島市山城西四丁目１番地,24時間営業,,
853,すき家,イオンモール猪名川店,34.9018539027647,135.364500641009,666-0257,兵庫県川辺郡猪名川町白金2-1,9:00～21:00,,
854,すき家,4号宇都宮今泉店,36.5710532029766,139.91617215651,321-0962,栃木県宇都宮市今泉町2533番1,24時間営業,,
856,すき家,明石駅前店,34.6480273567042,134.993906439741,673-0886,兵庫県明石市東仲ノ町11番29号　石ビル1F,24時間営業,,
857,すき家,扶桑柏森店,35.3479762752471,136.896314549436,480-0103,愛知県丹羽郡扶桑町大字柏森字西屋敷156-1,24時間営業,,
858,すき家,東五反田店,35.6253933163459,139.729696187732,141-0022,東京都品川区東五反田3-20-17　佐藤ビル1F,24時間営業,,
860,すき家,467号大和深見店,35.4603980538245,139.467653325427,242-0011,神奈川県大和市深見3868　山口ビル1F,24時間営業,,
861,すき家,44号釧路木場店,43.0077892494439,144.405283226923,088-0622,北海道釧路郡釧路町木場一丁目3-3,24時間営業,,
862,すき家,大久保二丁目店,35.7011053900495,139.707732858805,169-0072,東京都新宿区大久保二丁目6番18号,24時間営業,,
863,すき家,長崎大学前店,32.7864026761235,129.862353332333,852-8136,長崎県長崎市家野町1-5,24時間営業,,
864,すき家,371号河内長野三日市店,34.4387506059994,135.568212547321,586-0048,大阪府河内長野市三日市町248番,24時間営業,,
865,すき家,茨木中穂積店,34.8163721894231,135.554005783378,567-0034,大阪府茨木市中穂積2丁目10番8号,24時間営業,,
866,すき家,1国藤枝水守店,34.8818962944364,138.273507469615,426-0005,静岡県藤枝市水守370-10,24時間営業,,
867,すき家,川崎駅前大通り店,35.5286528672956,139.700001164016,210-0006,神奈川県川崎市川崎区砂子2-6-27　横山ビル1F,24時間営業,,
868,すき家,354号邑楽店,36.2396341442039,139.467282474938,370-0613,群馬県邑楽郡邑楽町狸塚字高原357-1,24時間営業,,
869,すき家,京急久里浜駅前店,35.2303339888683,139.702664957182,239-0831,神奈川県横須賀市久里浜四丁目5番4号,24時間営業,,
870,すき家,豪徳寺駅前店,35.6534285965676,139.647065925833,154-0021,東京都世田谷区豪徳寺一丁目25番7号　ニーナロージナビル,24時間営業,,
871,すき家,泉大津松之浜店,34.5083904427401,135.412805858128,595-0072,大阪府泉大津市松之浜町二丁目1-12,24時間営業,,
872,すき家,富士今泉店,35.1625947135888,138.693246907608,417-0001,静岡県富士市今泉一丁目70番4,10:00～翌4:00,,
873,すき家,鹿児島東谷山店,31.5326749455913,130.520913869563,891-0113,鹿児島県鹿児島市東谷山二丁目52-22,24時間営業,,
874,すき家,新高島平駅南店,35.7892416633605,139.652415616685,175-0082,東京都板橋区高島平四丁目23番地17　アルテール藤久,24時間営業,,
875,すき家,中環大日店,34.7461807172789,135.580602639956,571-0051,大阪府門真市向島町3番35号　ベアーズＡ棟,24時間営業,,
876,すき家,ユニモちはら台店,35.5280000667256,140.171780346575,290-0143,千葉県市原市ちはら台西3-4　ショッピングモールユニモちはら台2Ｆ,10:00～21:00,,
877,すき家,横浜片倉店,35.4839826119168,139.602676303677,221-0865,神奈川県横浜市神奈川区片倉1-8-6,24時間営業,,
878,すき家,165号名張蔵持店,34.6356396783626,136.116447117503,518-0752,三重県名張市蔵持町原出778-1,24時間営業,,
879,すき家,福岡片江店,33.5523827846318,130.376609241842,814-0142,福岡県福岡市城南区片江1-24-22,24時間営業,,
880,すき家,丸亀田村店,34.2651062523783,133.794483682985,763-0071,香川県丸亀市田村町字平池795-2,24時間営業,,
881,すき家,稲城矢野口店,35.6410180098623,139.521578585577,206-0812,東京都稲城市矢野口323-7,24時間営業,,
882,すき家,飛田給店,35.6609411794852,139.522886170697,182-0036,東京都調布市飛田給1-23-38　荒井ビル,24時間営業,,
884,すき家,渋川有馬店,36.4727611044023,139.003307772877,377-0005,群馬県渋川市有馬186-1,24時間営業,,
885,すき家,五反野店,35.7659141176563,139.809105066815,120-0015,東京都足立区足立3-34-5　沼野ビル,24時間営業,,
886,すき家,伊丹野間店,34.7697741596833,135.397363715825,664-0887,兵庫県伊丹市南野北5-3-28,24時間営業,,
887,すき家,1国朝日店,35.0397247705119,136.671897936567,510-8101,三重県三重郡朝日町大字縄生567番,10:00～24:00,,
888,すき家,横須賀衣笠店,35.2370041779017,139.658915505616,238-0025,神奈川県横須賀市衣笠町43-17,24時間営業,,
890,すき家,イオンモール鳥取北店,35.5246725271484,134.201523268674,680-0904,鳥取県鳥取市晩稲348,9:00～21:00,,
891,すき家,307号枚方津田西店,34.8103755871195,135.695900386395,573-0126,大阪府枚方市津田西町一丁目2-1,24時間営業,,
892,すき家,イオンタウン大垣店,35.3655761412535,136.630653301945,503-0808,岐阜県大垣市三塚町丹瀬463番地1,10:00～22:00,,
893,すき家,京急川崎駅前店,35.5319891634886,139.69922135293,210-0007,神奈川県川崎市川崎区駅前本町10　十番館ビル1F,24時間営業,,
894,すき家,稲沢小池店,35.2497750971227,136.815935468913,492-8144,愛知県稲沢市小池三丁目10-25,月～金 10:00～24:00,土日 10:00～22:00,
895,すき家,196号西条三津屋店,33.9311155705172,133.093800864353,799-1352,愛媛県西条市三津屋東52,24時間営業,,
896,すき家,旭川永山店,43.7877162298801,142.408648410309,079-8416,北海道旭川市永山6条5丁目77番54号,24時間営業,,
897,すき家,広島緑井店,34.4671892797516,132.46998298741,731-0103,広島県広島市安佐南区緑井二丁目28-23,24時間営業,,
898,すき家,イオンモール津山店,35.0650434165679,134.045961519029,708-0842,岡山県津山市河辺1000-1,9:00～21:00,,
899,すき家,三宮駅東店,34.695097250116,135.196521889741,651-0096,兵庫県神戸市中央区雲井通六丁目1番15号　サンシティビル103,24時間営業,,
900,すき家,125号加須諏訪店,36.1309313626131,139.596561466067,347-0061,埼玉県加須市諏訪一丁目15番1号,月 10:00～24:00　火 9:00～24:00　水木 0:00～24:00　,金 0:00～22:00　土日 10:00～22:00,
901,すき家,7号胎内店,38.050975488123,139.408603108494,959-2644,新潟県胎内市大川町15番33号,24時間営業,,
902,すき家,三木本町店,34.8000585725306,134.992600103244,673-0431,兵庫県三木市本町1-6-30,24時間営業,,
903,すき家,野田つつみ野店,35.9471293271229,139.849378655537,278-0044,千葉県野田市堤台37-1,24時間営業,,
904,すき家,アクアウォーク大垣店,35.3699265519333,136.617193386123,503-0015,岐阜県大垣市林町六丁目80番21,9:30～21:30,,
905,すき家,イオンモール新潟南店,37.8762068021334,139.081552761703,950-0150,新潟県新潟市江南区下早通柳田一丁目1番1号,9:00～22:00,,
906,すき家,イオンタウン佐沼店,38.6832960791601,141.183473535253,987-0404,宮城県登米市南方町新島前46-1,9:00～21:00,,
907,すき家,高松上天神店,34.3140594305301,134.037654844817,761-8056,香川県高松市上天神町217番地1,24時間営業,,
908,すき家,羽咋石野町店（旧415号羽咋店）,36.8947561009606,136.800468229649,925-0026,石川県羽咋市石野町イ54-1,24時間営業,,
909,すき家,生田駅南口店,35.61482589336,139.542174192304,214-0038,神奈川県川崎市多摩区生田七丁目2-11,24時間営業,,
910,すき家,浜松頭陀寺店,34.6970020478327,137.756942217002,430-0817,静岡県浜松市南区頭陀寺町332-19,10:00～24:00,,
911,すき家,青梅河辺店,35.7806864948415,139.288229033766,198-0036,東京都青梅市河辺町五丁目25番1,24時間営業,,
912,すき家,西川口駅前店,35.815094797637,139.703914315979,332-0021,埼玉県川口市西川口一丁目5-3　福原ビル,24時間営業,,
913,すき家,長泉下土狩店,35.1259141684994,138.898607097206,411-0943,静岡県駿東郡長泉町下土狩429-1-1,10:00～22:00,,
914,すき家,39号北見三輪店,43.7982648757848,143.858770826561,090-0836,北海道北見市東三輪2-831-4,24時間営業,,
915,すき家,2国広島楽々園店,34.3637776871663,132.349873001981,731-5136,広島県広島市佐伯区楽々園二丁目2-22,24時間営業,,
916,すき家,横浜上郷店,35.3644015199932,139.571242753858,247-0013,神奈川県横浜市栄区上郷町199-1,24時間営業,,
917,すき家,217号佐伯店,32.957913762576,131.881250545001,876-0835,大分県佐伯市鶴岡町1丁目3番5号,9:00～22:00,,
918,すき家,四国中央川之江店,34.0027967291238,133.567262965293,799-0101,愛媛県四国中央市川之江町314-1,24時間営業,,
919,すき家,金沢田上店,36.5486622978397,136.689824743874,920-1152,石川県金沢市田上さくら三丁目122,24時間営業,,
920,すき家,昭島駅南店,35.7128972117008,139.35943929685,196-0015,東京都昭島市昭和町五丁目14-17,24時間営業,,
921,すき家,下丸子ガス橋通り店,35.5669126705004,139.684476802671,146-0092,東京都大田区下丸子三丁目28番7号,24時間営業,,
922,すき家,津島神守店,35.183937538997,136.775215771141,496-0005,愛知県津島市神守町153,24時間営業,,
923,すき家,228号北斗七重浜店,41.8170441625046,140.702825264858,049-0111,北海道北斗市七重浜七丁目2番1号,24時間営業,,
924,すき家,463号さいたま大門店,35.8847515580745,139.738256034241,336-0963,埼玉県さいたま市緑区美園6-11-12,24時間営業,,
925,すき家,五香駅前店,35.7973076580283,139.965487300509,270-2261,千葉県松戸市常盤平五丁目11-12　五香駅西口第3ビル1F,24時間営業,,
926,すき家,朝霞駅東口店,35.7970352190881,139.601552259751,351-0006,埼玉県朝霞市仲町2-2-34　一本堂ビル1F,24時間営業,,
927,すき家,イオンモール津田沼店,35.6904326257176,140.024813405888,275-0016,千葉県習志野市津田沼1-23-1　フードコート1F,9:00～22:00,,
928,すき家,旭川神居店,43.7695890131671,142.329767740421,070-8012,北海道旭川市神居2条1丁目1番17号,24時間営業,,
929,すき家,岸和田磯上店,34.486779384116,135.394795015698,596-0001,大阪府岸和田市磯上町四丁目23-25,24時間営業,,
931,すき家,202号福岡周船寺店,33.5724305094169,130.241893673382,819-0373,福岡県福岡市西区周船寺一丁目13番8号,24時間営業,,
932,すき家,1国岡崎宇頭店,34.9736246575437,137.119414925494,444-0905,愛知県岡崎市宇頭町字長合29-1,10:00～22:00,,
933,すき家,沼津小諏訪店,35.1061246199103,138.835074951404,410-0872,静岡県沼津市小諏訪574-8,10:00～24:00,,
934,すき家,芝四丁目店,35.6491786656833,139.752220166343,108-0014,東京都港区芝四丁目7-1　西山ビル1F,24時間営業,,
935,すき家,210号大分わさだ店,33.1852804600477,131.57369728419,870-1151,大分県大分市市85-1,24時間営業,,
936,すき家,36号苫小牧明野店,42.6554871345861,141.633911831392,053-0054,北海道苫小牧市明野新町2丁目1番4号,24時間営業,,
937,すき家,徳島大原店,34.0215408076474,134.567547640566,770-8012,徳島県徳島市大原町千代ケ丸山5番地1号,24時間営業,,
938,すき家,鳥取南吉方店,35.4879561968817,134.234491388036,680-0843,鳥取県鳥取市南吉方2丁目25番地,24時間営業,,
939,すき家,半田州の崎店,34.9241348456278,136.970257647271,475-0021,愛知県半田市州の崎町2番182,24時間営業,,
940,すき家,甲府アルプス通り店,35.6442709934986,138.535509772352,409-3866,山梨県中巨摩郡昭和町西条字岡畑2707-1,24時間営業,,
941,すき家,町田木曽店,35.5582428008496,139.432114271481,194-0036,東京都町田市木曽東1-13-34,24時間営業,,
942,すき家,45号八戸類家店,40.5073503974618,141.516048867848,031-0001,青森県八戸市類家五丁目11番5号,24時間営業,,
943,すき家,南国BP店,33.5671914169338,133.633142830016,783-0007,高知県南国市明見字大政所960番1,24時間営業,,
944,すき家,岩槻駅前店,35.9491872214777,139.693724265511,339-0057,埼玉県さいたま市岩槻区本町1-3-3　吉田ビル1F,24時間営業,,
945,すき家,6号松戸きよしヶ丘店,35.8259104703936,139.935880664469,270-0013,千葉県松戸市小金きよしヶ丘四丁目11-6,24時間営業,,
946,すき家,305号小松今江店,36.3828435663943,136.446782285965,923-0964,石川県小松市今江町三丁目700番他,24時間営業,,
947,すき家,沖縄登川店,26.3701979968119,127.819517600014,904-2142,沖縄県沖縄市字登川2438番他,24時間営業,,
948,すき家,金沢寺地店,36.5356128161992,136.639592572052,921-8178,石川県金沢市寺地一丁目32番28号,24時間営業,,
949,すき家,刈谷東陽店,34.9903399816403,137.001784480465,448-0842,愛知県刈谷市東陽町二丁目24番,10:00～22:00,,
950,すき家,平塚上平塚店,35.3323984360771,139.325940988474,254-0055,神奈川県平塚市上平塚1-54,24時間営業,,
951,すき家,玉村上之手店,36.2981656607143,139.117382727497,370-1127,群馬県佐波郡玉村町大字上之手1628-2,24時間営業,,
952,すき家,349号那珂店,36.4502421887127,140.501859078696,311-0110,茨城県那珂市竹之内四丁目11-8,24時間営業,,
954,すき家,伊東桜木店,34.9672114892704,139.093335732912,414-0013,静岡県伊東市桜木町1丁目3番18号,24時間営業,,
955,すき家,甲府国玉店,35.647952229285,138.596994774347,400-0815,山梨県甲府市国玉町字久保田975-1,24時間営業,,
956,すき家,鎌ヶ谷初富店,35.7748790055783,140.000709297009,273-0107,千葉県鎌ヶ谷市新鎌ヶ谷2-1-14,24時間営業,,
957,すき家,渋谷桜丘店,35.6564756129322,139.701647085946,150-0031,東京都渋谷区桜丘町15-19,24時間営業,,
958,すき家,24号五條今井店,34.3539839421918,135.701321229328,637-0004,奈良県五條市今井1-11-57,24時間営業,,
959,すき家,56号宇和島宮下店,33.2003206346574,132.550441029513,798-0085,愛媛県宇和島市宮下字太田甲191-1,24時間営業,,
960,すき家,相生垣内店,34.8118035101908,134.472550529851,678-0022,兵庫県相生市垣内町1310番7,24時間営業,,
961,すき家,金沢畝田店,36.598491710165,136.611449791693,920-0343,石川県金沢市畝田中三丁目561,24時間営業,,
962,すき家,さいたま太田窪店,35.8604313856059,139.674874640095,336-0936,埼玉県さいたま市緑区太田窪3-17-25,24時間営業,,
963,すき家,高松郷東店,34.3482867084265,134.011891241739,761-8031,香川県高松市郷東町483-1,24時間営業,,
964,すき家,412号厚木中荻野店,35.4861364652459,139.327580717604,243-0202,神奈川県厚木市中荻野580-1,24時間営業,,
965,すき家,10号日向原町店,32.4242486873599,131.63057704786,883-0014,宮崎県日向市原町2-11,24時間営業,,
966,すき家,モリシア津田沼店,35.68981509366,140.019196678566,275-0026,千葉県習志野市谷津1-16-1　モリシア津田沼1Ｆ,6:00～翌2:00,,
967,すき家,大分明野店,33.2245863714809,131.659829987705,870-0161,大分県大分市明野東2-32-26,24時間営業,,
968,すき家,新川永代橋店,35.6763294064937,139.785958336437,104-0033,東京都中央区新川1-30-10,24時間営業,,
969,すき家,川口榛松店,35.8258027407165,139.778947591468,334-0062,埼玉県川口市榛松1863,24時間営業,,
970,すき家,烏丸七条店,34.9894058909962,135.760005152123,600-8211,京都府京都市下京区七条通烏丸東入真苧屋町197　ブーケガルニ1Ｆ,24時間営業,,
971,すき家,五所川原唐笠柳店,40.8003108420173,140.457043327422,037-0004,青森県五所川原市大字唐笠柳字藤巻521-8,24時間営業,,
972,すき家,467号藤沢長後店,35.4157689729875,139.469628271989,252-0801,神奈川県藤沢市長後754番地の1,24時間営業,,
973,すき家,沼田IC店,36.6577957105498,139.080137594211,378-0004,群馬県沼田市下久屋町1043番1,24時間営業,,
974,すき家,9号松江西津田店,35.4590664599789,133.070777141504,690-0017,島根県松江市西津田五丁目1番11号,24時間営業,,
975,すき家,さいたま西堀店,35.8614222408526,139.634488504057,338-0832,埼玉県さいたま市桜区西堀8-4,24時間営業,,
976,すき家,小平鈴木店,35.7238392907896,139.497762027648,187-0011,東京都小平市鈴木町1丁目215番3,24時間営業,,
977,すき家,和歌山大谷店,34.2601645780788,135.179128083738,640-8472,和歌山県和歌山市大谷字藤原田87-2,24時間営業,,
978,すき家,津高茶屋店,34.6727076941462,136.516084998855,514-0817,三重県津市高茶屋小森町字丸太358-1,24時間営業,,
979,すき家,246号秦野渋沢店,35.3772075028719,139.181139839655,259-1317,神奈川県秦野市並木町188-1,24時間営業,,
980,すき家,447号出水店,32.1105183533536,130.342347647071,899-0126,鹿児島県出水市六月田町399,24時間営業,,
981,すき家,善通寺上吉田店,34.2344369258643,133.788362270252,765-0012,香川県善通寺市上吉田町393番,24時間営業,,
982,すき家,高砂松陽店,34.7771934553385,134.782266124154,676-0077,兵庫県高砂市松陽一丁目7-15,24時間営業,,
983,すき家,垂水多聞店,34.6537861375256,135.038886050164,655-0006,兵庫県神戸市垂水区本多聞一丁目22-30,24時間営業,,
984,すき家,16号市原千種海岸店,35.5002442302599,140.049347070391,299-0108,千葉県市原市千種海岸11,24時間営業,,
985,すき家,106号宮古店,39.6368057025241,141.927734763461,027-0053,岩手県宮古市長町一丁目5番17号,24時間営業,,
986,すき家,アクロスプラザ鈴鹿店,34.8743613637378,136.529744578944,513-0833,三重県鈴鹿市庄野共進2丁目7番12号,24時間営業,,
987,すき家,クロスガーデン多摩店,35.6204954347775,139.423416016221,206-0033,東京都多摩市落合2-33,10:00～23:00,,
988,すき家,港南四丁目店,35.6310580312442,139.748061901635,108-0075,東京都港区港南四丁目2番6号,24時間営業,,
989,すき家,56号伊予松前店,33.7952433631641,132.723821180636,791-3141,愛媛県伊予郡松前町大字恵久美617-1,24時間営業,,
990,すき家,モレラ岐阜店,35.455153963869,136.672860671894,501-0406,岐阜県本巣市三橋1100,10:00～21:00,,
991,すき家,赤羽南口店,35.7762326059884,139.722136536562,115-0045,東京都北区赤羽1丁目1番24号,24時間営業,,
992,すき家,171号箕面今宮店,34.8332232797924,135.496978354628,562-0033,大阪府箕面市今宮2-3-1,月 9:00～24:00 火～土 0:00～24:00,日 5:00～24:00,
993,すき家,イトーヨーカドー国領店,35.6467878575917,139.564095344472,182-0022,東京都調布市国領町8-2-64　イトーヨーカドー国領店1F,10:00～22:00,毎月8・15・18・25・28は9:00オープン,
994,すき家,足立六木店,35.7936144823936,139.840581454996,121-0052,東京都足立区六木2-7-8,24時間営業,,
995,すき家,16号瑞穂南平店,35.768499246226,139.339311463711,190-1224,東京都西多摩郡瑞穂町南平1-6-6,24時間営業,,
996,すき家,10号宮崎大橋店,31.9194713308907,131.410292752294,880-0022,宮崎県宮崎市大橋2-30,24時間営業,,
997,すき家,岡山妹尾店,34.6179137134964,133.869408714892,701-0205,岡山県岡山市南区妹尾2342-1,月～水 0:00～24:00,木～日 10:00～23:00,
998,すき家,20号日野万願寺店,35.6696794720141,139.41503166999,191-0024,東京都日野市万願寺5-14-8,24時間営業,,
999,すき家,いわき錦店,36.9103652153716,140.773320902425,974-8232,福島県いわき市錦町江栗大町1-1,24時間営業,,
1000,すき家,イオンモール浜松志都呂店,34.6968966040264,137.651375155773,432-8069,静岡県浜松市西区志都呂2-37-1　イオンモール浜松志都呂3階,10:00～22:00,,
1001,すき家,丸亀土器店,34.2973302859783,133.809258749894,763-0082,香川県丸亀市土器町東8-11,24時間営業,,
1002,すき家,名東猪子石店,35.1862372846371,136.997374159637,465-0021,愛知県名古屋市名東区猪子石1-106,24時間営業,,
1003,すき家,錦糸公園前店,35.7000101510532,139.814565425779,130-0012,東京都墨田区太平3-4-8　グレイスMM1F,24時間営業,,
1004,すき家,足立一ツ家店,35.7816066334832,139.810687546136,121-0075,東京都足立区一ツ家1-15-6,24時間営業,,
1005,すき家,札幌美香保店,43.0880552878097,141.362222809895,065-0020,北海道札幌市東区北二十条東8-3-5,24時間営業,,
1006,すき家,1国沼津共栄店,35.1206214840823,138.871542366396,410-0064,静岡県沼津市共栄町19-4,24時間営業,,
1007,すき家,167号志摩鵜方店,34.3294844497688,136.820769666051,517-0501,三重県志摩市阿児町鵜方4869,24時間営業,,
1008,すき家,ゆめタウン出雲店,35.3774458060084,132.756173694068,693-0063,島根県出雲市大塚町650-1,9:00～21:00,,
1009,すき家,坂戸塚越店,35.9612057562824,139.413091185086,350-0212,埼玉県坂戸市大字石井字南谷頭2901-3,24時間営業,,
1010,すき家,JR町田駅南口店,35.5414445611315,139.445929175448,194-0013,東京都町田市原町田1-2-6第2　ひろせビル1Ｆ,24時間営業,,
1011,すき家,瑞江店,35.6924321224133,139.896924212677,132-0011,東京都江戸川区瑞江2-1-23　田所ビル1Ｆ,24時間営業,,
1012,すき家,4号柴田店,38.0663145516648,140.768844713127,989-1622,宮城県柴田郡柴田町西船迫1-1-55,24時間営業,,
1013,すき家,松山はなみずき通り店,33.8135679640367,132.765473266569,790-0942,愛媛県松山市古川北2-172-1,24時間営業,,
1014,すき家,戸部駅前店,35.4571693624264,139.618215970007,220-0041,神奈川県横浜市西区戸部本町50-25　ヴィラにしむら1F,24時間営業,,
1015,すき家,246号伊勢原白根店,35.3985672474117,139.297310597121,259-1147,神奈川県伊勢原市白根95番1,24時間営業,,
1016,すき家,神谷町店,35.6626668424478,139.746337533803,105-0001,東京都港区虎ノ門3-19-7　大手ビル1F,24時間営業,,
1017,すき家,16号横須賀安浦店,35.2700712814047,139.679674481191,238-0012,神奈川県横須賀市安浦町3-24-3,24時間営業,,
1018,すき家,八王子椚田店,35.6382819992687,139.303844016442,193-0942,東京都八王子市椚田町580-2　メゾンくぬぎだ1Ｆ,24時間営業,,
1019,すき家,378号八幡浜店,33.4534825983781,132.431989765053,796-8004,愛媛県八幡浜市産業通13-12,24時間営業,,
1020,すき家,尾張旭バロー城山店,35.2207473982027,137.040267619407,488-0072,愛知県尾張旭市北原山土地区画整理事業地内1街区2,24時間営業,,
1021,すき家,イオンモール綾川店,34.2518364397824,133.930690482165,761-2304,香川県綾歌郡綾川町萱原822-1　イオン綾川ショッピングセンター3F,9:00～21:00,,
1022,すき家,グリーンプラザべふ店,34.7285812089385,134.848968656339,675-0124,兵庫県加古川市別府町緑町2番地,10:00～21:00,,
1023,すき家,ゆめタウン佐賀店,33.2758286702336,130.30820710144,849-0919,佐賀県佐賀市兵庫北五丁目１４番１号　ゆめタウン佐賀２階,10:00～22:00,,
1024,すき家,倉吉伊木店,35.4454165220549,133.849492542877,682-0024,鳥取県倉吉市伊木241-18,24時間営業,,
1025,すき家,栄三丁目店,35.1673182479453,136.904867713374,460-0008,愛知県名古屋市中区栄3丁目8-32　山田ビル,24時間営業,,
1026,すき家,氷川台駅前店,35.7497927682735,139.664940004151,179-0084,東京都練馬区氷川台3丁目40番15号　氷川ガーデンハウス1F,24時間営業,,
1027,すき家,イオンタウン上里店,36.2605783402091,139.136034575919,369-0301,埼玉県児玉郡上里町金久保蓮山359-1,10:00～21:00,,
1028,すき家,56号四万十古津賀店,32.9837116517712,132.952056538738,787-0010,高知県四万十市古津賀一丁目8番,24時間営業,,
1029,すき家,横浜アリーナ前店,35.5113641226733,139.618295967871,222-0033,神奈川県横浜市港北区新横浜3-17-20　ヒューマンハイツ新横浜,24時間営業,,
1030,すき家,1国枚方北中振店,34.7971930200985,135.627243084225,573-0064,大阪府枚方市北中振4丁目10-5,24時間営業,,
1031,すき家,草加松江店,35.838367206761,139.809414204912,340-0013,埼玉県草加市松江三丁目7番5号,24時間営業,,
1032,すき家,25号斑鳩法隆寺店,34.6132400099017,135.743820484127,636-0112,奈良県生駒郡斑鳩町法隆寺東二丁目1番22号,24時間営業,,
1033,すき家,我孫子寿店,35.868511964612,140.027849953731,270-1152,千葉県我孫子市寿2-14-24,24時間営業,,
1034,すき家,弥富イオンタウン前店,35.1168761799668,136.716136543353,498-0021,愛知県弥富市鯏浦町未新田21-1,月～金 10:00～23:00,土日 9:00～23:00,
1035,すき家,宇都宮テクノポリス店,36.5675971099697,139.991461618485,321-3222,栃木県宇都宮市ゆいの杜5-8-9,24時間営業,,
1036,すき家,札幌厚別西店,43.0472457957062,141.459458280388,004-0062,北海道札幌市厚別区厚別西2条2丁目2番11号,24時間営業,,
1037,すき家,4号盛岡茶畑店,39.6892242727797,141.164994861279,020-0822,岩手県盛岡市茶畑二丁目22番1号,24時間営業,,
1038,すき家,静岡安西店,34.9801686658338,138.374928965973,420-0011,静岡県静岡市葵区安西1-2-18,24時間営業,,
1039,すき家,8号上越下荒浜店,37.1932331019929,138.281563704341,942-0022,新潟県上越市大字下荒浜字大谷内横田346-1,24時間営業,,
1040,すき家,洲本桑間店,34.343649351164,134.866315496115,656-0014,兵庫県洲本市桑間400,24時間営業,,
1041,すき家,小牧久保一色店,35.3204717056791,136.943365797258,485-0003,愛知県小牧市大字久保一色925,24時間営業,,
1042,すき家,豊田駅前店,35.6605287373246,139.380547455234,191-0062,東京都日野市多摩平1-2-26　シンデレラビル1Ｆ,24時間営業,,
1043,すき家,5号函館亀田店,41.7957564212636,140.733589245725,040-0072,北海道函館市亀田町17番11号,24時間営業,,
1044,すき家,10号都城上町店,31.7214769641282,131.061073649398,885-0072,宮崎県都城市上町一街区１５号,24時間営業,,
1045,すき家,木場店,43.0077892494439,144.405283226923,135-0042,東京都江東区木場五丁目11番9号　達摩堂ビル1F,24時間営業,,
1046,すき家,4号春日部備後店,35.952393600457,139.776401973781,344-0032,埼玉県春日部市備後東5丁目11番17号,24時間営業,,
1047,すき家,56号土佐高岡店,33.5016540008187,133.427461262801,781-1102,高知県土佐市高岡町乙3369番1,24時間営業,,
1048,すき家,枚方渚内野店,34.8399190268833,135.660263930036,573-1147,大阪府枚方市渚内野四丁目25-1,24時間営業,,
1049,すき家,五泉東本町店,37.7420653844678,139.18085152514,959-1863,新潟県五泉市東本町二丁目78-1,24時間営業,,
1050,すき家,伊勢原歌川店,35.4019149058045,139.342780555623,259-1128,神奈川県伊勢原市歌川一丁目3-11,24時間営業,,
1051,すき家,笹塚店,35.6741553096319,139.6653226219,151-0073,東京都渋谷区笹塚2-19-2　ＴＳＫ笹塚ビル1F,24時間営業,,
1052,すき家,イオンモール高の原店,34.7258598889718,135.790413373295,619-0223,京都府木津川市相楽台1丁目1番1,9:00～22:00,,
1053,すき家,玉川学園駅前店,35.5632222660117,139.463791966944,194-0041,東京都町田市玉川学園七丁目５番２,24時間営業,,
1054,すき家,16号入間二本木店,35.7919529750652,139.362447906727,358-0015,埼玉県入間市ニ本木941-1,10:00～22:00,,
1055,すき家,広島商工センター店,34.3643459794165,132.382806351839,733-0833,広島県広島市西区商工センター八丁目２番４９号,24時間営業,,
1056,すき家,相模原小町通店,35.5707429582685,139.358643686444,229-0039,神奈川県相模原市中央区小町通2-4-12,24時間営業,,
1057,すき家,286号仙台山田店,38.2148417484291,140.834045514621,982-0814,宮城県仙台市太白区山田字汚田通17-1,24時間営業,,
1058,すき家,桶川下日出谷店,35.9954174523336,139.544754230808,363-0025,埼玉県桶川市下日出谷西3-3-2,24時間営業,,
1059,すき家,恵庭京町店,42.8809853653202,141.577625844654,061-1444,北海道恵庭市京町66番地,24時間営業,,
1060,すき家,イオン松江店,35.463926472927,133.069473137124,690-0001,島根県松江市東朝日町151,9:00～21:00,,
1061,すき家,名駅西店,35.1685687976635,136.880385800102,453-0015,愛知県名古屋市中村区椿町14-10番　セントラルＷＥＳＴ名駅ビル1F　,24時間営業,,
1063,すき家,7号弘前高崎店,40.6103463379783,140.498995535021,036-8091,青森県弘前市大字高崎字広田115,24時間営業,,
1064,すき家,立会川店,35.5966401762733,139.739621131907,140-0013,東京都品川区南大井1-6-10　加藤ビル1階,24時間営業,,
1065,すき家,1国豊橋岩屋店,34.7336175990889,137.424315377555,440-0842,愛知県豊橋市岩屋町字岩屋下47-11,24時間営業,,
1066,すき家,岐阜岩崎店,35.4739980129988,136.781522724346,502-0005,岐阜県岐阜市大字岩崎字花立1004,5:00～24:00,,
1068,すき家,吉川栄店,35.8855992391734,139.849230945509,342-0050,埼玉県吉川市栄834-1,24時間営業,,
1070,すき家,254号三芳藤久保店,35.8362472403963,139.528012117162,354-0041,埼玉県入間郡三芳町大字藤久保949-4,24時間営業,,
1071,すき家,岡崎牧御堂店,34.9263875699263,137.140017611796,444-0205,愛知県岡崎市牧御堂町字油田15-1,24時間営業,,
1072,すき家,3号門司黄金町店,33.9081842339894,130.936734396012,800-0027,福岡県北九州市門司区黄金町3番22,24時間営業,,
1073,すき家,56号大洲松ヶ花店,33.5329917184428,132.582236681603,795-0071,愛媛県大洲市新谷乙543-1,24時間営業,,
1074,すき家,八尾青山店,34.6207168765992,135.610224012685,581-0018,大阪府八尾市青山町四丁目2番38,24時間営業,,
1075,すき家,12号江別野幌店,43.0939261192728,141.525287330535,069-0813,北海道江別市野幌町48-4,24時間営業,,
1076,すき家,日の出IC店,35.7391377963417,139.283247194019,190-0182,東京都西多摩郡日の出町大字平井15番16,24時間営業,,
1077,すき家,イオンモール下妻店,36.1902960499649,139.989888567057,304-0033,茨城県下妻市堀籠972-1,9:00～22:00,,
1078,すき家,398号湯沢沖鶴店,39.1744089607588,140.475498051157,012-0037,秋田県湯沢市字沖鶴234-1,24時間営業,,
1079,すき家,イオンモール日吉津店,35.4457878503556,133.387118981039,689-3553,鳥取県西伯郡日吉津村日吉津1160-1,10:00～21:00,,
1080,すき家,エアポートウォーク名古屋店,35.2459904595313,136.924827155383,480-0288,愛知県西春日井郡豊山町名古屋空港内,10:00～21:30,,
1081,すき家,58号北谷店,26.3025183874222,127.761402765046,904-0116,沖縄県中頭郡北谷町北谷2-12-6　第5松栄ビル1Ｆ,24時間営業,,
1082,すき家,玉野宇野店,34.4895373953565,133.946096868434,706-0011,岡山県玉野市宇野1丁目20番25,24時間営業,,
1083,すき家,1国蟹江新田店,35.122960730344,136.775362455632,497-0044,愛知県海部郡蟹江町大字蟹江新田字大海用38番4,月～火 9:00～22:00　水～土 0:00～24:00,日 9:00～22:00,
1084,すき家,松阪嬉野店,34.631270650259,136.479291351464,515-2325,三重県松阪市嬉野中川新町4丁目217番,24時間営業,,
1086,すき家,イオン品川シーサイド店,35.6108263256383,139.749166074872,140-0002,東京都品川区東品川4丁目12番5号　イオン品川シーサイド　地下1階フードコート内,8:00～23:00,,
1088,すき家,環八矢口渡店,35.5631405601702,139.699589610149,146-0095,東京都大田区多摩川1-7-11　榎本ビル1F,24時間営業,,
1089,すき家,463号入間東店,35.8299843601045,139.404279070354,358-0002,埼玉県入間市東町6-1-24,24時間営業,,
1090,すき家,徳島住吉店,34.0786358392326,134.569115992386,770-0861,徳島県徳島市住吉4-41,24時間営業,,
1091,すき家,大久保百人町店,35.7014679650703,139.698345288406,169-0073,東京都新宿区百人町1-16-14　マキバビル1Ｆ,24時間営業,,
1092,すき家,碧南善明店,34.8808612068411,136.989937172181,447-0875,愛知県碧南市善明町1丁目37-1,24時間営業,,
1093,すき家,東戸塚オーロラモール店,35.4304528545207,139.55912349668,244-0801,神奈川県横浜市戸塚区品濃町537-1,10:00～21:00,,
1094,すき家,高津向ヶ丘店,35.594499207313,139.591524640882,213-0035,神奈川県川崎市高津区向ヶ丘147番1,24時間営業,,
1095,すき家,西国分寺駅前店,35.7001107065587,139.465318592447,185-0013,東京都国分寺市西恋ヶ窪2-5-1　積丹ビル1Ｆ,24時間営業,,
1096,すき家,東大阪菱屋東店,34.6679898619265,135.60942940191,578-0948,大阪府東大阪市菱屋東2丁目3-29,24時間営業,,
1097,すき家,49号阿賀野水原店,37.8255511417658,139.22654249741,959-2046,新潟県阿賀野市庄ヶ宮679-1,24時間営業,,
1098,すき家,三軒茶屋北店,35.6463105909061,139.669946297845,154-0004,東京都世田谷区太子堂2-24-6　ドミー三軒茶屋1Ｆ,24時間営業,,
1099,すき家,大治西條店,35.1843377175292,136.819692614508,490-1144,愛知県海部郡大治町大字西條字坂牧島8番1,月～金 9:00～24:00,土日 9:00～22:00,
1100,すき家,スマーク伊勢崎店,36.3395554748525,139.232969833338,379-2224,群馬県伊勢崎市西小保方町368,10:00～21:00,,
1101,すき家,フォレオ大津一里山店,34.9741005506138,135.933045374939,520-2153,滋賀県大津市一里山7丁目1-1,10:00～21:00,,
1102,すき家,イオンモール秋田店,39.6634281060688,140.161005818377,010-1413,秋田県秋田市御所野地蔵田1-1-1,月〜金 10:00〜21:00,土日祝 9:00～21:00,
1103,すき家,津田の松原SA上り店,34.2769426346452,134.26415218797,769-2402,香川県さぬき市津田町鶴羽935-5,7:00～24:00,,
1104,すき家,津田の松原SA下り店,34.2754158616282,134.264617219653,769-2402,香川県さぬき市津田町鶴羽939-1,7:00～24:00,,
1106,すき家,アクロスプラザ東神奈川店,35.5005968332358,139.64393100137,221-0001,神奈川県横浜市神奈川区西寺尾１丁目16-15,24時間営業,,
1107,すき家,モラージュ菖蒲店,36.0751298129146,139.611418357251,346-0106,埼玉県久喜市菖蒲町菖蒲6005番地1,10:00～21:00,,
1108,すき家,プレ葉ウォーク浜北店,34.7971589492276,137.779385185679,434-0038,静岡県浜松市浜北区貴布祢1200番地,10:00～21:30,,
1111,すき家,イオンモール筑紫野店,33.4811183100997,130.526901152844,818-0042,福岡県筑紫野市立明寺434,9:00～21:00,,
1112,すき家,ゆめタウン丸亀店,34.2735388030047,133.78540765956,763-0055,香川県丸亀市新田町150,9:30～22:00,,
1113,すき家,高槻古曽部店,34.8579159273581,135.624825766667,569-1115,大阪府高槻市古曽部町2-21-32,24時間営業,,
1114,すき家,310号堺大野芝店,34.5327408231591,135.520082772067,599-8233,大阪府堺市中区大野芝町209-1,10:00～24:00,,
1115,すき家,垂水名谷店,34.6621808171081,135.071946806839,655-0852,兵庫県神戸市垂水区名谷町字横尾1818-1,24時間営業,,
1116,すき家,藤沢菖蒲沢店,35.4026498817123,139.441318171653,252-0823,神奈川県藤沢市菖蒲沢仲ノ桜730-1,24時間営業,,
1118,すき家,船橋古作店,35.7218008918126,139.958603293505,273-0037,千葉県船橋市古作2丁目1-1,24時間営業,,
1119,すき家,169号奈良紀寺町店,34.6730888025672,135.834447979531,630-8306,奈良県奈良市紀寺町682-1,24時間営業,,
1120,すき家,6号日立城南店,36.5866036910905,140.643642691359,317-0077,茨城県日立市城南町2丁目10番1,24時間営業,,
1121,すき家,上大岡カミオ店,35.4088955152819,139.595348425323,233-0002,神奈川県横浜市港南区上大岡西1-15-1　ＣＡＭＩＯ　1Ｆ,24時間営業,,
1122,すき家,331号糸満店,26.1435291205971,127.672654400901,901-0302,沖縄県糸満市字潮平603番地1,24時間営業,,
1123,すき家,岡崎鴨田店,34.9802158709555,137.165632728088,444-2121,愛知県岡崎市鴨田町字広元146番,24時間営業,,
1124,すき家,こどもの国店,35.5576093255614,139.483719181576,227-0038,神奈川県横浜市青葉区奈良五丁目4-13,24時間営業,,
1125,すき家,葛飾柴又店,35.7522792885815,139.878522429606,125-0052,東京都葛飾区柴又5-9-1,24時間営業,,
1126,すき家,福岡博多駅南店,33.5756173100902,130.428106950685,812-0016,福岡県福岡市博多区博多駅南5-22-16,24時間営業,,
1127,すき家,150号磐田海老島店,34.6759654993705,137.825725251076,438-0212,静岡県磐田市海老島793番,10:00～22:00,,
1128,すき家,前橋下大島店,36.3635147386689,139.11489936907,379-2152,群馬県前橋市下大島町541,24時間営業,,
1129,すき家,旭川豊岡店,43.771934936651,142.412904894601,078-8244,北海道旭川市豊岡十四条6-8-15,24時間営業,,
1130,すき家,高松十川店,34.2731991540301,134.105575529993,761-0433,香川県高松市十川西町583-1,24時間営業,,
1131,すき家,吉祥院八条通店,34.9840236544202,135.726225427555,601-8303,京都府京都市南区吉祥院西ノ庄西中町1,24時間営業,,
1132,すき家,王子駅前店,35.7530062060109,139.73830265237,114-0002,東京都北区王子1-4-1　サンスクエア前庭,5:00～翌2:00,,
1133,すき家,14号習志野谷津店,35.6813647937487,140.013892508181,275-0026,千葉県習志野市谷津2-18-45,24時間営業,,
1134,すき家,28号鳴門大津店,34.1671646910351,134.600209889156,772-0032,徳島県鳴門市大津町吉永四番越471番1,24時間営業,,
1135,すき家,朝霞朝志ヶ丘店,35.8239467560644,139.583989701339,351-0035,埼玉県朝霞市朝志ヶ丘4-7-19　アールフォンティーヌ1Ｆ,24時間営業,,
1136,すき家,2国西宮北今津店,34.7370038172379,135.352020379405,663-8247,兵庫県西宮市津門稲荷町5-8,24時間営業,,
1137,すき家,町田高ヶ坂店,35.5423086333258,139.46171449137,194-0014,東京都町田市高ヶ坂6-4-1,24時間営業,,
1138,すき家,163号門真殿島店,34.7317872417808,135.579741985316,571-0045,大阪府門真市殿島町7-13,24時間営業,,
1139,すき家,小田原駅東口店,35.2547771343559,139.157771029045,250-0011,神奈川県小田原市栄町一丁目14-1,24時間営業,,
1140,すき家,新4号BP上三川店,36.4441643965423,139.90722290922,329-0618,栃木県河内郡上三川町しらさぎ2丁目1番10号,24時間営業,,
1141,すき家,208号荒尾原万田店,33.0014369680212,130.438851664151,864-0001,熊本県荒尾市原万田字八反田618-3,24時間営業,,
1142,すき家,甲斐島上条店,35.68319952957,138.531050850129,400-0123,山梨県甲斐市島上条207-1,24時間営業,,
1143,すき家,52号清水興津店,35.0592497922002,138.526096381339,424-0204,静岡県静岡市清水区興津中町字金山下1371-1,24時間営業,,
1144,すき家,北名古屋沖村店,35.2410559507721,136.859123394794,481-0043,愛知県北名古屋市沖村西ノ郷159番,24時間営業,,
1145,すき家,7号にかほ店,39.2896942383602,139.972827822284,018-0402,秋田県にかほ市平沢字町田129番1,月 0:00～24:00　火～金 5:00～24:00　,土日 0:00～24:00,
1146,すき家,鹿児島天文館店,31.5908421182406,130.556206593458,892-0826,鹿児島県鹿児島市呉服町１番地4他　チサンイン鹿児島店１Ｆ,24時間営業,,
1147,すき家,39号網走新町店,44.0202082925785,144.252547626205,093-0046,北海道網走市新町2丁目3-5,24時間営業,,
1148,すき家,藍住笠木店,34.1350614119073,134.502145900422,771-1262,徳島県板野郡藍住町笠木字中野71-2,24時間営業,,
1149,すき家,松本出川店,36.2147358188566,137.97944746255,390-0827,長野県松本市出川3丁目6-10,24時間営業,,
1150,すき家,245号日立久慈店,36.4910456133985,140.613823179092,319-1222,茨城県日立市久慈町四丁目6-6,24時間営業,,
1151,すき家,札幌山鼻店,43.0415628590738,141.336051013153,064-0913,北海道札幌市中央区南13条西15丁目3-6,24時間営業,,
1152,すき家,八王子小宮店,35.6887188845054,139.370762525355,192-0031,東京都八王子市小宮町924-1,24時間営業,,
1153,すき家,吹田五月が丘店,34.7883306011297,135.529905187246,565-0831,大阪府吹田市五月が丘東13-19,24時間営業,,
1154,すき家,356号小見川店,35.8507545977994,140.610554878285,289-0313,千葉県香取市小見川野際1038,24時間営業,,
1155,すき家,1国湖南石部店,35.0132814405625,136.06489067671,520-3114,滋賀県湖南市石部口1丁目10-5,9:00～22:00,,
1156,すき家,幕張本郷店,35.6746213379891,140.045103837734,262-0033,千葉県千葉市花見川区幕張本郷6-24-10　鈴木本郷ビル1F,24時間営業,,
1157,すき家,仙台クリスロード店,38.2612739245323,140.877190626741,980-0021,宮城県仙台市青葉区中央2-2-29,24時間営業,,
1158,すき家,府中店,35.6704355062656,139.478871888861,183-0022,東京都府中市宮西町2-2　1Ｆ,24時間営業,,
1159,すき家,成増店,35.7776458706256,139.631441503626,175-0094,東京都板橋区成増二丁目18番7号　吉田屋第一ビル　1F,24時間営業,,
1160,すき家,此花四貫島店,34.6833591166318,135.45413936868,554-0014,大阪府大阪市此花区四貫島2丁目4番5号,24時間営業,,
1161,すき家,芝浦四丁目店,35.6397376418283,139.747111858645,108-0023,東京都港区芝浦四丁目9番18号　グランドパレス田町1F,24時間営業,,
1162,すき家,鹿児島吉野店,31.6494483152416,130.57013746011,892-0871,鹿児島県鹿児島市吉野町3095-7,24時間営業,,
1163,すき家,40号稚内大黒店,45.3982974774004,141.687599130769,097-0005,北海道稚内市大黒二丁目6-24,24時間営業,,
1164,すき家,下石神井店,35.7295204754693,139.600373244279,177-0042,東京都練馬区下石神井5丁目16-3,24時間営業,,
1165,すき家,421号いなべ店,35.111146943176,136.565720132445,511-0217,三重県いなべ市員弁町大泉新田字野溜42-5,24時間営業,,
1167,すき家,交野星田北店,34.7704285413391,135.668122310549,576-0017,大阪府交野市星田北三丁目37-4,24時間営業,,
1168,すき家,鉾田店,36.1528963848189,140.495665229342,311-1522,茨城県鉾田市塔ヶ崎1017-1,24時間営業,,
1169,すき家,伊丹瑞穂店,34.7904665225258,135.404901581441,664-0846,兵庫県伊丹市伊丹市瑞穂町2丁目21番,24時間営業,,
1170,すき家,千葉貝塚店,35.6321835536486,140.150623972949,264-0023,千葉県千葉市若葉区貝塚町1135,24時間営業,,
1171,すき家,鹿児島卸本町店,31.5154453867828,130.520180834917,891-0123,鹿児島県鹿児島市卸本町6-2,24時間営業,,
1172,すき家,21号垂井店,35.3656639154074,136.535567028065,503-2124,岐阜県不破郡垂井町宮代字堤3018番1,24時間営業,,
1173,すき家,1国山科西野店,34.9815462143704,135.809903314483,607-8346,京都府京都市山科区西野山階町11-5,24時間営業,,
1174,すき家,阿倍野店,34.6437849258148,135.512576893314,545-0052,大阪府大阪市阿倍野区阿倍野筋二丁目4番49号　アベニューホール1Ｆ,24時間営業,,
1175,すき家,渋谷円山町店,35.6557283455638,139.694486603915,150-0044,東京都渋谷区円山町28-4　大場ビル1Ｆ,24時間営業,,
1176,すき家,四日市西日野店,34.9512938035193,136.583920148334,510-0943,三重県四日市市西日野町字八幡5031-1,24時間営業,,
1177,すき家,町田能ヶ谷店,35.5899999479052,139.479150569512,195-0053,東京都町田市能ヶ谷町7-12-11,24時間営業,,
1178,すき家,前橋堀越店,36.4138101863125,139.146358051624,371-0231,群馬県前橋市堀越町366-1,24時間営業,,
1179,すき家,藤井寺駅前店,34.5723031631635,135.594154798735,583-0027,大阪府藤井寺市岡2-8-46　アコールアン1Ｆ,24時間営業,,
1180,すき家,横浜平沼店,35.4597366527159,139.621930821054,220-0023,神奈川県横浜市西区平沼1-4-28　横浜藤和ビル１Ｆ,24時間営業,,
1181,すき家,1国豊橋下地店,34.7748511847116,137.389100014597,440-0084,愛知県豊橋市下地町字宮腰11-9,24時間営業,,
1183,すき家,500号別府石垣店,33.3051995447086,131.492285190174,874-0910,大分県別府市石垣西10丁目3番30号,24時間営業,,
1184,すき家,2国岡山早島店,34.6110486984589,133.826510093696,701-0304,岡山県都窪郡早島町早島3444番1,10:00～24:00,,
1186,すき家,171号箕面牧落店,34.8226606606808,135.473187483479,562-0004,大阪府箕面市牧落三丁目20-30,24時間営業,,
1187,すき家,淵野辺北口店,35.5697553740305,139.395481783659,229-0039,神奈川県相模原市中央区淵野辺3-19-11　大黒屋ビル1Ｆ,24時間営業,,
1188,すき家,8号糸魚川寺島店,37.0353801016057,137.842903236646,941-0066,新潟県糸魚川市寺島三丁目2番34,24時間営業,,
1189,すき家,美濃加茂山手店,35.4528921375896,137.015635086717,505-0036,岐阜県美濃加茂市山手町2-20,24時間営業,,
1190,すき家,境町上小橋店,36.1187017868148,139.800402878133,306-0434,茨城県猿島郡境町上小橋98-2,24時間営業,,
1191,すき家,土浦荒川沖店,36.0273258012431,140.170409134793,300-0871,茨城県土浦市荒川沖東二丁目17-10,24時間営業,,
1192,すき家,251号島原宮の町店,32.7926797438206,130.369025686837,855-0041,長崎県島原市宮の町648-1,24時間営業,,
1193,すき家,141号北杜須玉店,35.7918720749085,138.419866746517,408-0112,山梨県北杜市須玉町若神子3126,24時間営業,,
1194,すき家,鴻巣鎌塚店,36.1097176591287,139.44546887988,369-0112,埼玉県鴻巣市鎌塚1775-6,24時間営業,,
1195,すき家,北名古屋弥勒寺店,35.2527706692421,136.867032476305,481-0031,愛知県北名古屋市弥勒寺東三丁目1,24時間営業,,
1196,すき家,18号上田材木店,36.3989224782774,138.264050623097,386-0014,長野県上田市材木町一丁目9-16,24時間営業,,
1197,すき家,329号那覇上間店,26.1971944465957,127.717784292901,902-0073,沖縄県那覇市字上間276-1,24時間営業,,
1198,すき家,東住吉杭全店,34.6324429750007,135.53817640067,546-0002,大阪府大阪市東住吉区杭全五丁目13-7,24時間営業,,
1199,すき家,153号千種本町店,35.1648094535956,136.926722958282,464-0858,愛知県名古屋市千種区千種一丁目21番3,24時間営業,,
1200,すき家,磐田二之宮店,34.7083390419043,137.86101055219,438-0074,静岡県磐田市二之宮332-1,24時間営業,,
1201,すき家,ワンザ有明店,35.6308612954454,139.790607543983,135-0063,東京都江東区有明3-6-11　TFTビル東館2F,8:00～21:00,,
1202,すき家,ニッケコルトンプラザ店,35.7167471174998,139.934216107104,272-0015,千葉県市川市鬼高1-1-1,月〜金 10:00〜20:00,土日祝 10:00～21:00,
1203,すき家,荻窪駅西口店,35.7040768621154,139.619371449202,167-0051,東京都杉並区荻窪5-26-11　マチダビル1Ｆ,24時間営業,,
1204,すき家,JR西宮駅北口店,34.7395695734041,135.347411199604,662-0844,兵庫県西宮市西福町2-23　イサダビル1Ｆ,24時間営業,,
1205,すき家,23号津栗真中山店,34.7605353860576,136.524190003785,514-0103,三重県津市栗真中山町2-1,24時間営業,,
1206,すき家,三鷹牟礼店,35.6892935259787,139.576393754741,181-0002,東京都三鷹市牟礼四丁目8-7,24時間営業,,
1207,すき家,50号伊勢崎赤堀店,36.3756583660041,139.206092069758,379-2215,群馬県伊勢崎市赤堀今井町1丁目557-1,月～木 10:00～翌3:45 金 9:00～24:00,土 0:00～24:00,日 9:00～翌3:45
1208,すき家,松山空港通店,33.8285222180294,132.734822901237,791-0054,愛媛県松山市空港通四丁目7-8,24時間営業,,
1209,すき家,堺IC店,34.5126479387596,135.48635677597,590-0151,大阪府堺市南区小代457番1,24時間営業,,
1210,すき家,江東塩浜店,35.6630587286492,139.809013699448,135-0043,東京都江東区塩浜二丁目14-3,24時間営業,,
1211,すき家,柴又街道小岩店,35.7352490052747,139.885240433649,133-0052,東京都江戸川区東小岩6丁目3番5号,24時間営業,,
1212,すき家,3号熊本藤崎店,32.8107630355216,130.715915489722,860-0856,熊本県熊本市中央区妙体寺町2-1,24時間営業,,
1213,すき家,新潟大学前店,37.8695366181393,138.950660883739,950-2101,新潟県新潟市西区五十嵐一の町6711-1,24時間営業,,
1214,すき家,58号名護東江店,26.5838585793561,127.984411845099,905-0021,沖縄県名護市東江5-6517-1,24時間営業,,
1215,すき家,多摩乞田店,35.6321144014507,139.435406707611,206-0014,東京都多摩市乞田791-1,24時間営業,,
1216,すき家,富岡BP店,36.2642465120104,138.878902706024,370-2343,群馬県富岡市七日市297-2,24時間営業,,
1217,すき家,新御徒町店,35.7071882549727,139.781775596194,110-0015,東京都台東区東上野1-1-1　O＆K1.1.1,24時間営業,,
1218,すき家,19号土岐店,35.3667141070414,137.189077428484,509-5106,岐阜県土岐市泉仲森町1丁目17,24時間営業,,
1219,すき家,1国豊川御油店,34.8504676720174,137.317077514107,441-0211,愛知県豊川市御油町池田53-4,24時間営業,,
1220,すき家,1国戸塚店,35.3923127074277,139.523887623662,244-0003,神奈川県横浜市戸塚区戸塚町3153-45,24時間営業,,
1222,すき家,11号松山久米窪田店,33.8089669820974,132.808305199054,791-1101,愛媛県松山市久米窪田町1162番1,24時間営業,,
1223,すき家,江東千石店,35.6797201276814,139.816203724009,135-0015,東京都江東区千石二丁目9番9,24時間営業,,
1224,すき家,葛飾南水元店,35.7799520888614,139.858431712768,125-0035,東京都葛飾区南水元2丁目30-5,24時間営業,,
1225,すき家,西京区樫原店,34.973038460003,135.695535704363,615-8183,京都府京都市西京区樫原分田16-3,24時間営業,,
1226,すき家,14号江戸川一之江店,35.7022455329716,139.881923895453,132-0024,東京都江戸川区一之江1-8-4,24時間営業,,
1227,すき家,155号豊田浄水店,35.1154700590691,137.13633921065,470-0343,愛知県豊田市浄水町南平187番371,24時間営業,,
1228,すき家,大田南六郷店,35.5461402837426,139.722787910803,144-0045,東京都大田区南六郷二丁目34-7,24時間営業,,
1229,すき家,大井町駅南店,35.6043859189204,139.734152062776,140-0014,東京都品川区大井4-3-1　かんべ土地Ｋ-7ビル1Ｆ,24時間営業,,
1230,すき家,1国茅ヶ崎十間坂店,35.3311120954846,139.400342646494,253-0045,神奈川県茅ヶ崎市十間坂三丁目2番2号,24時間営業,,
1231,すき家,吉野町店,35.4348431245692,139.61737012386,232-0014,神奈川県横浜市南区吉野町五丁目22番地17号　朝日ヶ丘ニュースカイマンション1階,24時間営業,,
1232,すき家,千葉小倉店,35.6236930033922,140.178449275267,264-0007,千葉県千葉市若葉区小倉町862-3,24時間営業,,
1233,すき家,名古屋志賀本通店,35.1960401947524,136.921853869026,462-0853,愛知県名古屋市北区志賀本通2丁目2番,24時間営業,,
1234,すき家,伊勢崎上諏訪店,36.3293635279489,139.218127090876,372-0021,群馬県伊勢崎市上諏訪町1523-14,24時間営業,,
1235,すき家,幡ヶ谷駅前店,35.6766585767197,139.676858770789,151-0072,東京都渋谷区幡ヶ谷1丁目33　シャトーフタバ1F,24時間営業,,
1236,すき家,稲敷江戸崎店,35.9603258030661,140.316835892649,300-0504,茨城県稲敷市江戸崎甲2141-3,24時間営業,,
1237,すき家,久米川駅前店,35.7494288737223,139.471554970247,189-0013,東京都東村山市栄町二丁目9番32　晃正プラザビル1Ｆ,24時間営業,,
1238,すき家,3号薩摩川内店,31.8306010997182,130.296268807601,895-0061,鹿児島県薩摩川内市御陵下町字住連木14番18号,月～金 9:30～翌4:00　土日 9:30～24:00,,
1239,すき家,七尾藤橋店,37.0385689592204,136.954184952612,926-0816,石川県七尾市藤橋町戌12番1号,24時間営業,,
1240,すき家,イオンタウン太子店,34.8332069522134,134.593933630202,671-1521,兵庫県揖保郡太子町東出262-1,月 9:00～24:00　火～金 0:00～24:00　,土 0:00～22:00　日 9:00～22:00,
1241,すき家,池上通り中央店,35.5762080222128,139.713823937398,143-0024,東京都大田区中央七丁目3番1号　カバヤビル1Ｆ,24時間営業,,
1242,すき家,三軒茶屋二丁目店,35.6413708225668,139.668863004161,154-0017,東京都世田谷区世田谷区三軒茶屋2-11-24　サンタワーズA101,24時間営業,,
1243,すき家,三郷上彦名店,35.8493200517543,139.84852628568,341-0004,埼玉県三郷市上彦名231-1,24時間営業,,
1244,すき家,16号狭山上奥富店,35.8736281449181,139.427031560015,350-1333,埼玉県狭山市上奥富51-1,24時間営業,,
1245,すき家,12号滝川東町店,43.5555612600983,141.927044097092,073-0024,北海道滝川市東町2丁目42番7,24時間営業,,
1246,すき家,34号大村店,32.9299808009594,129.95038052156,856-0812,長崎県大村市桜馬場2-369-1、370-1,24時間営業,,
1247,すき家,25号平野加美西店,34.6248719486063,135.560276302803,547-0005,大阪府大阪市平野区加美西1-6-16,24時間営業,,
1248,すき家,464号千葉NT白井店,35.7839338356535,140.046428138711,270-1431,千葉県白井市根447-2,24時間営業,,
1249,すき家,13号米沢花沢店,37.9177882043133,140.132071935684,992-0021,山形県米沢市花沢710-7,24時間営業,,
1251,すき家,札幌北郷店,43.0528965299121,141.424774511757,003-0833,北海道札幌市白石区北郷3条8丁目1番1,24時間営業,,
1252,すき家,3号小倉北到津店,33.8739577894472,130.851185299026,803-0845,福岡県北九州市小倉北区上到津2-3-15　1F,24時間営業,,
1253,すき家,町田小山店,35.5935816789704,139.377548287007,194-0212,東京都町田市小山町959-1,24時間営業,,
1254,すき家,139号都留田野倉店,35.6017714426776,138.937088934089,402-0001,山梨県都留市田野倉102,24時間営業,,
1255,すき家,26号堺山本店,34.5878443609801,135.471646757295,590-0983,大阪府堺市堺区山本町3丁目78,24時間営業,,
1256,すき家,41号大口店,35.3365929437254,136.922129040843,480-0142,愛知県丹羽郡大口町中小口三丁目72番1,24時間営業,,
1257,すき家,248号岡崎上六名店,34.9488398644562,137.154421492823,444-0859,愛知県岡崎市上六名町2丁目7-7,24時間営業,,
1258,すき家,横浜山下町店,35.4440750729238,139.642320126683,231-0023,神奈川県横浜市中区山下町195-3,24時間営業,,
1259,すき家,弘前中野店,40.5824430713816,140.475075750837,036-8155,青森県弘前市中野二丁目1番6,24時間営業,,
1261,すき家,曽根崎東店,34.7020035305116,135.502947234494,530-0051,大阪府大阪市北区太融寺町5-8　ダイヤモンドレジャ-ビル本館1F,24時間営業,※2月25日(月)朝9:00～3月12日(火)朝9:00 まで、改装工事のため一時閉店いたします。,
1262,すき家,狭山富士見店,35.8522636099855,139.418247717717,350-1306,埼玉県狭山市富士見一丁目16番24号,24時間営業,,
1263,すき家,25号八尾永畑店,34.6117220602291,135.597462708904,581-0083,大阪府八尾市永畑町一丁目2番58号,24時間営業,,
1265,すき家,上石神井駅前店,35.7258679338531,139.591527202678,177-0044,東京都練馬区上石神井一丁目13番17号,24時間営業,,
1266,すき家,武蔵村山伊奈平店,35.7422907357692,139.375419394019,208-0023,東京都武蔵村山市伊奈平5丁目１番1号,24時間営業,,
1267,すき家,福岡舞鶴店,33.59103587968,130.392923329345,810-0073,福岡県福岡市中央区舞鶴1丁目2番12号,24時間営業,,
1268,すき家,21号可児御嵩IC店,35.4300653615869,137.092234498527,509-0212,岐阜県可児市柿田字細池829番1,24時間営業,,
1269,すき家,小牧春日寺店,35.259017796075,136.931630990464,485-0025,愛知県小牧市春日寺二丁目329番,5:00～24:00,,
1270,すき家,浜松三方原店,34.7806260780719,137.720508892142,433-8105,静岡県浜松市北区三方原町795-5,24時間営業,,
1271,すき家,愛川中津店,35.5212288507073,139.329175358169,243-0303,神奈川県愛甲郡愛川町中津160-1,24時間営業,,
1272,すき家,島田井口店,34.7981025536827,138.230058269794,427-0104,静岡県島田市井口840,24時間営業,,
1273,すき家,京都太秦店,35.0192290625468,135.710726482523,616-8217,京都府京都市右京区常盤東ノ町6番3,24時間営業,,
1274,すき家,26号岸和田下池田店,34.4697260224645,135.400067029781,596-0811,大阪府岸和田市下池田町1丁目2-3,24時間営業,,
1275,すき家,緑区平手北店,35.0843574891695,136.989528669098,458-0008,愛知県名古屋市緑区平手北1丁目920番,月～金 9:00～24:00 ,土日 10:00～24:00,
1276,すき家,1国浜松卸本町店,34.6705701935245,137.727469492897,432-8055,静岡県浜松市南区卸本町103-1,24時間営業,,
1277,すき家,狭山広瀬店,35.8562154179394,139.386924303797,350-1319,埼玉県狭山市広瀬二丁目35番12号,24時間営業,,
1278,すき家,199号若松東二島店,33.886688907381,130.754604678176,808-0102,福岡県北九州市若松区東二島3丁目2-45,24時間営業,,
1279,すき家,浜松鍛冶町店,34.7058706363951,137.73044428704,430-0933,静岡県浜松市中区鍛冶町320-19　有楽ビル1階,※3月5日(火)朝9:00～3月12日(火)朝9:00 まで、改装工事のため一時閉店いたします。,月～木 10:00～22:00　金～土 0:00～24:00,日 10:00～22:00
1281,すき家,垂水塩屋北店,34.6495344737634,135.092530957445,655-0862,兵庫県神戸市垂水区朝谷町20番7,24時間営業,,
1282,すき家,35号佐世保大和店,33.1590672661568,129.751379555278,857-1165,長崎県佐世保市大和町749-1,24時間営業,,
1283,すき家,岡山大学前店,34.6845396922756,133.91995533802,700-0011,岡山県岡山市北区学南町2-811-1　メゾン仏蘭西1F,24時間営業,,
1284,すき家,長吉出戸店,34.608575518156,135.569425182283,547-0011,大阪府大阪市平野区長吉出戸五丁目3番62,24時間営業,,
1285,すき家,中村黄金通店,35.1652270590233,136.871705008243,453-0804,愛知県名古屋市中村区黄金通2-55,24時間営業,,
1286,すき家,川崎下麻生店,35.5740924738897,139.510450924756,215-0022,神奈川県川崎市麻生区下麻生3-46-6,24時間営業,,
1287,すき家,新田市野井店,36.3063901618275,139.298211220032,370-0314,群馬県太田市新田市野井町771-1,月 10:00～24:00　火～木 0:00～24:00,金 0:00～翌3:00　土日 10:00～24:00,
1288,すき家,248号岡崎岩津店,35.0076591092068,137.169210056211,444-2144,愛知県岡崎市岩津町字新城107-7,10:00～22:00,,
1289,すき家,41号下呂店,35.899843499353,137.206541984749,509-2518,岐阜県下呂市萩原町上呂字堂前1624-1,24時間営業,,
1290,すき家,豊岡野田店,35.5534004599723,134.815687606722,668-0014,兵庫県豊岡市野田字野田95-1,24時間営業,,
1291,すき家,西九条駅前店,34.6824982918453,135.465260151413,554-0012,大阪府大阪市此花区西九条4-3-39　村本ビル1Ｆ,24時間営業,,
1292,すき家,長崎銅座町店,32.743536406425,129.877032698188,850-0841,長崎県長崎市銅座町6-1　銅座松尾ビル1Ｆ,24時間営業,,
1293,すき家,川西火打店,34.8356085555043,135.416049965823,666-0017,兵庫県川西市火打二丁目9番23号,24時間営業,,
1294,すき家,150号御前崎浜岡店,34.6335321269874,138.136147813572,437-1612,静岡県御前崎市池新田字下水神7625-2,24時間営業,,
1295,すき家,大船駅前店,35.3535767108737,139.531787917883,247-0056,神奈川県鎌倉市大船一丁目5番9号　イトービル1階,24時間営業,,
1296,すき家,140号寄居店,36.1219463726857,139.192259067855,369-1203,埼玉県大里郡寄居町寄居1538,24時間営業,,
1297,すき家,住吉長居公園通店,34.6091501907851,135.52239683926,558-0004,大阪府大阪市住吉区長居東一丁目1-31,24時間営業,,
1298,すき家,福井日光店,36.0716766618548,136.197527314588,910-0029,福井県福井市日光二丁目27番13,24時間営業,,
1299,すき家,高崎棟高店,36.3794664646185,139.009237965184,370-3521,群馬県高崎市棟高町1868番113号,24時間営業,,
1301,すき家,天神橋二丁目店,34.6972505833792,135.511855324654,530-0041,大阪府大阪市北区天神橋二丁目4番14号　盛岡ビル1F,24時間営業,,
1302,すき家,瑞穂弥富通店,35.1205511593048,136.960095280247,467-0064,愛知県名古屋市瑞穂区弥富通五丁目31番,24時間営業,,
1303,すき家,姫路南条店,34.8141282018858,134.691773327663,670-0952,兵庫県姫路市南条字宅地191-1,24時間営業,,
1304,すき家,168号生駒壱分店,34.6691842188157,135.707146787129,630-0233,奈良県生駒市有里町108-1,24時間営業,,
1305,すき家,目白通り高野台店,35.7472800913891,139.623524392714,177-0033,東京都練馬区高野台二丁目5番15号,24時間営業,,
1306,すき家,14号江戸川篠崎店,35.702893023635,139.901256982265,133-0061,東京都江戸川区篠崎町7丁目1-17,24時間営業,,
1307,すき家,静岡松富店,35.0114325254226,138.373862337179,420-0941,静岡県静岡市葵区松富二丁目1番51号,24時間営業,,
1308,すき家,十条仲原店,35.7658300833655,139.720752686048,114-0031,東京都北区十条仲原二丁目8番11号　ニシワキビル,24時間営業,,
1309,すき家,18号上田大屋店,36.3722835493612,138.289468905434,386-0152,長野県上田市大屋347-8,24時間営業,,
1310,すき家,環状4号泉区和泉店,35.3923654715083,139.491621134268,245-0016,神奈川県横浜市泉区下和泉1-4-3,24時間営業,,
1311,すき家,東白楽駅前店,35.4828915369956,139.629872428637,221-0065,神奈川県横浜市神奈川区白楽4-6　ハートビル,24時間営業,,
1312,すき家,松戸古ヶ崎店,35.7934291150285,139.897928367589,271-0068,千葉県松戸市古ヶ崎764-1,24時間営業,,
1313,すき家,16号木更津貝渕店,35.3695226375656,139.921025968869,292-0833,千葉県木更津市貝渕四丁目10番9号,24時間営業,,
1314,すき家,愛知学院大学前店,35.1644954063904,137.042958041747,480-1114,愛知県長久手市長配2-601,24時間営業,,
1315,すき家,329号北中城店,26.3028647539221,127.809950106174,901-2302,沖縄県中頭郡北中城村字渡口456-3,24時間営業,,
1316,すき家,阪神野田駅前店,34.6943280345499,135.475260998353,553-0001,大阪府大阪市福島区海老江一丁目1番17号　野田アプラ105号,24時間営業,,
1317,すき家,41号豊山店,35.259092920305,136.907397721778,480-0201,愛知県西春日井郡豊山町青山字江川73-1,24時間営業,,
1318,すき家,港南台店,35.3735250823212,139.576609665809,234-0054,神奈川県横浜市港南区港南台四丁目3番1号　港南台ビーバービル1F,24時間営業,,
1319,すき家,イオンモール太田店,36.2940654885683,139.40047440579,373-0808,群馬県太田市石原町81　イオンモール太田2F,10:00～22:00,,
1320,すき家,52号甲府宝店,35.6603555335148,138.559960889957,400-0034,山梨県甲府市宝2丁目25番8号,24時間営業,,
1321,すき家,上尾駅西口店,35.9732730547296,139.586765094854,362-0042,埼玉県上尾市谷津二丁目1番41号,24時間営業,,
1322,すき家,289号三条東裏館店,37.6393186570325,138.961676403032,955-0081,新潟県三条市東裏館3丁目1-7,24時間営業,,
1323,すき家,16号横浜下白根店,35.4796475883359,139.558878196239,241-0011,神奈川県横浜市旭区川島町2846-5,24時間営業,,
1324,すき家,288号田村店,37.4361460682249,140.590861844985,963-4312,福島県田村市船引町船引字舘柄前89番1,月～木 9:00～24:00,金土 7:00～24:00,日 9:00～24:00
1325,すき家,豊田吉原店,35.0156294455545,137.094147589739,473-0916,愛知県豊田市吉原町向イ野8-5,24時間営業,,
1326,すき家,堺筋恵美須町店,34.6561626431381,135.505396919651,556-0005,大阪府大阪市浪速区日本橋五丁目13番18号　フォレシティ日本橋Ｖ1Ｆ,24時間営業,,
1327,すき家,19号松本村井店,36.1868440909846,137.96417640401,399-0035,長野県松本市村井町北2-8-45,24時間営業,,
1328,すき家,フォレオせんだい宮の杜店,38.2766078246787,140.908120963039,983-0833,宮城県仙台市宮城野区東仙台4丁目14番3号,24時間営業,,
1329,すき家,155号津島店,35.1846867159024,136.71677864535,496-0868,愛知県津島市申塚町二丁目143番1号,月 2:00～24:00 火～木 0:00～24:00 金 0:00～22:00,土 6:00～22:00,日 6:00～24:00
1330,すき家,フレスポ若葉台店,35.6201852216697,139.472926918669,206-0824,東京都稲城市若葉台二丁目1番地1,24時間営業,,
1331,すき家,柏松葉町店,35.8924635120264,139.9609541287,277-0827,千葉県柏市松葉町七丁目36番1号,10:00～22:00,,
1332,すき家,ウィラ大井店,35.5970713281216,139.744593476883,140-0012,東京都品川区勝島一丁目6番16号,9:00～22:00,,
1333,すき家,122号騎西店,36.1055044228006,139.568347202286,347-0105,埼玉県加須市騎西字高道460-1,24時間営業,,
1334,すき家,40号名寄店,44.3448494371644,142.457548972767,096-0014,北海道名寄市西四条南十丁目56番1号,24時間営業,,
1335,すき家,4号下野笹原店,36.399625200896,139.855467313916,329-0402,栃木県下野市笹原字海道向83-1,24時間営業,,
1336,すき家,川崎潮見台店,35.5937621502045,139.532853158546,216-0013,神奈川県川崎市宮前区潮見台10-2,24時間営業,,
1337,すき家,11号高松檀紙店,34.3058357189538,133.997448284832,761-8041,香川県高松市檀紙町字八幡1513番5,24時間営業,,
1338,すき家,成田取香店,35.784508532443,140.382448261638,286-0106,千葉県成田市取香529-1,10:00～翌2:00,,
1339,すき家,常総石下店,36.1096975888217,139.982013210173,300-2706,茨城県常総市新石下3987,24時間営業,,
1340,すき家,4号福島伊達店,37.8169679553616,140.502320551539,960-0427,福島県伊達市鍛冶屋川27番1,24時間営業,,
1341,すき家,札幌北33条店,43.0997836589405,141.340788772141,001-0033,北海道札幌市北区北三十三条西四丁目1番12号,24時間営業,,
1342,すき家,尼崎浜田店,34.728054179856,135.39749090411,661-0967,兵庫県尼崎市浜田四丁目41番1,10:00～22:00,,
1343,すき家,太田内ヶ島店,36.2907010242764,139.394638656477,373-0813,群馬県太田市内ヶ島町1492-5,24時間営業,,
1344,すき家,小樽有幌店,43.1891566529901,141.009891304207,047-0006,北海道小樽市有幌町2番14号,24時間営業,,
1345,すき家,さいたま領家店,35.8810982483675,139.653626841953,330-0072,埼玉県さいたま市浦和区領家四丁目14番5号,24時間営業,,
1346,すき家,大宮桜木町店,35.908532516862,139.620714145397,330-0854,埼玉県さいたま市大宮区桜木町2丁目362　シンメイ桜木ビル1階,24時間営業,,
1347,すき家,188号光浅江店,33.9708995644983,131.928091954607,743-0021,山口県光市浅江一丁目11番7号,24時間営業,,
1348,すき家,330号浦添内間店,26.2365847748582,127.707436671799,901-2121,沖縄県浦添市内間二丁目6番9号　２階,24時間営業,,
1349,すき家,17号BP戸田美女木店,35.8277289455717,139.637082340108,335-0031,埼玉県戸田市美女木七丁目1番1号,24時間営業,,
1350,すき家,仙台広瀬通一番町店,38.2625734013644,140.871099406108,980-0811,宮城県仙台市青葉区一番町四丁目3-1　菅原酒店ビル1階,24時間営業,,
1351,すき家,津IC店,34.6968005547542,134.982671238079,514-0038,三重県津市西古河町19-13,24時間営業,,
1352,すき家,151号豊川IC店,34.8345690456609,137.409682499872,442-0809,愛知県豊川市大橋町二丁目1番,9:00～24:00,,
1353,すき家,八丁堀四丁目店,35.6744427710459,139.776192845437,104-0032,東京都中央区八丁堀四丁目8番2号　秀和第二桜橋ビル1階,24時間営業,,
1354,すき家,大田久が原店,35.5794579573386,139.698205362635,146-0085,東京都大田区久が原五丁目3番6号,24時間営業,,
1355,すき家,42号田辺店,33.7381639239574,135.396112433151,646-0004,和歌山県田辺市下万呂362-2,24時間営業,,
1356,すき家,下赤塚駅前店,35.7702618932853,139.644772958691,175-0093,東京都板橋区赤塚新町一丁目23番5号　プロスパービル上野1階,24時間営業,,
1357,すき家,413号津久井三ケ木店,35.5883086358486,139.234651786127,252-0159,神奈川県相模原市緑区三ケ木405-1,24時間営業,,
1358,すき家,谷町三丁目店,34.6830927436295,135.517028602496,540-0012,大阪府大阪市中央区谷町三丁目5番5号　アイドゥビル1F,24時間営業,,
1360,すき家,170号寝屋川高宮店,34.7574315148793,135.631548168691,572-0806,大阪府寝屋川市高宮一丁目10番27号,24時間営業,,
1361,すき家,19号多治見音羽店,35.3381233790961,137.115452637244,507-0037,岐阜県多治見市音羽町4-1,24時間営業,,
1362,すき家,新小岩店,35.7181784075159,139.857806553608,124-0025,東京都葛飾区西新小岩一丁目9番7号,24時間営業,,
1363,すき家,南港通り北加賀屋店,34.6212886543198,135.476958665034,559-0011,大阪府大阪市住之江区北加賀屋2丁目11番8号　北加賀屋千島ビル,24時間営業,,
1364,すき家,姫路中地店,34.8088740883629,134.662642377786,672-8071,兵庫県姫路市飾磨区構2丁目112番,24時間営業,,
1365,すき家,奈良富雄店,34.6834471504797,135.739684539247,631-0061,奈良県奈良市三碓七丁目1番23号,24時間営業,,
1366,すき家,西五反田七丁目店,35.6224192983558,139.719996574664,141-0031,東京都品川区西五反田七丁目13番5号　ＤＫ五反田ビル,24時間営業,,
1367,すき家,池袋サンシャイン前店,35.7288689796795,139.717485492657,170-0013,東京都豊島区東池袋四丁目25番9号　タイムズステーション池袋,24時間営業,,
1368,すき家,足立扇店,35.7646549674556,139.770531939369,123-0873,東京都足立区扇二丁目26番42号,24時間営業,,
1369,すき家,甲州街道柴崎店,35.6558769322246,139.566774981186,182-0007,東京都調布市菊野台一丁目47-1,24時間営業,,
1370,すき家,阪急伊丹店,34.7796428635393,135.415395930511,664-0851,兵庫県伊丹市中央一丁目6番14号,24時間営業,,
1371,すき家,津上浜町店,34.7409985688481,136.507257309636,514-0008,三重県津市津市上浜町六丁目101-3,24時間営業,,
1372,すき家,152号浜松篠ヶ瀬店,34.7245064199089,137.77809697141,435-0042,静岡県浜松市東区篠ヶ瀬町1182,月～火 5:00～24:00　水 0:00～24:00　木～金 5:00～24:00,土～日 0:00～24:00,
1373,すき家,170号熊取店,34.4032692190038,135.351051660582,590-0412,大阪府泉南郡熊取町紺屋二丁目5番5号,24時間営業,,
1374,すき家,目黒駅東口店,35.6343321266125,139.716320775834,141-0021,東京都品川区上大崎二丁目15番21号,24時間営業,,
1375,すき家,竹芝店,35.6551440325691,139.762044909054,105-0022,東京都港区海岸一丁目9番11号,24時間営業,,
1376,すき家,福山蔵王店,34.5051179191393,133.40357620685,721-0973,広島県福山市南蔵王町5丁目16番23号,24時間営業,,
1377,すき家,神田駅南店(旧：日本橋室町店）,35.6895991378277,139.772320524684,103-0022,東京都中央区日本橋室町四丁目3番11号　ds-Muromachi １Ｆ,24時間営業,,
1378,すき家,大網白里店,35.521567758722,140.302411182879,299-3245,千葉県大網白里市池田99,24時間営業,,
1379,すき家,大阪鶴見今津北店,34.6960927185351,135.579294221675,538-0041,大阪府大阪市鶴見区今津北四丁目4番3号,24時間営業,,
1380,すき家,町田金井店,35.574665008216,139.468213850588,195-0071,東京都町田市金井町1603-1,24時間営業,,
1381,すき家,岐阜本荘店,35.4141442046625,136.73767551078,500-8323,岐阜県岐阜市鹿島町六丁目3番2号,月～木 9:00～24:00,金土 5:00～24:00,日 9:00～24:00
1382,すき家,札幌北野店,43.0237643451215,141.439359919672,004-0867,北海道札幌市清田区北野7条3丁目5番5号,9:30～翌5:00,,
1383,すき家,152号浜北内野店,34.7825404862163,137.76195897271,434-0044,静岡県浜松市浜北区内野2691,24時間営業,,
1384,すき家,2国明石天文町店,34.6472139205449,134.998941336832,673-0881,兵庫県明石市天文町1丁目8-6,24時間営業,,
1385,すき家,福島西BP店,37.7620776633037,140.435729998232,960-8071,福島県福島市東中央3丁目47-2,月～金 10:00～24:00　土日 0:00～24:00,,
1386,すき家,横浜南幸二丁目店,35.4635339482365,139.617574341336,220-0005,神奈川県横浜市西区南幸二丁目9番16号　第8浅川ビル1Ｆ,24時間営業,,
1387,すき家,鶴ヶ峰駅前店,35.4747329614908,139.550146647689,241-0022,神奈川県横浜市旭区鶴ヶ峰2-82-1　ココロット鶴ヶ峰1F,24時間営業,,
1388,すき家,507号八重瀬店,26.1573890437924,127.721322776387,901-0405,沖縄県島尻郡八重瀬町字伊覇46-4,24時間営業,,
1389,すき家,近畿大学店,34.6509030132459,135.589794597134,577-0813,大阪府東大阪市新上小阪5-86　近畿大学Eキャンパス構内,月〜金 10:00〜20:00,土 10:00～17:00,日祝日（大学の行事により変則営業になる場合があります）
1390,すき家,303号大野店,35.4680202701455,136.619695883619,501-0565,岐阜県揖斐郡大野町大字中之元字下姥田928-4,24時間営業,,
1391,すき家,1国藤沢辻堂店,35.3442253780947,139.445932145392,251-0041,神奈川県藤沢市辻堂神台二丁目8-17,24時間営業,,
1392,すき家,環七山王店,35.5894911411083,139.719275373016,143-0023,東京都大田区山王四丁目12番4号,24時間営業,,
1395,すき家,366号東浦店,34.95290178957,136.971452612295,470-2104,愛知県知多郡東浦町大字生路字前田20番地,月～木 10:00～23:00 金 10:00～24:00,土日 10:00～24:00,
1396,すき家,越谷相模町店,35.8835067231519,139.803694823596,343-0823,埼玉県越谷市相模町1-233-1,24時間営業,,
1397,すき家,船橋夏見台店,35.7285796740607,139.994007818828,273-0866,千葉県船橋市夏見台五丁目9-1,24時間営業,,
1398,すき家,204号佐世保田原店,33.2080609080803,129.719197749728,857-0136,長崎県佐世保市佐世保市田原町17-23,24時間営業,,
1399,すき家,立売堀二丁目店,34.6789427653235,135.49285830091,550-0012,大阪府大阪市西区立売堀二丁目4番6号　ＤＧビルなにわ筋1Ｆ,24時間営業,,
1400,すき家,港北箕輪町店,35.5436324770319,139.642164166452,223-0051,神奈川県横浜市港北区箕輪町二丁目5番5号,24時間営業,,
1401,すき家,宮崎東大淀店,31.8941436582194,131.420243925448,880-0901,宮崎県宮崎市東大淀二丁目3番41号,24時間営業,,
1402,すき家,内環状守口太子橋店,34.7326567222246,135.555321751136,570-0084,大阪府守口市緑町3番12号,24時間営業,,
1403,すき家,川崎南加瀬店,35.5457367313849,139.660069526979,212-0055,神奈川県川崎市幸区南加瀬四丁目16番9号,24時間営業,,
1404,すき家,江東新砂店,35.6675080594823,139.829754827595,136-0075,東京都江東区新砂3-2-6　SGHレジデンス新砂1Ｆ,24時間営業,,
1405,すき家,桜川駅前店,34.6688590249603,135.487322002796,556-0021,大阪府大阪市浪速区幸町二丁目8番8号　常盤機械ビル1Ｆ,24時間営業,,
1406,すき家,開成店,35.3318698002124,139.130454192262,258-0021,神奈川県足柄上郡開成町吉田島783-1,24時間営業,,
1407,すき家,東大阪菱屋西店,34.6693669542511,135.578619952751,577-0807,大阪府東大阪市菱屋西６丁目9番15,24時間営業,,
1408,すき家,戸塚駅西口店,35.4010110800396,139.531692408283,244-0003,神奈川県横浜市戸塚区戸塚町4080-1　LEON-Kビル1F,24時間営業,,
1409,すき家,鹿島田駅前店,35.55108,139.675702,212-0058,神奈川県川崎市幸区鹿島田1丁目18-6 KSビル1F,24時間営業,,
1410,すき家,12号岩見沢店,43.1935407281759,141.763024666403,068-0029,北海道岩見沢市九条西10丁目1番39号,月～木 5:00～翌2:00　金 5:00～24:00,土 0:00～24:00　日 0:00～翌2:00,
1411,すき家,川口芝店,35.8389315635734,139.696534109071,332-0015,埼玉県川口市芝宮根町7番2号,24時間営業,,
1412,すき家,37号室蘭中島店,42.349437965562,141.016007795886,050-0074,北海道室蘭市中島町2丁目6番12号,24時間営業,,
1413,すき家,宮原駅東口店,35.9402147808759,139.610376878366,331-0812,埼玉県さいたま市北区宮原町3-321　杉ビル・2　1F,24時間営業,,
1414,すき家,ソニー厚木テクノロジーセンター店,35.4333983985823,139.369767142476,243-0014,神奈川県厚木市旭町4-14-1,月〜金 8:00〜20:00,土日祝休み,
1415,すき家,鹿児島下荒田店,31.5787775400175,130.55418426139,890-0056,鹿児島県鹿児島市下荒田一丁目2番1号,24時間営業,,
1416,すき家,さいたま与野本町店,35.8790849605448,139.62800128506,338-0013,埼玉県さいたま市中央区鈴谷九丁目10番4号,24時間営業,,
1417,すき家,4号矢吹店,37.1990700021054,140.3185098246,969-0202,福島県西白河郡矢吹町新町205番1号,24時間営業,,
1418,すき家,大田東邦医大通店,35.5779108482529,139.727014152441,143-0015,東京都大田区大森西一丁目8番17号,24時間営業,,
1419,すき家,春日部ユリノキ通り店,35.9695864161982,139.756633379428,344-0038,埼玉県春日部市大沼4-19,24時間営業,,
1420,すき家,太宰府向佐野店,33.5078524037311,130.495592799734,818-0135,福岡県太宰府市向佐野三丁目3番35号,24時間営業,,
1421,すき家,堺黒土店,34.5661088461087,135.499906244553,591-8024,大阪府堺市北区黒土町2355-1,24時間営業,,
1422,すき家,8号金沢福久店,36.6168743381173,136.683632394978,920-3123,石川県金沢市福久東一丁目37番地,24時間営業,,
1423,すき家,名古屋ベイシティ前店,35.1048306274913,136.86519027479,455-0055,愛知県名古屋市港区品川町一丁目2番3号,24時間営業,,
1424,すき家,青梅新町店,35.7834819756039,139.316967907195,198-0024,東京都青梅市新町七丁目6番10号,24時間営業,,
1425,すき家,仙台泉中央店,38.3206760004535,140.882702155963,981-3133,宮城県仙台市泉区泉中央1丁目1-4,24時間営業,,
1426,すき家,2国兵庫駅前店,34.667058052022,135.16614986989,652-0807,兵庫県神戸市兵庫区浜崎通2-10,24時間営業,,
1427,すき家,摂津鳥飼中店,34.7800608683501,135.589980301079,566-0064,大阪府摂津市鳥飼中2丁目2-50,24時間営業,,
1428,すき家,京阪枚方市駅前店,34.8154725312674,135.64758083126,573-0031,大阪府枚方市岡本町3-4　N´s Square　1F,24時間営業,,
1429,すき家,清水IC店,35.036460559166,138.478163911457,424-0024,静岡県静岡市清水区八坂東二丁目16番21号,24時間営業,,
1430,すき家,府中栄店,35.6883847047578,139.479286305719,183-0051,東京都府中市栄町2-22-1,24時間営業,,
1431,すき家,さいたま本郷町店,35.9440293343801,139.624076120564,331-0802,埼玉県さいたま市北区本郷町689-1,24時間営業,,
1432,すき家,小田原扇町店,35.2668539283228,139.15949727403,250-0001,神奈川県小田原市扇町二丁目5番9号,24時間営業,,
1435,すき家,140号秩父野坂店,35.9895403401364,139.085691515061,368-0033,埼玉県秩父市野坂町二丁目1番21号,9:30～24:00,,
1436,すき家,16号相模原橋本店,35.5949697581306,139.339691367073,252-0143,神奈川県相模原市緑区橋本2丁目22番18号,24時間営業,,
1437,すき家,和歌山秋月店,34.2297277415382,135.205661726105,640-8322,和歌山県和歌山市秋月304-5,24時間営業,,
1438,すき家,環八高井戸店,35.678609774115,139.614233048618,168-0071,東京都杉並区高井戸西1丁目1番28号,24時間営業,,
1439,すき家,千葉蘇我店,35.5863561613353,140.130609689764,260-0842,千葉県千葉市中央区南町一丁目2番9,24時間営業,,
1440,すき家,緑区鳴海店,35.086812348276,136.948786661869,458-0847,愛知県名古屋市緑区浦里三丁目317,月～木 10:00～24:00,金土 10:00～23:00,日 10:00～24:00
1441,すき家,北谷国体道路店,26.3297432291542,127.775928082894,904-0101,沖縄県中頭郡北谷町上勢頭544-6,9:00～22:00,,
1442,すき家,105号大仙北長野店,39.5521995615772,140.54919675674,014-0203,秋田県大仙市北長野字道下117番1,24時間営業,,
1443,すき家,サンライズ蒲田店,35.5622941908477,139.711429776917,144-0051,東京都大田区西蒲田７丁目51-2　ベルコーサ1階,24時間営業,,
1444,すき家,神戸キャンパススクエア店,34.6828400245169,135.057660930868,651-2103,兵庫県神戸市西区学園西町一丁目4番地,9:00～22:00,,
1445,すき家,昭和円上店,35.1403675195543,136.920773466742,466-0054,愛知県名古屋市昭和区円上町2804番,24時間営業,,
1446,すき家,50号岩舟静店,36.3137428809092,139.657929340533,329-4307,栃木県栃木市岩舟町静2167-1,24時間営業,,
1448,すき家,川崎藤崎店,35.5245220386039,139.722680026323,210-0804,神奈川県川崎市川崎区藤崎４丁目19番3号,24時間営業,,
1449,すき家,葛飾亀有一丁目店,35.756895978285,139.84450059806,125-0061,東京都葛飾区亀有一丁目14番5号,24時間営業,,
1450,すき家,足立鹿浜店,35.783826190855,139.751230437347,123-0864,東京都足立区鹿浜二丁目34番17号,24時間営業,,
1451,すき家,十和田元町店,40.6232301256747,141.208204375947,034-0003,青森県十和田市元町東一丁目2番19号,24時間営業,,
1452,すき家,153号天白植田西店,35.1314584291385,136.981903244649,468-0058,愛知県名古屋市天白区植田西3丁目902番,24時間営業,,
1453,すき家,4号矢板店,36.8033782578389,139.942510104687,329-2135,栃木県矢板市中691-1,24時間営業,,
1454,すき家,42号新宮神倉店,33.7198620306755,135.986689784536,647-0044,和歌山県新宮市神倉三丁目1291番1,24時間営業,,
1455,すき家,1国横浜不動坂店,35.4167246588451,139.546551006286,244-0812,神奈川県横浜市戸塚区柏尾町928-1,24時間営業,,
1456,すき家,東村山秋津店,35.7725437924248,139.481222547441,189-0001,東京都東村山市秋津町三丁目47-3,24時間営業,,
1457,すき家,４号越谷大間野店,35.8639370193767,139.780332664923,343-0844,埼玉県越谷市大間野町2丁目207-4,24時間営業,,
1458,すき家,155号岩倉店,35.2927308261122,136.882167434881,482-0031,愛知県岩倉市八剱町江迎18番,月 0:00～24:00 火～金 5:00～24:00,土日 0:00～24:00,
1459,すき家,代々木一丁目店,35.683472996098,139.701248931426,151-0053,東京都渋谷区代々木一丁目37番地6号,24時間営業,,
1461,すき家,京阪天満橋駅西店,34.6898500283026,135.514273797907,540-0031,大阪府大阪市中央区北浜東2番18号,24時間営業,,
1462,すき家,下関赤間店,33.9597724217944,130.942150181879,750-0007,山口県下関市赤間町3番35号,24時間営業,,
1463,すき家,イオンモール土浦店,36.0799095372227,140.181498570294,300-0811,茨城県土浦市上高津367イオンモール　土浦ショッピングセンター3F,10:00～22:00,,
1464,すき家,153号日進赤池店,35.120753900274,137.022840337769,470-0124,愛知県日進市浅田町笹原8-11,24時間営業,,
1465,すき家,31号呉海岸通り店,34.2456029462575,132.547520917952,737-0823,広島県呉市海岸一丁目7番12号,24時間営業,,
1466,すき家,調布入間店,35.6498275567022,139.581385712998,182-0004,東京都調布市入間町二丁目4番1,24時間営業,,
1467,すき家,23号南区元塩店,35.0858836556232,136.922528885317,457-0823,愛知県名古屋市南区元塩町1丁目5番,24時間営業,,
1468,すき家,豊田堤本町店,35.0514547609287,137.077134575238,473-0939,愛知県豊田市堤本町本地8番地3,24時間営業,,
1469,すき家,中川篠原橋通店,35.1408265192921,136.86631935686,454-0839,愛知県名古屋市中川区篠原橋通３丁目４番地,24時間営業,,
1470,すき家,八街稲荷丘店,35.6537539050684,140.302828117066,289-1115,千葉県八街市八街ほ945-84,24時間営業,,
1471,すき家,4号盛岡上田店,39.7219702718951,141.136464333978,020-0066,岩手県盛岡市上田四丁目20番47号,24時間営業,,
1472,すき家,浅草橋駅前店,35.6978315679876,139.786927821373,111-0052,東京都台東区柳橋一丁目23番3号　田中ビル1F,24時間営業,,
1473,すき家,17号魚沼店,37.2333905075228,138.967334069284,946-0076,新潟県魚沼市井口新田277-1,24時間営業,,
1474,すき家,綾瀬駅南店,35.7617978792339,139.824318992852,124-0001,東京都葛飾区小菅四丁目10番2号,24時間営業,,
1475,すき家,知多つつじが丘店,34.9878110704451,136.873702733986,478-0054,愛知県知多市つつじが丘一丁目19番11,24時間営業,,
1476,すき家,川崎木月店,35.5625308521705,139.648962176119,211-0025,神奈川県川崎市中原区木月3丁目53-7,24時間営業,,
1477,すき家,ライフガーデン新浦安店,35.6429213523645,139.899520999049,279-0021,千葉県浦安市富岡3丁目2-1,24時間営業,,
1478,すき家,須磨車店,34.690040440547,135.109667391334,654-0111,兵庫県神戸市須磨区車字奥中ノ尾767-1,24時間営業,,
1479,すき家,群馬吉井町店,36.2587415415014,138.990005954708,370-2107,群馬県高崎市吉井町池46-4,24時間営業,,
1480,すき家,イオンモール浜松市野店,34.7404811237262,137.76354494436,435-0052,静岡県浜松市東区天王町字諏訪1981-3イオンモール　浜松市野ショッピングセンター2F,10:00～22:00,,
1481,すき家,16号上尾瓦葺店,35.9640176953549,139.636737759738,362-0022,埼玉県上尾市大字瓦葺708-1,24時間営業,,
1482,すき家,アキバ田代通り店,35.7014873073052,139.772125826775,101-0021,東京都千代田区外神田四丁目5番8号　松孝商事ビル1F,24時間営業,,
1483,すき家,松戸六高台店,35.7943705150752,139.983845355579,270-2203,千葉県松戸市六高台1丁目71番,24時間営業,,
1484,すき家,日高鹿山店,35.8964667316283,139.342848055291,350-1231,埼玉県日高市大字鹿山字明婦247-5,24時間営業,,
1485,すき家,宇都宮インターパーク店,36.4876708159861,139.905036365259,321-0118,栃木県宇都宮市インターパーク6丁目5-2,24時間営業,,
1486,すき家,横浜善部町店,35.4505507953842,139.516599436153,241-0823,神奈川県横浜市旭区善部町16-1,24時間営業,,
1487,すき家,船橋駅南口店,35.6990488021688,139.985898740969,273-0005,千葉県船橋市本町1丁目7-6　ドリーム船橋ビル1Ｆ,24時間営業,,
1488,すき家,高松寿町店,34.3488317447255,134.049112292134,760-0023,香川県高松市寿町1丁目4-3　高松中央通りビル1F,24時間営業,,
1489,すき家,49号郡山菜根店,37.3837809785598,140.360488666289,963-8863,福島県郡山市字菜根屋敷59番22,10:00～24:00,,
1490,すき家,263号福岡野芥店,33.5404437930064,130.345327667278,814-0171,福岡県福岡市早良区野芥4丁目45番5号,24時間営業,,
1491,すき家,2国広島東雲店,34.3771488038744,132.495681943651,734-0022,広島県広島市南区東雲三丁目13番6号,24時間営業,,
1493,すき家,126号千葉弁天店,35.6238480023245,140.11572642165,260-0045,千葉県千葉市中央区弁天4丁目11-26,24時間営業,,
1494,すき家,一宮駅前店,35.3024083325194,136.798669757003,491-0858,愛知県一宮市栄3丁目7番1号　石照ビル1階,24時間営業,,
1495,すき家,武蔵小金井南口店,35.7000103302801,139.506772932102,184-0004,東京都小金井市本町6丁目14番45号　Ｏ.Ｓビル1Ｆ,24時間営業,,
1496,すき家,八潮南川崎店,35.8141889309871,139.855487047491,340-0814,埼玉県八潮市南川崎590番1,24時間営業,,
1497,すき家,西宮今津巽店,34.7233866678522,135.352319592692,663-8223,兵庫県西宮市今津巽町4-37,24時間営業,,
1499,すき家,川越諏訪町店,35.877577880917,139.499714508556,350-1147,埼玉県川越市諏訪町16-13,24時間営業,,
1500,すき家,水戸駅南口店,36.3694806297818,140.474664500433,310-0015,茨城県水戸市宮町一丁目7番44号　COMBOX310 302号室,24時間営業,,
1501,すき家,札幌ポールタウン店,43.0560457795817,141.353394461459,060-0063,北海道札幌市中央区南3条西3丁目10番地4　地下街ポールタウン内,7:30～22:00,,
1502,すき家,道頓堀一丁目店,34.6688482237477,135.504997479806,542-0071,大阪府大阪市中央区道頓堀一丁目1番11号　K-24ビル1F,24時間営業,,
1503,すき家,蒲郡三谷北通店,34.8194711895872,137.24913791705,443-0022,愛知県蒲郡市三谷北通2丁目122番地,10:00～24:00,,
1504,すき家,葛飾東新小岩店,35.7240456712072,139.864303243896,124-0023,東京都葛飾区東新小岩2丁目2番8号,24時間営業,,
1505,すき家,東大宮駅前店,35.9484505492396,139.641186162674,337-0051,埼玉県さいたま市見沼区東大宮5-1-2　東大宮東口扶桑ビル1Ｆ,24時間営業,,
1506,すき家,鶴見豊岡町店,35.5134318238335,139.674279278852,230-0062,神奈川県横浜市鶴見区豊岡町40-20,24時間営業,,
1507,すき家,新宿二丁目店,35.6914556119495,139.709054582267,160-0022,東京都新宿区新宿二丁目15番15号　新宿ヤマトビル1F,24時間営業,,
1508,すき家,宇治東IC店,34.9057059366658,135.806680407674,611-0013,京都府宇治市菟道西隼上り1-26,24時間営業,,
1509,すき家,イーアスつくば店,36.0868198708335,140.083885803191,305-0817,茨城県つくば市研究学園5丁目19番地,10:00～21:00,,
1510,すき家,1国静岡馬渕店,34.9677795613151,138.382136160122,422-8063,静岡県静岡市駿河区馬渕1丁目17番38号,24時間営業,,
1511,すき家,三好莇生店,35.1035269795125,137.093637473597,470-0206,愛知県みよし市莇生町川向29-1,24時間営業,,
1512,すき家,浜松入野店,34.698865707768,137.691635888152,432-8061,静岡県浜松市西区入野町6148-1,24時間営業,,
1513,すき家,足立入谷店,35.7963283739041,139.761933694988,121-0836,東京都足立区入谷7-1-7　フーファイゼンハウス1階,24時間営業,,
1514,すき家,西淀川大和田店,34.7062346092777,135.447490811939,555-0032,大阪府大阪市西淀川区大和田二丁目1番17号,24時間営業,,
1515,すき家,19号瑞浪店,35.3564359440429,137.247210018346,509-6107,岐阜県瑞浪市穂並1丁目64番地,月火 9:00～24:00 水～金 5:00～24:00,土日 9:00～24:00,
1516,すき家,1国三島谷田店,35.1182058023537,138.929040202487,411-0801,静岡県三島市谷田60-1,9:00～23:00,,
1517,すき家,野田花井店,35.9407689161055,139.882316490734,278-0026,千葉県野田市花井200-1,24時間営業,,
1518,すき家,39号北見大町店,43.813307124835,143.904709374316,090-0016,北海道北見市大町21-1,24時間営業,,
1519,すき家,四ツ橋駅前店,34.674927425882,135.49654567957,550-0014,大阪府大阪市西区北堀江一丁目7番12号,24時間営業,,
1520,すき家,日野大坂上店,35.6785672566915,139.390337200479,191-0061,東京都日野市大坂上1-29-2-1,24時間営業,,
1521,すき家,297号大多喜店,35.2866098006881,140.252771957754,298-0204,千葉県夷隅郡大多喜町船子311-3,24時間営業,,
1522,すき家,大正泉尾店,34.654192833397,135.472421693362,551-0031,大阪府大阪市大正区泉尾五丁目1番4号,24時間営業,,
1523,すき家,成城学園駅前店,35.6397831227321,139.599992130266,157-0066,東京都世田谷区成城二丁目35番12号,24時間営業,,
1524,すき家,川越笠幡店,35.9121670090103,139.423062892797,350-1175,埼玉県川越市大字笠幡181-1,24時間営業,,
1525,すき家,柏増尾台店,35.8207116692961,139.972682847469,277-0052,千葉県柏市増尾台四丁目13番4号,24時間営業,,
1526,すき家,広島高取北店,34.4742465959817,132.439066618909,731-0144,広島県広島市安佐南区高取北一丁目2番32号,24時間営業,,
1527,すき家,港区小割通店,35.1160553290057,136.869128042012,455-0077,愛知県名古屋市港区小割通二丁目33番地,24時間営業,,
1528,すき家,414号沼津三枚橋店,35.0998268930102,138.863034586039,410-0037,静岡県沼津市三枚橋町10番1号,24時間営業,,
1529,すき家,豊中熊野町店,34.7883363550406,135.477685357124,560-0014,大阪府豊中市熊野町一丁目7番15号,24時間営業,,
1530,すき家,江田駅前店,35.558249338044,139.551963762233,225-0013,神奈川県横浜市青葉区荏田町2364-1,24時間営業,,
1531,すき家,3号八女店,33.2203473141708,130.558748293402,834-0063,福岡県八女市本村字荷稲559番1,24時間営業,,
1532,すき家,烏丸押小路店,35.0121504011268,135.759916612165,604-0845,京都府京都市中京区烏丸御池上ル二条殿町538　ヤサカ烏丸御池ビル1階,24時間営業,,
1533,すき家,日本橋小伝馬町店,35.6918245876596,139.779895348682,103-0001,東京都中央区日本橋小伝馬町15-18　ユニゾ小伝馬町ビル1F,24時間営業,,
1534,すき家,西葛西駅前店,35.6642100262661,139.858546477227,134-0088,東京都江戸川区西葛西六丁目8番11号　葛西産業ビル,24時間営業,,
1535,すき家,八幡東枝光店,33.8775628584761,130.813601865405,805-0002,福岡県北九州市八幡東区枝光一丁目5番,24時間営業,,
1536,すき家,世田谷赤堤通り店,35.656671255625,139.62832011112,156-0045,東京都世田谷区桜上水二丁目1番8号,24時間営業,,
1537,すき家,258号多度店,35.1350860993758,136.648100799597,511-0102,三重県桑名市多度町香取284番2,9:00～23:00,,
1538,すき家,14号江戸川松江店,35.7030571518991,139.868258048573,132-0025,東京都江戸川区松江1丁目8番8号,24時間営業,,
1539,すき家,201号田川店,33.6541708547668,130.809907736452,825-0002,福岡県田川市大字伊田4338番地,24時間営業,,
1540,すき家,9号山口小郡店,34.098100497304,131.392772777412,754-0002,山口県山口市小郡下郷字竹ノ下2255番39,24時間営業,,
1541,すき家,8号加賀加茂店,36.3079048162413,136.361601977465,922-0241,石川県加賀市加茂町チ65番1,5:00～24:00,,
1542,すき家,不動前駅西店,35.625818812245,139.71298366721,141-0031,東京都品川区西五反田四丁目29番14号　オザワＳＡＮＴビル1階,24時間営業,,
1543,すき家,門真下馬伏店,34.7297392273038,135.617260908153,571-0009,大阪府門真市下馬伏町26番6号,24時間営業,,
1544,すき家,大和りんかんモール店,35.5024654642827,139.449779539428,242-0001,神奈川県大和市下鶴間1749番6,24時間営業,,
1545,すき家,練馬南大泉店,35.7357474114573,139.57440872499,178-0064,東京都練馬区南大泉1丁目17番17号,24時間営業,,
1546,すき家,高槻下田部店,34.8336842022967,135.616224818982,569-0062,大阪府高槻市下田部町1丁目3番28号,24時間営業,,
1547,すき家,横浜羽衣町店,35.4436685638605,139.632950923506,231-0047,神奈川県横浜市中区羽衣町2-8-5,24時間営業,,
1549,すき家,八千代村上店,35.7230854402152,140.115545200473,276-0029,千葉県八千代市村上南三丁目2番4,24時間営業,,
1550,すき家,10号宇佐店,33.5300711037016,131.336454999348,879-0456,大分県宇佐市大字辛島286番1,24時間営業,,
1552,すき家,グリナード永山店,35.6292104948626,139.448416871955,206-0025,東京都多摩市永山1丁目4番地　グリナード永山1階,24時間営業,,
1553,すき家,富山五福店,36.6966086166676,137.194191044263,930-0887,富山県富山市五福字中割2325番地3,24時間営業,,
1554,すき家,静岡八幡店,34.9711814155534,138.397803035691,422-8076,静岡県静岡市駿河区八幡二丁目14番16号,24時間営業,,
1555,すき家,蓮田西新宿店,36.0024280719418,139.654961422051,349-0141,埼玉県蓮田市西新宿2丁目105番,24時間営業,,
1556,すき家,朝倉甘木店,33.4065583116435,130.658823907802,838-0065,福岡県朝倉市一木626番1,24時間営業,,
1557,すき家,廿日市宮内店,34.3482714571414,132.311724106446,738-0034,広島県廿日市市宮内字北山1076-3,24時間営業,,
1558,すき家,248号幸田大草店,34.8711818955351,137.176829041126,444-0103,愛知県額田郡幸田町大字大草字検行132番2,月 10:00～22:00 火～金 10:00～24:00,土 10:00～24:00 ,日 10:00～22:00
1559,すき家,愛知工業大学店,35.1838884259055,137.111939197717,470-0356,愛知県豊田市八草町八千草1247,月〜金 10:00〜20:00,土 10:00～14:30,日祝休（大学の行事により変則営業になる場合があります）
1560,すき家,高田馬場駅北店,35.7155329764737,139.705611259548,171-0033,東京都豊島区高田三丁目15番7号　第一大島ビル1階,24時間営業,,
1561,すき家,馬込沢駅前店,35.7422129019523,139.991940418314,273-0047,千葉県船橋市藤原七丁目2番2号　サミット内1階,24時間営業,,
1562,すき家,車道駅前店,35.1739618392114,136.928510721706,461-0003,愛知県名古屋市東区筒井三丁目26番25号　第29オーシャンビル1階,24時間営業,,
1563,すき家,西千葉駅前店,35.622329050372,140.102814786115,260-0033,千葉県千葉市中央区春日二丁目37番1　竹久ビル1F,24時間営業,,
1564,すき家,1国横浜権太坂店,35.4342971855678,139.576172181561,240-0025,神奈川県横浜市保土ヶ谷区狩場町218-21,24時間営業,,
1565,すき家,JR岡山駅店,34.6658649819265,133.917600004649,700-0024,岡山県岡山市北区駅元町1-1　サンフェスタ岡山1階,24時間営業,,
1566,すき家,サカエチカ店,35.1698049587922,136.906721611571,460-0008,愛知県名古屋市中区栄3-4-6　先路下の地下街路付設　北第１号,8:00～21:00,,
1567,すき家,新青梅街道花小金井店,35.7378575162681,139.513816715493,187-0002,東京都小平市花小金井3丁目21-14,24時間営業,,
1568,すき家,生野巽東店,34.6528367566576,135.561501857778,544-0014,大阪府大阪市生野区巽東三丁目13番10号,24時間営業,,
1569,すき家,1国城東関目店,34.7133747478955,135.546857230867,536-0008,大阪府大阪市城東区関目五丁目3番3号,24時間営業,,
1570,すき家,イオン那覇店,26.1969946751771,127.666036377495,901-0155,沖縄県那覇市金城5丁目10番地2　イオン那覇1階,10:00～22:00,,
1571,すき家,アリオ上田店,36.3991310119521,138.24499164077,386-0025,長野県上田市天神3丁目5番1号　アリオ上田　フードコート2階,9:00～21:00,,
1572,すき家,みらい長崎ココウォーク店,32.7626860868837,129.864682564297,852-8104,長崎県長崎市茂里町1番55号　みらい長崎ココウォーク3階,10:00～21:00,,
1573,すき家,北参道駅南店,35.6771851393824,139.705934387394,151-0051,東京都渋谷区千駄ヶ谷三丁目13番20号　第7宮庭マンション1階,24時間営業,,
1574,すき家,八王子みなみ野駅前店,35.6314104183748,139.330287414534,192-0916,東京都八王子市みなみ野一丁目3-1,24時間営業,,
1575,すき家,大国町駅前店,34.6554031538747,135.498180331732,556-0012,大阪府大阪市浪速区敷津東三丁目11番10号　AKI難波ビル1階,24時間営業,,
1576,すき家,神宮前三丁目店,35.6707569624109,139.707328734258,150-0001,東京都渋谷区神宮前三丁目23番3号　トリニティビル1階,24時間営業,,
1577,すき家,赤坂六丁目店,35.6714137796138,139.735871611332,107-0052,東京都港区赤坂六丁目3番1号　アスモビル,24時間営業,,
1578,すき家,石狩花川店,43.1484313488237,141.283789876891,061-3206,北海道石狩市花川南6条1丁目11-50,24時間営業,,
1579,すき家,155号知多新舞子店,34.9487584271429,136.833096237899,478-0034,愛知県知多市旭南2-48-1,24時間営業,,
1580,すき家,3号黒崎店,33.865031262591,130.75681993591,806-0031,福岡県北九州市八幡西区熊西二丁目1番29号,24時間営業,,
1581,すき家,玉津IC南店,34.6819835254761,134.982499156868,651-2144,兵庫県神戸市西区小山3丁目13番13号,24時間営業,,
1582,すき家,名東大針店,35.1508005592547,137.015557614597,465-0064,愛知県名古屋市名東区大針3丁目3番,24時間営業,,
1583,すき家,20号笛吹一宮店,35.6452172190249,138.675075915718,405-0075,山梨県笛吹市一宮町東原25-1,5:00～24:00,,
1584,すき家,豊洲四丁目店,35.655821547959,139.798880152057,135-0061,東京都江東区豊洲四丁目8番14号,24時間営業,,
1585,すき家,豊中浜店,34.7544314645136,135.483072304286,561-0817,大阪府豊中市浜四丁目3番7の2,24時間営業,,
1586,すき家,名鉄岐阜駅前店,35.4119984209903,136.75918437885,500-8833,岐阜県岐阜市神田町九丁目14番,24時間営業,,
1587,すき家,西新宿五丁目駅前店,35.690161175308,139.685672139318,160-0023,東京都新宿区西新宿四丁目3番12号　渡辺西新宿ビル1階,24時間営業,,
1588,すき家,325号菊池店,32.9778559162199,130.806736086403,861-1331,熊本県菊池市隈府字北原597番2,24時間営業,,
1589,すき家,1国緑区境松店,35.0620368998639,136.978138698371,458-0820,愛知県名古屋市緑区境松1丁目327番1,10:00～22:00 ,,
1590,すき家,294号真岡東光寺店,36.4407968101578,140.024780523455,321-4309,栃木県真岡市東光寺1丁目25番10号,24時間営業,,
1591,すき家,綱島駅西口店,35.5369799629698,139.632428059132,223-0053,神奈川県横浜市港北区綱島西一丁目10番10号　第5吉田ビル1階,24時間営業,,
1592,すき家,西日暮里一丁目店,35.7369205290824,139.775978319689,116-0013,東京都荒川区西日暮里一丁目1番1号　パレスいしかわ　1階,24時間営業,,
1593,すき家,東久留米下里店,35.7518689298255,139.505611196219,203-0043,東京都東久留米市下里2-6-7,24時間営業,,
1594,すき家,ベイドリーム清水店,34.9857122171533,138.500867973812,424-0906,静岡県静岡市清水区駒越北町8番3号,月～金 6:00～23:00,土日 9:00～23:00,
1595,すき家,496号行橋店,33.7259317605883,130.967234699568,824-0031,福岡県行橋市西宮市四丁目2番11号,24時間営業,,
1596,すき家,枚方山之上店,34.8059380941626,135.653228023517,573-0049,大阪府枚方市山之上北町1番8号,24時間営業,,
1597,すき家,中村烏森店,35.1521564804097,136.853958472824,453-0855,愛知県名古屋市中村区烏森町六丁目195番,24時間営業,,
1598,すき家,11号高松春日店,34.3395998228235,134.089287714035,761-0101,香川県高松市春日町1626-1,24時間営業,,
1599,すき家,17号さいたま辻店,35.8395133588618,139.65975213699,336-0026,埼玉県さいたま市南区辻三丁目2番28号,24時間営業,,
1600,すき家,武蔵小金井北口店,35.702197307887,139.506160660025,184-0004,東京都小金井市本町5丁目18番5号　第55東京ビル,24時間営業,,
1601,すき家,鴨居駅北口店,35.5113529472731,139.566838852963,226-0003,神奈川県横浜市緑区鴨居1丁目15-13　鴨居駅前SHOP-M＆Iビル1階,24時間営業,,
1602,すき家,名古屋古出来店,35.1802833101694,136.940113078168,461-0049,愛知県名古屋市東区古出来一丁目5番10号,24時間営業,,
1603,すき家,294号那須烏山店,36.6625204635265,140.160409327731,321-0622,栃木県那須烏山市城東字改場後21番1,24時間営業,,
1604,すき家,南浦和駅東口店,35.8473535344577,139.670105916104,336-0017,埼玉県さいたま市南区南浦和二丁目38番1号　北原ビル1階,24時間営業,,
1605,すき家,高知中万々店,33.5704957386344,133.519127980026,780-0972,高知県高知市中万々字目賀計27番地1,24時間営業,,
1606,すき家,中川山王駅前店,35.152417062009,136.888850563068,454-0011,愛知県名古屋市中川区山王三丁目13番14号,24時間営業,,
1607,すき家,463号BP所沢上新井店,35.7927392993045,139.44307534115,359-1142,埼玉県所沢市上新井3-1-3,24時間営業,,
1610,すき家,東京駅京橋店,35.6790688564728,139.771244710025,104-0031,東京都中央区京橋1-1-9　レオ八重洲ビル1階,24時間営業,,
1611,すき家,東海加木屋店,34.9774292003359,136.909801602948,477-0032,愛知県東海市加木屋町大清水77番1,24時間営業,,
1612,すき家,香里園駅前店,34.7840142068563,135.63038731883,572-0084,大阪府寝屋川市香里南之町20-23,24時間営業,,
1613,すき家,八王子東町店,35.658394640048,139.339646505845,192-0082,東京都八王子市東町5-5,24時間営業,,
1614,すき家,上前津駅南店,35.1567321702513,136.905568142658,460-0013,愛知県名古屋市中区上前津1-4-12　上前津グリーンビル1F,24時間営業,,
1615,すき家,小倉北神岳店,33.8722503529765,130.892075037347,802-0045,福岡県北九州市小倉北区神岳二丁目6番30号,24時間営業,,
1616,すき家,17号沼田店,36.6516217629097,139.023065396073,378-0032,群馬県沼田市硯田町590番5号,24時間営業,,
1617,すき家,等々力駅前店,35.6088408734197,139.647507942244,158-0082,東京都世田谷区等々力3丁目5番6号,24時間営業,,
1618,すき家,川崎塩浜店,35.5279247291959,139.738524942623,210-0827,神奈川県川崎市川崎区四谷下町1-3,24時間営業,,
1619,すき家,151号新城店,34.8908646883121,137.473144637167,441-1351,愛知県新城市稲木字仲野69番10,10:00～22:00,,
1620,すき家,横須賀野比店,35.2182821611928,139.683259068215,239-0841,神奈川県横須賀市野比一丁目4番25号,24時間営業,,
1621,すき家,新座大和田店,35.8136320495182,139.55353076144,352-0004,埼玉県新座市大和田四丁目14番7号,24時間営業,,
1622,すき家,神保町駅前店(旧：神田神保町一丁目店）,35.6965681475652,139.758302756835,101-0051,東京都千代田区神田神保町1-14　KDX神保町ビル1階,24時間営業,,
1623,すき家,408号稲敷角崎店,35.9080689089423,140.285971973241,300-1412,茨城県稲敷市柴崎5568,24時間営業,,
1625,すき家,小平上水本町店,35.717017438664,139.477176551377,187-0022,東京都小平市上水本町四丁目12番7号,24時間営業,,
1626,すき家,219号人吉店,32.2148294043567,130.73911155967,868-0014,熊本県人吉市下薩摩瀬町1587-5,24時間営業,,
1627,すき家,イオン秦野店,35.3781262927843,139.228807783013,257-0041,神奈川県秦野市入船町12-1,10:00～21:00,,
1628,すき家,六本木五丁目店,35.6619280781036,139.733041172072,106-0032,東京都港区六本木5-9-22　第2千陽ビル1階,24時間営業,,
1630,すき家,広島堀越店,34.3748091117564,132.514883790023,734-0052,広島県広島市南区堀越二丁目3番7号,24時間営業,,
1631,すき家,茶屋町店,34.70567365493,135.500738637807,530-0013,大阪府大阪市北区茶屋町1番52号　コモド梅田ビル1階,24時間営業,,
1632,すき家,1国磐田一言店,34.7256626724746,137.840983639932,438-0811,静岡県磐田市一言2626-1,24時間営業,,
1633,すき家,高円寺駅南口店,35.7047462237758,139.650536330165,166-0003,東京都杉並区高円寺南四丁目45番2号　メインロードビル1階,24時間営業,,
1634,すき家,10号宮崎島之内店,31.9969481405788,131.463534485283,880-0121,宮崎県宮崎市大字島之内997番1,24時間営業,,
1635,すき家,高知本町店,33.5597480757271,133.539404846501,780-0870,高知県高知市本町1-2-1　白木ビル1階,24時間営業,,
1636,すき家,安城桜井店,34.9233186368986,137.08689272064,444-1154,愛知県安城市桜井町山ノ寺61番3,10:00～24:00,,
1637,すき家,横浜日野中央店,35.3857227399265,139.580810977453,234-0053,神奈川県横浜市港南区日野中央二丁目42番1号,24時間営業,,
1638,すき家,三鷹駅北口店,35.7065025156276,139.560319297292,180-0013,東京都武蔵野市西久保1-6-25　西川ビル1階,24時間営業,,
1639,すき家,松山大街道店,33.8405998796007,132.770321896941,790-0004,愛媛県松山市大街道二丁目5番地6　だるまやビル1階,24時間営業,,
1640,すき家,四条堀川店,35.0034822938519,135.751584925465,600-8499,京都府京都市下京区四条通堀川西入唐津屋町540番地,10:00～22:00,,
1641,すき家,新座駅前店,35.8038164737651,139.55587990721,352-0011,埼玉県新座市野火止5丁目3番11号,24時間営業,,
1642,すき家,鳩ヶ谷里店,35.8365093523823,139.730041437852,334-0005,埼玉県川口市里466-1,24時間営業,,
1643,すき家,堺筋本町店,34.6832442153266,135.506794167704,541-0053,大阪府大阪市中央区本町1丁目7番1号　三星本町ビル1階,24時間営業,,
1644,すき家,毛呂山小田谷店,35.9371540135522,139.309164534716,350-0446,埼玉県入間郡毛呂山町大字小田谷220番1号,24時間営業,,
1645,すき家,港南二丁目店,35.6286404531504,139.744689793007,108-0075,東京都港区港南二丁目4番7号　石橋ビル1階,24時間営業,,
1646,すき家,161号安曇川店,35.327496377979,136.029360270013,520-1221,滋賀県高島市安曇川町青柳字南澤1199番1,10:00～22:00,,
1647,すき家,伊勢崎連取店,36.3128654496669,139.179411343644,372-0812,群馬県伊勢崎市連取町1804-2,24時間営業,,
1648,すき家,仙台定禅寺通店,38.2657511063593,140.870488477189,980-0811,宮城県仙台市青葉区一番町4丁目11番1号101,24時間営業,,
1649,すき家,阪急園田駅前店,34.7519980455533,135.447366492783,661-0953,兵庫県尼崎市東園田町九丁目17番16号　メゾン・ドゥ・ファミリー1階,24時間営業,,
1650,すき家,堺高須店,34.5899802598974,135.488480538691,590-0003,大阪府堺市堺区高須町2丁目1番16号,24時間営業,,
1651,すき家,221号小林店,31.9821587690372,130.995480704394,886-0003,宮崎県小林市堤3013-1,24時間営業,,
1652,すき家,上越高土店,37.1217802320132,138.252216098472,943-0823,新潟県上越市高土町一丁目1番4号,24時間営業,,
1653,すき家,池下駅南店,35.1668026275479,136.945706289954,464-0848,愛知県名古屋市千種区春岡一丁目5番4号　池下トーホービル1階,24時間営業,,
1654,すき家,イオンモール直方店,33.7678879246035,130.750099411623,822-0008,福岡県直方市湯野原2丁目1番1号,9:00～21:00,,
1655,すき家,伏見通り栄店,35.1638740440817,136.897550424107,460-0008,愛知県名古屋市中区栄一丁目24番7号,24時間営業,,
1657,すき家,135号下田店,34.6770654195186,138.956981806154,415-0013,静岡県下田市柿崎字間戸浜6番22号,24時間営業,,
1658,すき家,東高円寺駅前店,35.6981917794233,139.658113780454,166-0003,東京都杉並区高円寺南一丁目7-1　陽輪台高円寺1階,24時間営業,,
1659,すき家,16号千葉長沼店,35.6623117094733,140.118215277158,263-0005,千葉県千葉市稲毛区長沼町135-4,24時間営業,,
1660,すき家,42号有田店,34.0795290016841,135.121397307019,649-0316,和歌山県有田市宮崎町34番１,24時間営業,,
1662,すき家,築地四丁目店,35.6655355827933,139.771302828362,104-0045,東京都中央区築地4-12-2　シグネットビル1階,24時間営業,,
1663,すき家,浦和仲町店,35.8597280350054,139.653676432974,330-0062,埼玉県さいたま市浦和区仲町一丁目4番12号　誠志堂ビル1階,24時間営業,,
1664,すき家,印西西の原店,35.8044499082017,140.13804458535,270-1337,千葉県印西市草深字天王前1048番7,24時間営業,,
1665,すき家,49号会津坂下店,37.564761044462,139.818605613419,969-6551,福島県河沼郡会津坂下町字館ノ下107番,24時間営業,,
1666,すき家,札幌屯田店,43.1352662061592,141.338130414615,002-0856,北海道札幌市北区屯田6条4丁目4番20,24時間営業,,
1667,すき家,横須賀中央店,35.279744814718,139.670845324566,238-0007,神奈川県横須賀市若松町1丁目4　味ビル1階,24時間営業,,
1668,すき家,浅草六区店,35.7146154387781,139.793250967843,111-0032,東京都台東区浅草2-9-14　木村ビル1階,24時間営業,,
1669,すき家,虎ノ門四丁目店,35.6650876480843,139.743672921404,105-0001,東京都港区虎ノ門四丁目1番19号,24時間営業,,
1670,すき家,都島本通店,34.7076983294874,135.526310587517,534-0021,大阪府大阪市都島区都島本通三丁目20番１号,24時間営業,,
1671,すき家,周南久米店,34.0294395690577,131.841545057783,745-0801,山口県周南市大字久米1142番地の1,24時間営業,,
1672,すき家,所沢下新井店,35.8087615245234,139.493650403166,359-0031,埼玉県所沢市下新井1454-3,24時間営業,,
1673,すき家,499号南長崎店,32.6840818932989,129.842989652008,850-0982,長崎県長崎市柳田町28番地1,10:00～22:00,,
1674,すき家,184号尾道店,34.4140613823919,133.187388909422,722-0026,広島県尾道市栗原西二丁目７番14号,24時間営業,,
1675,すき家,OBPツイン21店,34.6932471867626,135.531425828129,540-0001,大阪府大阪市中央区城見二丁目1番61号　ツイン21　ギャラリー2階,月〜金 7:00〜22:00,土日祝 10:00～20:00,
1676,すき家,川口駅東口店,35.8029738776179,139.720145748324,332-0017,埼玉県川口市栄町3-9-13　Ｋ21ビル1階,24時間営業,,
1677,すき家,内環状新深江店,34.6698209791331,135.557380306889,537-0002,大阪府大阪市東成区深江南二丁目12番22号,24時間営業,,
1678,すき家,105号北秋田店,40.2310592905632,140.381024186259,018-3302,秋田県北秋田市栄字前綱76,24時間営業,,
1679,すき家,310号大阪狭山店,34.4875362250269,135.552529381152,589-0012,大阪府大阪狭山市東茱萸木1丁目691-1,月・10:00～24:00,火～土・0:00～24:00,日・0:00～23:00
1680,すき家,イオンモール茨木店,34.8107373121802,135.558334016724,567-0033,大阪府茨木市松ヶ本町8番30号　イオンモール茨木フードコート1F,9:00～22:00,,
1681,すき家,26号西住之江店,34.6056923982619,135.484476258861,559-0005,大阪府大阪市住之江区西住之江1丁目9番21号,24時間営業,,
1682,すき家,春日井桃山店,35.2829387037765,136.971048559835,486-0802,愛知県春日井市桃山町3-224-2,24時間営業,,
1683,すき家,329号西原店,26.2134004208066,127.761475473712,903-0112,沖縄県中頭郡西原町字我謝786番2,24時間営業,,
1684,すき家,久留米東町店,33.3139091893171,130.523401365156,830-0032,福岡県久留米市東町1-5,24時間営業,,
1685,すき家,勝どき三丁目店,35.6578967452736,139.77517563625,104-0054,東京都中央区勝どき3丁目7番6号,24時間営業,,
1686,すき家,東淀川大桐店,34.7449888083603,135.543532440152,533-0011,大阪府大阪市東淀川区大桐一丁目7番8号,24時間営業,,
1687,すき家,11号四国中央三島店,33.9731481047849,133.528077584826,799-0423,愛媛県四国中央市具定町倉之内499番3,9:00～翌1:00,,
1688,すき家,西宮北IC店,34.8345780785315,135.239308858128,651-1412,兵庫県西宮市山口町下山口3丁目5番23号,5:00～24:00,,
1689,すき家,貝塚北町店,34.450591496569,135.357747814325,597-0011,大阪府貝塚市北町17-15,24時間営業,,
1690,すき家,新青梅街道東村山店,35.7496351851117,139.452478767231,189-0024,東京都東村山市富士見町三丁目2番1,24時間営業,,
1691,すき家,文京白山店,35.7228519282725,139.754030234715,113-0023,東京都文京区向丘1-10-4,24時間営業,,
1692,すき家,324号天草店,32.4617653624541,130.191006819785,863-0019,熊本県天草市小松原町7番12号,24時間営業,,
1693,すき家,京王リトナード東府中店,35.6692139720971,139.494880060089,183-0015,東京都府中市清水ヶ丘1丁目8番3号　京王リトナード東府中1階,24時間営業,,
1694,すき家,10号都城都北店,31.7637548740214,131.088984106921,885-0004,宮崎県都城市都北町5928番1,24時間営業,,
1695,すき家,255号大井松田店,35.3318919113588,139.15603595559,258-0019,神奈川県足柄上郡大井町金子1627番1,24時間営業,,
1696,すき家,足利葉鹿店,36.362305567842,139.393505731187,326-0143,栃木県足利市葉鹿町1丁目29番3,24時間営業,,
1697,すき家,うるま前原店,26.3383841180104,127.847921706004,904-2235,沖縄県うるま市字前原169番4の3,24時間営業,,
1699,すき家,イオンモール高岡店,36.7240759125665,137.016744516257,933-0813,富山県高岡市下伏間江383,10:00～22:00,,
1700,すき家,54号広島可部店,34.5252596605302,132.513417817346,731-0221,広島県広島市安佐北区可部7丁目1-26,24時間営業,,
1701,すき家,1国鶴見下末吉店,35.5210265146232,139.671277511769,230-0012,神奈川県横浜市鶴見区下末吉四丁目4番18号　コーポ鶴石1階,24時間営業,,
1702,すき家,茨木IC店,34.8325941425323,135.55842022535,567-0072,大阪府茨木市郡四丁目11番36号,5:00～24:00,,
1703,すき家,235号静内店,42.3420113007687,142.354174226574,056-0026,北海道日高郡新ひだか町静内末広町2丁目1番20号,24時間営業,,
1704,すき家,29号宍粟店,35.0087507140676,134.548408216716,671-2573,兵庫県宍粟市山崎町今宿字中筋98番14,24時間営業,,
1705,すき家,4号小山間々田店,36.2732586279796,139.770849049045,329-0205,栃木県小山市間々田五料2416-5,24時間営業,,
1706,すき家,16号柏IC店,35.9115284811603,139.932806421795,277-0805,千葉県柏市大青田1237,24時間営業,,
1707,すき家,福岡渡辺通五丁目店,33.5890307300774,130.403885566827,810-0004,福岡県福岡市中央区渡辺通五丁目2番27号,24時間営業,,
1709,すき家,船橋三咲店,35.7525895151179,140.036515683013,274-0812,千葉県船橋市三咲4丁目19番1号,24時間営業,,
1710,すき家,212号日田店,33.3122646964539,130.939932681665,877-0024,大分県日田市南元町20番7号,月～金 10:00～22:30,土日 10:00～22:00,
1711,すき家,42号尾鷲店,34.0737746275129,136.187470979983,519-3658,三重県尾鷲市倉ノ谷町1034番40,24時間営業,,
1713,すき家,156号岐阜芥見店,35.453316379824,136.847629297688,501-3132,岐阜県岐阜市芥見長山3丁目8番3,10:00～22:00,,
1714,すき家,秋葉原駅岩本町店(旧：岩本町三丁目店）,35.6952483246494,139.776261603921,101-0032,東京都千代田区岩本町三丁目3番5号　秋葉原ＳＨビル1階,24時間営業,,
1715,すき家,名古屋大野木店,35.2219255890716,136.896201751917,452-0803,愛知県名古屋市西区大野木四丁目30番地,24時間営業,,
1716,すき家,博多駅前四丁目店,33.5862973632877,130.417037933731,812-0011,福岡県福岡市博多区博多駅前四丁目3番22号　産恵ビル1階,24時間営業,,
1717,すき家,331号南城店,26.185364746954,127.773859902814,901-1400,沖縄県南城市佐敷字津波古1356番2,24時間営業,,
1718,すき家,桜上水駅前店,35.6671432644166,139.632518169162,156-0045,東京都世田谷区桜上水四丁目10番16号　間瀬ビル1階,24時間営業,,
1720,すき家,247号美浜店,34.763314491035,136.919341225532,470-2411,愛知県知多郡美浜町新浦戸1丁目11番4,24時間営業,,
1721,すき家,防府新田店,34.0361710477358,131.569851200637,747-0825,山口県防府市大字新田573番1,24時間営業,,
1722,すき家,妙法寺駅前店,34.67451016096,135.109880866501,654-0131,兵庫県神戸市須磨区横尾1丁目5番　リファーレ横尾1階,10:00～23:00,,
1723,すき家,博多ＢＰ店,33.6239051158549,130.439149365682,812-0063,福岡県福岡市東区原田三丁目9番22号,24時間営業,,
1725,すき家,新越谷駅東口店,35.8748346398463,139.790349942309,343-0845,埼玉県越谷市南越谷一丁目17番11号　新越谷プラザビル1階,24時間営業,,
1726,すき家,天下茶屋駅前店,34.636742607474,135.495756114541,557-0041,大阪府大阪市西成区岸里一丁目1番79号　とれび天下茶屋,24時間営業,,
1727,すき家,柏原片山店,34.5694535069494,135.628192103185,582-0020,大阪府柏原市片山町14番1号,24時間営業,,
1728,すき家,名古屋栄生店,35.1847275256909,136.874707749824,451-0052,愛知県名古屋市西区栄生1丁目34番17号,24時間営業,,
1729,すき家,渋谷南平台店,35.655790049853,139.697018335261,150-0036,東京都渋谷区南平台町1-10　いちご南平台ビル1F,24時間営業,,
1730,すき家,126号山武松尾店,35.6549506683906,140.474717120066,289-1512,千葉県山武市松尾町八田7番1号,24時間営業,,
1731,すき家,イオン北谷店,26.3146467378479,127.757135338759,904-0115,沖縄県中頭郡北谷町宇美浜8-3　イオン北谷店2階,10:00～22:00,,
1732,すき家,1国岡崎栄町店,34.9488695313403,137.183240486954,444-0012,愛知県岡崎市栄町五丁目2-1,月～金 5:00～24:00,土日 0:00～24:00,
1733,すき家,北赤羽駅浮間口店,35.789583329522,139.702187023038,115-0051,東京都北区浮間三丁目28番9号,24時間営業,,
1734,すき家,セントラルパーク店,35.1734345924422,136.907974118196,460-0003,愛知県名古屋市中区錦三丁目15番13号先　セントラルパーク地下街内,月～土 8:00～21:30　日祝 8:00～20:30,,
1735,すき家,桜新町駅前店,35.6315545140362,139.645159035874,154-0015,東京都世田谷区桜新町1-12-13　第5吉田ビル1階,24時間営業,,
1736,すき家,那覇真嘉比店,26.2235722448754,127.705551871959,902-0068,沖縄県那覇市字真嘉比3-15-16,24時間営業,,
1737,すき家,寺田町駅前店,34.6479938489151,135.524405994889,545-0001,大阪府大阪市阿倍野区天王寺町北二丁目1番5号,24時間営業,,
1738,すき家,台東下谷店,35.7268162799509,139.788897712013,110-0004,東京都台東区下谷3丁目19番8号,24時間営業,,
1739,すき家,桜土浦IC店,36.0573264327318,140.15172902695,305-0042,茨城県つくば市下広岡字向山1055-321,24時間営業,,
1740,すき家,287号長井店,38.1023566325129,140.043193595951,993-0003,山形県長井市東町6番31号,24時間営業,,
1741,すき家,207号時津店,32.8323929648454,129.858351269219,851-2102,長崎県西彼杵郡時津町浜田郷627番1,24時間営業,,
1742,すき家,和泉はつが野店,34.4525856418445,135.464150552517,594-1106,大阪府和泉市はつが野一丁目1番13号,24時間営業,,
1743,すき家,236号帯広大通店,42.9294644236521,143.204111867496,080-0010,北海道帯広市大通南3丁目1番地1,24時間営業,,
1744,すき家,川崎宿河原店,35.6188461295901,139.58031611731,214-0021,神奈川県川崎市多摩区宿河原4丁目2-2,24時間営業,,
1745,すき家,266号宇城松橋店,32.6568770542818,130.687488825368,869-0511,熊本県宇城市松橋町曲野133-4,24時間営業,,
1746,すき家,千川駅前店,35.7373909229288,139.690087375638,171-0043,東京都豊島区要町三丁目10番10号,24時間営業,,
1747,すき家,231号留萌店,43.9366509176767,141.648889927382,077-0043,北海道留萌市旭町2丁目1番1号,10:00～24:00,,
1748,すき家,ＪＲ尼崎駅北口店,34.7343924298374,135.431531118578,661-0976,兵庫県尼崎市潮江1丁目3番43号,24時間営業,,
1749,すき家,西五反田一丁目店,35.6236703153912,139.722271328143,141-0031,東京都品川区西五反田一丁目24番4号　タキゲンビル1階,24時間営業,,
1750,すき家,34号東長崎店,32.7817763790418,129.950599272169,851-0133,長崎県長崎市矢上町52番2号,24時間営業,,
1751,すき家,豊田曙店,35.0568698791392,137.132964133739,471-0842,愛知県豊田市土橋区画整理地区91街区1番地,24時間営業,,
1752,すき家,府中浅間店,35.6798623418995,139.498562041758,183-0001,東京都府中市浅間町4丁目19番1,24時間営業,,
1753,すき家,淀川通塚本店,34.7146632779556,135.470593782923,532-0026,大阪府大阪市淀川区塚本2-14-19,24時間営業,,
1754,すき家,中山駅南口店,35.5142915756129,139.538111658972,226-0014,神奈川県横浜市緑区台村町278番地4　石渡フラワーセンタービル1階,24時間営業,,
1755,すき家,晴海二丁目店,35.6554415882484,139.782957325262,104-0053,東京都中央区晴海二丁目5番24号　晴海センタービル1階,24時間営業,,
1756,すき家,16号春日部八丁目店,35.9924947323574,139.768706877437,344-0006,埼玉県春日部市八丁目字樋籠1156-1,24時間営業,,
1757,すき家,丹南篠山口IC店,35.0644983037283,135.181158933681,669-2205,兵庫県篠山市網掛字十ノ坪403-1,24時間営業,,
1758,すき家,四条梅津店,35.0037245037011,135.70465158986,615-0932,京都府京都市右京区梅津上田町59番地,24時間営業,,
1759,すき家,東郷三ツ池店,35.0942243497285,137.02924297208,470-0164,愛知県愛知郡東郷町三ツ池二丁目3番5,24時間営業,,
1760,すき家,古河坂間店,36.1685581830604,139.708550432892,306-0056,茨城県古河市坂間253-178,24時間営業,,
1761,すき家,浜松志都呂店,34.6968966040264,137.651375155773,432-8066,静岡県浜松市西区志都呂町2-20-24,10:00～22:00,,
1762,すき家,水道橋駅東口店,35.7018130955331,139.755635792367,101-0061,東京都千代田区三崎町1-4-26,24時間営業,,
1763,すき家,練馬関町南店,35.7212778334999,139.589480084049,177-0053,東京都練馬区関町南一丁目11番2号,24時間営業,,
1764,すき家,富田林小金台店,34.5006559149876,135.583312331648,584-0083,大阪府富田林市小金台1丁目3番10号,24時間営業,,
1765,すき家,井ノ頭通り吉祥寺店,35.6981375446048,139.590269139609,180-0003,東京都武蔵野市吉祥寺南町3丁目33番3号,24時間営業,,
1766,すき家,新宿御苑前駅店（旧新宿一丁目店）,35.6897880717387,139.712444099778,160-0022,東京都新宿区新宿1-19-7　新花ビル1階,24時間営業,,
1767,すき家,十三駅西口店,34.7190124486178,135.481551839268,532-0024,大阪府大阪市淀川区十三本町1-7-1　カネイシビル,24時間営業,,
1768,すき家,13号福島矢野目店,37.7917299230429,140.460425470794,960-0113,福島県福島市北矢野目字原田66番13,24時間営業,,
1769,すき家,東神奈川駅東口店,35.4773124716542,139.63331545515,221-0044,神奈川県横浜市神奈川区東神奈川1-10-1　ザ・ステーションタワー東神奈川1F,24時間営業,,
1770,すき家,486号井原店,34.5965897730547,133.465534627056,715-0019,岡山県井原市井原町115番,月～金 9:00～翌5:00,土日 9:00～24:00,
1771,すき家,灘中郷店,34.7161436311388,135.245434913997,657-0032,兵庫県神戸市灘区中郷町3丁目2番13号,24時間営業,,
1772,すき家,江東区役所前店（旧東陽四丁目店）,35.671753207937,139.816540729538,135-0016,東京都江東区東陽四丁目10-7,24時間営業,,
1773,すき家,三鷹井口店,35.6899040423054,139.5460809663,181-0011,東京都三鷹市井口二丁目13番42号,24時間営業,,
1774,すき家,佐原店,35.9002861059124,140.491311944982,287-0003,千葉県香取市佐原イ264,24時間営業,,
1775,すき家,函館鍛治店,41.8078205082772,140.771097797384,041-0852,北海道函館市鍛治2丁目9番11号,24時間営業,,
1776,すき家,白岡岡泉店,36.0066053424926,139.699210332647,349-0225,埼玉県白岡市太田新井1187-4,9:00～23:00,,
1777,すき家,329号那覇古波蔵店,26.2002741085161,127.685482111538,900-0024,沖縄県那覇市古波蔵3丁目14番2号,24時間営業,,
1778,すき家,朝霞駅南口店,35.7960200047499,139.598967521158,351-0011,埼玉県朝霞市本町二丁目3-18,24時間営業,,
1779,すき家,姫路継店,34.7946949531082,134.720739594656,672-8004,兵庫県姫路市継205-1,24時間営業,,
1780,すき家,横浜羽沢店,35.4914807297133,139.588543243262,221-0863,神奈川県横浜市神奈川区羽沢町1566番地1,24時間営業,,
1781,すき家,209号筑後店,33.2050296393397,130.502650046528,833-0031,福岡県筑後市山ノ井346-3,24時間営業,,
1782,すき家,25号王寺本町店,34.5942163696612,135.705175680631,636-0012,奈良県北葛城郡王寺町本町１丁目17番17号,24時間営業,,
1783,すき家,16号袖ヶ浦神納店,35.4207941946232,139.958364673702,299-0257,千葉県袖ヶ浦市神納1154-1,24時間営業,,
1784,すき家,清水鳥坂店,35.01162240464,138.431721134426,424-0067,静岡県静岡市清水区鳥坂字山鼻1231番1,24時間営業,,
1785,すき家,新丸子駅東口店,35.5801747713655,139.663322948803,211-0004,神奈川県川崎市中原区新丸子東1-827　クリア・ハウス田中1階,24時間営業,,
1786,すき家,192号吉野川店,34.0683756987288,134.355120070333,776-0013,徳島県吉野川市鴨島町上下島字宮内87番8,24時間営業,,
1787,すき家,須坂墨坂店,36.6478784647787,138.302439304672,382-0099,長野県須坂市墨坂4丁目2番20号,24時間営業,,
1788,すき家,船橋市場店,35.7048911844754,139.999033769983,273-0001,千葉県船橋市市場五丁目1番19号,24時間営業,,
1789,すき家,東十条三丁目店,35.7658924333719,139.728450099469,114-0001,東京都北区東十条3丁目15番12号　シティハイツ東十条103号,24時間営業,,
1790,すき家,50号筑西蓮沼店,36.325604778493,140.014131434293,309-1115,茨城県筑西市蓮沼1534-1,24時間営業,,
1791,すき家,269号宮崎清武店,31.8607546740556,131.385262812496,889-1603,宮崎県宮崎市清武町正手3丁目17-1,24時間営業,,
1792,すき家,小金井中町店,35.694678880771,139.518363603892,184-0012,東京都小金井市中町二丁目8-2,24時間営業,,
1793,すき家,イオンモール福津店,33.7535363779667,130.494159939117,811-3209,福岡県福津市日蒔野6丁目16番地の1,10:00～22:00,,
1794,すき家,那覇曙店,26.2401850552898,127.681926680155,900-0002,沖縄県那覇市曙二丁目23番地1,24時間営業,,
1795,すき家,守山志段味店,35.2390893714004,137.011105863343,463-0803,愛知県名古屋市守山区日の後706,9:30～22:00,,
1796,すき家,三郷中央駅前店,35.8247882174961,139.879544283719,341-0038,埼玉県三郷市中央3丁目48番地5,24時間営業,,
1797,すき家,枚方中宮東之町店,34.822146060059,135.667830508915,573-1195,大阪府枚方市中宮東之町22番13号,24時間営業,,
1798,すき家,足立西綾瀬店,35.7638133635974,139.816682312043,120-0014,東京都足立区西綾瀬三丁目11番13号,24時間営業,,
1799,すき家,19号長野中御所店,36.6421547445089,138.181627379329,380-0935,長野県長野市中御所4丁目3-4,月・0:00～24:00　火・0:00～翌5:00　水・10:00～24:00,木・0:00～24:00　金・0:00～翌5:00　土・10:0～24:00　日・0:00～24:00,
1800,すき家,笠間友部店,36.328464848992,140.321929906879,309-1717,茨城県笠間市旭町427-2,24時間営業,,
1801,すき家,広島深川店,34.4806317508706,132.534741434742,739-1751,広島県広島市安佐北区深川六丁目2番12号,24時間営業,,
1802,すき家,高津末長店,35.5900531758406,139.616566932535,213-0013,神奈川県川崎市高津区末長2丁目11番18号,24時間営業,,
1803,すき家,江古田駅前店,35.7369695738029,139.67388096319,176-0005,東京都練馬区旭丘1-71-7　土井ビル1階,24時間営業,,
1804,すき家,北九州空港通り店,33.8041285153769,130.97403386753,800-0365,福岡県京都郡苅田町大字苅田3787番11,24時間営業,,
1805,すき家,武豊IC店,34.8385743014707,136.89225862036,470-2373,愛知県知多郡武豊町字嶋田58番200,24時間営業,,
1806,すき家,深川店,34.4806317508706,132.534741434742,074-0003,北海道深川市3条18番25号,24時間営業,,
1807,すき家,134号横須賀池田店,35.2440567270416,139.689012125816,239-0806,神奈川県横須賀市池田町5丁目14-12,24時間営業,,
1808,すき家,鵜の木駅前店,35.5753894688859,139.680314258038,146-0091,東京都大田区鵜の木2-15-2　山口ビル1階,24時間営業,,
1809,すき家,関西国際空港店,34.434883975466,135.244452391132,549-0001,大阪府泉佐野市泉州空港北1番地　関西国際空港　旅客ターミナルビル2階　町家小路内,24時間営業,,
1810,すき家,松戸駅西口店,35.7858191284916,139.899807728592,271-0091,千葉県松戸市本町19番地23　宝星ビル1階,24時間営業,,
1811,すき家,270号南さつま店,31.4204398827991,130.323034915734,897-0006,鹿児島県南さつま市加世田本町13番5,24時間営業,,
1814,すき家,四街道IC店,35.6822384156617,140.178887654145,284-0027,千葉県四街道市栗山812-6,24時間営業,,
1815,すき家,新橋三丁目店,35.6659413761987,139.755599113856,105-0004,東京都港区新橋三丁目10番9号　ホテル新橋三番館1階,24時間営業,,
1816,すき家,新宿ＮＳビル店,35.6880965330096,139.693507694763,163-0801,東京都新宿区西新宿2-4-1　新宿ＮＳビル1階,7:00～23:00,,
1817,すき家,4号福島松浪店,37.7654136161929,140.4789048701,960-8114,福島県福島市松浪町11番7号,24時間営業,,
1818,すき家,美馬脇町店,34.0643948238128,134.153432836914,779-3602,徳島県美馬市脇町大字猪尻字東分63番1,24時間営業,,
1819,すき家,53号岡山IC店,34.6801864571421,133.898920340966,700-0087,岡山県岡山市北区津島京町一丁目3番18号,24時間営業,,
1820,すき家,小手指駅北口店,35.801033328002,139.438256748306,359-1141,埼玉県所沢市小手指町1-1-1,24時間営業,,
1821,すき家,宜野湾我如古店,26.2580134905708,127.749226936655,901-2214,沖縄県宜野湾市我如古四丁目7番3号,24時間営業,,
1823,すき家,花小金井駅北口店,35.7263856946638,139.514212766397,187-0002,東京都小平市花小金井1丁目9番18号　花小金井第一ビル,24時間営業,,
1824,すき家,134号三浦三崎口店,35.1742438012684,139.634707072682,238-0112,神奈川県三浦市初声町三戸236,24時間営業,,
1826,すき家,3号水俣店,32.2031201485559,130.391961207143,867-0049,熊本県水俣市百間町一丁目12番1,24時間営業,,
1827,すき家,26号泉大津店,34.4955351046468,135.426049794623,595-0012,大阪府泉大津市北豊中町二丁目17番24号,24時間営業,,
1828,すき家,イオンモール桑名店,35.0724338919727,136.662868013679,511-0863,三重県桑名市新西方1-22　イオンモール桑名ショッピングセンター1番街1階,9:00～21:00,,
1829,すき家,亀戸駅北口店,35.6985554963099,139.825423757653,136-0071,東京都江東区亀戸2-22-10　カトウビル1階,24時間営業,,
1830,すき家,イオンモール甲府昭和店,35.6228545278754,138.527195337906,409-3852,山梨県中巨摩郡昭和町飯喰1505-1　イオンモール甲府昭和3階,10:00～21:00,,
1831,すき家,312号和田山IC店,35.3279863520506,134.854075353797,669-5261,兵庫県朝来市和田山町枚田592-1,月 10:00～24:00 火～金 0:00～24:00,土 0:00～22:00,日 10:00～22:00
1832,すき家,9号安来店,35.4285255899553,133.263325612392,692-0023,島根県安来市黒井田町452番17,24時間営業,,
1833,すき家,福井花堂店,36.0438391174914,136.215357671177,918-8012,福井県福井市花堂北1丁目2番28号,24時間営業,,
1834,すき家,摂津本山駅前店,34.726729146215,135.276132154968,658-0072,兵庫県神戸市東灘区岡本1丁目3-33,24時間営業,,
1835,すき家,京成大久保駅前店,35.6866964885152,140.048149695423,275-0011,千葉県習志野市大久保1-21-14　琴富ビル1階,24時間営業,,
1836,すき家,都島IC店,34.721167254361,135.531333716817,534-0011,大阪府大阪市都島区高倉町三丁目14番27号,24時間営業,,
1837,すき家,226号指宿店,31.2645799041596,130.626168028761,891-0311,鹿児島県指宿市西方2164番1,24時間営業,,
1838,すき家,129号厚木IC店,35.4238503431994,139.359017919291,243-0021,神奈川県厚木市岡田3018番,24時間営業,,
1839,すき家,247号西尾一色店,34.8139408184573,137.019095887598,444-0422,愛知県西尾市一色町味浜上浜47番1,24時間営業,,
1840,すき家,200号直方店,33.751796950934,130.738948856381,822-0002,福岡県直方市大字頓野字縄手下3891番11,24時間営業,,
1841,すき家,一之江駅前店,35.686673069272,139.884060823934,132-0024,東京都江戸川区一之江3丁目2-14,24時間営業,,
1842,すき家,追浜駅前店,35.3157896144713,139.62565713988,237-0064,神奈川県横須賀市追浜町三丁目8番,24時間営業,,
1843,すき家,取手青柳店,35.8945212135133,140.080505771961,302-0006,茨城県取手市青柳132-1,24時間営業,,
1844,すき家,金沢増泉店,36.5578214969999,136.636452088006,921-8025,石川県金沢市増泉4丁目3番2号,24時間営業,,
1845,すき家,千種鏡池通店,35.1594811346457,136.958529451022,464-0826,愛知県名古屋市千種区川崎町二丁目7番,24時間営業,,
1846,すき家,札幌新道発寒店,43.0969718218054,141.29790857389,063-0832,北海道札幌市西区発寒12条1丁目2番30号,24時間営業,,
1847,すき家,268号伊佐店,32.0557916103994,130.607165674163,895-2511,鹿児島県伊佐市大口里801番1,24時間営業,,
1848,すき家,3号山鹿店,33.0135219200598,130.685037606603,861-0517,熊本県山鹿市大橋通401番2,24時間営業,,
1849,すき家,183号三次店,34.8031550021691,132.851124752692,728-0012,広島県三次市十日市中1丁目1番10号,月～金 9:00～翌1:00　土日 9:00～22:00,,
1850,すき家,JR神戸駅北店,34.6813086670998,135.177307175981,650-0015,兵庫県神戸市中央区多聞通2丁目4-4　神戸ブックローンビル東館1F,24時間営業,,
1851,すき家,烏丸丸太町店,35.017217901614,135.759169774181,604-0861,京都府京都市中京区烏丸丸太町下る大倉町201,24時間営業,,
1852,すき家,川口青木店,35.8116133135394,139.724853015128,332-0031,埼玉県川口市青木3丁目8番5号,24時間営業,,
1853,すき家,45号おいらせ店,40.5993874362896,141.417124512087,039-2115,青森県上北郡おいらせ町菜飯52番4,24時間営業,,
1854,すき家,渋谷二丁目店,35.6586402175172,139.70816727811,150-0002,東京都渋谷区渋谷二丁目12番地13　八千代ビル1階,24時間営業,,
1855,すき家,高輪三丁目店,35.6308120465405,139.737889702198,108-0074,東京都港区高輪3-25-23　京急第2ビル1階,24時間営業,,
1856,すき家,42号熊野店,33.8845638525895,136.097669928197,519-4324,三重県熊野市井戸町字うまどめ4899番,24時間営業,,
1857,すき家,京王稲田堤駅前店,35.6336597834129,139.530347918337,214-0001,神奈川県川崎市多摩区菅3-1-1,24時間営業,,
1858,すき家,8号彦根野口店,35.2216537943787,136.235196660305,522-0221,滋賀県彦根市野口町字若松277番2,10:00～22:00,,
1859,すき家,明石大久保IC店,34.7102297881438,134.941502927586,674-0051,兵庫県明石市大久保町大窪字大澤2700-1,24時間営業,,
1860,すき家,16号見沼深作店,35.9490240690325,139.671275581811,337-0003,埼玉県さいたま市見沼区深作二丁目29-14,24時間営業,,
1861,すき家,愛知大学店,35.1613965765608,136.884239143676,453-0872,愛知県名古屋市中村区平池町4丁目60番6号,月〜金 10:00〜20:00,土 10:00～17:00,日祝休（大学の行事により変則営業になる場合があります）
1862,すき家,220号志布志店,31.4674011920674,131.083124350803,899-7104,鹿児島県志布志市志布志町安楽123番21,月～金 9:00～24:00　土日 0:00～24:00,,
1863,すき家,筑紫野永岡店,33.4820787968888,130.544748515298,818-0066,福岡県筑紫野市大字永岡169-1,24時間営業,,
1864,すき家,南堀江店,34.6725564991214,135.492581395752,550-0015,大阪府大阪市西区南堀江二丁目1番1号　EG堀江ビル1F,24時間営業,,
1865,すき家,梅屋敷駅東店,35.5667776303754,139.729060884,144-0031,東京都大田区東蒲田1-1-1　プラムパーク嶋田1階,24時間営業,,
1866,すき家,西台駅西店,35.786416999595,139.670270930551,175-0082,東京都板橋区高島平1-75-15　高桐マンション1階,24時間営業,,
1867,すき家,二本松店,37.5902612364332,140.431021634179,964-0905,福島県二本松市松岡265番10,24時間営業,,
1868,すき家,熊本新市街店,32.7988949525812,130.705284696864,860-0803,熊本県熊本市中央区新市街7番25号　第二新世界会館ビル1F,24時間営業,,
1869,すき家,8号白山乾店,36.5252424012114,136.584137099547,924-0803,石川県白山市乾町166番,24時間営業,,
1870,すき家,草加八幡店,35.8502034380674,139.809260617092,340-0006,埼玉県草加市八幡町26-1,24時間営業,,
1871,すき家,川口末広店,35.8043087281134,139.73566328703,332-0006,埼玉県川口市末広一丁目19番3号,24時間営業,,
1872,すき家,4号郡山安積店,37.3549760786747,140.364764082036,963-0107,福島県郡山市安積3丁目43番,24時間営業,,
1873,すき家,横浜笠間店,35.3613366369682,139.543269107061,247-0006,神奈川県横浜市栄区笠間五丁目33番26号,24時間営業,,
1874,すき家,238号紋別店,44.3644040707939,143.335549599629,094-0007,北海道紋別市落石町4-13-13,24時間営業,,
1875,すき家,大森町駅前店,35.571902695219,139.732350930327,143-0015,東京都大田区大森西3-25-7　エストジュール大森町1階、2階,24時間営業,,
1876,すき家,福知山東野パーク店,35.2976530556458,135.163428559043,620-0808,京都府福知山市字土小字東野1117番594,24時間営業,,
1877,すき家,勝田台駅南店,35.7133100228951,140.127210515138,276-0023,千葉県八千代市勝田台1丁目37番8　スプリングＩＩ1階,24時間営業,,
1879,すき家,イオンモール柏店,35.8518506516973,139.961979802498,277-0854,千葉県柏市豊町2-5-25　イオンモール柏2階,10:00～21:00,,
1880,すき家,36号千歳店,42.8303812133836,141.634358463218,066-0037,北海道千歳市新富1丁目19番4号,24時間営業,,
1881,すき家,関平賀店,35.4832492886172,136.943006942793,501-3822,岐阜県関市市平賀字岩下394番1,24時間営業,,
1882,すき家,大井町一丁目店,35.6076421681243,139.730191963941,140-0014,東京都品川区大井1-17　ブリリア大井町ラヴィアンタワー1階,24時間営業,,
1883,すき家,富士見下南畑店,35.8512221717837,139.568074489361,354-0004,埼玉県富士見市大字下南畑字島崎5006-4,24時間営業,,
1884,すき家,4号栗原店,38.7388761817059,141.020800596921,989-5625,宮城県栗原市志波姫堀口宮中113番8,24時間営業,,
1885,すき家,鶴見市場駅前店,35.5181801504258,139.687066887097,230-0025,神奈川県横浜市鶴見区市場大和町8-8　戸川ビル1階,24時間営業,,
1886,すき家,44号根室店,43.3208962575901,145.562901836856,087-0025,北海道根室市西浜町8丁目92番-1,24時間営業,,
1887,すき家,500号小郡店,33.3928441491748,130.543280523956,838-0141,福岡県小郡市小郡字江下1483-4,24時間営業,,
1888,すき家,大山崎IC店,34.9050227039386,135.696937330975,618-0081,京都府乙訓郡大山崎町字下植野小字五条本19番,24時間営業,,
1890,すき家,イトーヨーカドー三郷店,35.8430824831957,139.854113886632,341-0051,埼玉県三郷市ピアラシティ一丁目1番地1　イトーヨーカドー三郷1F,10:00～21:00,,
1891,すき家,長岡天神駅前店,34.9260887098596,135.69269060253,617-0824,京都府長岡京市天神1-1-2　マルオカビル1階,24時間営業,,
1892,すき家,153号飯田IC店,35.5010713638177,137.807053252771,395-0153,長野県飯田市上殿岡576-1,24時間営業,,
1893,すき家,125号久喜栗橋店,36.1306121454795,139.703036526997,349-1104,埼玉県久喜市栗橋1301番3号,24時間営業,,
1894,すき家,58号読谷店,26.3921528589894,127.755234705478,904-0303,沖縄県中頭郡読谷村伊良皆661-1,24時間営業,,
1895,すき家,ノクティプラザ店,35.5989571578201,139.612808779091,213-0001,神奈川県川崎市高津区溝口1丁目4番1号　ノクティプラザ2　1階フードコート内,10:30～22:00,,
1897,すき家,東池袋五丁目店,35.7247955916532,139.721216481479,170-0013,東京都豊島区東池袋5-7-7　金誠堂ビル1階,24時間営業,,
1898,すき家,ときわ台駅北口店,35.759286071808,139.689560577854,174-0071,東京都板橋区常盤台二丁目6番5号,24時間営業,,
1899,すき家,本八幡駅南口店,35.7201785602261,139.926505200592,272-0023,千葉県市川市南八幡四丁目6-2　高橋ビル1階,24時間営業,,
1900,すき家,2国下関長府店,34.0141437000021,130.998408561606,752-0933,山口県下関市長府松小田本町24番6号,24時間営業,,
1901,すき家,永福町駅前店,35.6756244910511,139.643358267258,168-0064,東京都杉並区永福2-51-13,24時間営業,,
1902,すき家,市原能満店,35.5219569354598,140.130441002481,290-0011,千葉県市原市能満4番8号,24時間営業,,
1903,すき家,加須南大桑店,36.1138872728143,139.639717555707,347-0015,埼玉県加須市南大桑2877-1,24時間営業,,
1904,すき家,上池袋二丁目店,35.7366662447136,139.719974649118,170-0012,東京都豊島区上池袋2-40-10　ニューキャッスル上池袋1階,24時間営業,,
1905,すき家,札幌駅前通北一条店,43.0617701449778,141.352116526225,060-0001,北海道札幌市中央区北1条西3-2-5　北尾ビル1F,24時間営業,,
1906,すき家,202号糸島前原店,33.5603925719805,130.206747424332,819-1119,福岡県糸島市前原東一丁目6番13号,24時間営業,,
1907,すき家,188号柳井店,33.9620813559694,132.103876928541,742-0031,山口県柳井市南町3丁目7-1,24時間営業,,
1908,すき家,住吉遠里小野店,34.5984409025206,135.497565505719,558-0032,大阪府大阪市住吉区遠里小野二丁目10番30号,24時間営業,,
1909,すき家,10号高鍋店,32.1188078608112,131.525808424467,884-0002,宮崎県児湯郡高鍋町大字北高鍋2970番地1,24時間営業,,
1910,すき家,大森ベルポート店,35.5886281145713,139.731554670749,140-0013,東京都品川区南大井六丁目26-3　大森ベルポートD館1階,9:00～22:00,,
1911,すき家,阪急茨木市駅前店,34.8167622757551,135.577239669196,567-0829,大阪府茨木市双葉町8-1　奥村ビル1階,24時間営業,,
1912,すき家,191号益田店,34.6808615199594,131.839297470803,698-0025,島根県益田市あけぼの西町13番1,24時間営業,,
1913,すき家,相模大野駅南口店,35.5309763766811,139.438059199957,252-0303,神奈川県相模原市南区相模大野8丁目2-6　第一島ビル1階,24時間営業,,
1914,すき家,宝塚中筋店,34.8155889295819,135.378487062782,665-0874,兵庫県宝塚市中筋6丁目13-22,24時間営業,,
1915,すき家,大森駅西口店,35.5885022198868,139.727271421155,143-0023,東京都大田区山王2-4-4,24時間営業,,
1916,すき家,船堀駅前店,35.6829658935343,139.864021270015,134-0091,東京都江戸川区船堀3-5-7　船堀駅前トキビル1階,24時間営業,,
1917,すき家,鹿児島宇宿店,31.5530928514276,130.526051947116,890-0073,鹿児島県鹿児島市宇宿六丁目22番1号,24時間営業,,
1918,すき家,2国岩国室の木店,34.17058974639,132.207139584871,740-0021,山口県岩国市室の木町一丁目8番38号,24時間営業,,
1919,すき家,bono相模大野店,35.5305980311614,139.435044745504,252-0303,神奈川県相模原市南区相模大野3丁目3番2-203号　bono相模大野,24時間営業,,
1920,すき家,ポルカ高梁店,34.7841436406238,133.610923916362,716-0045,岡山県高梁市中原町1079番1,7:00～24:00,,
1921,すき家,港区甚兵衛通店,35.1033468542873,136.846824646139,455-0822,愛知県名古屋市港区甚兵衛通2丁目24番1,10:00～22:00,,
1923,すき家,船橋日大前店,35.7276006494932,140.059758792239,274-0060,千葉県船橋市坪井東一丁目2番38号,24時間営業,,
1924,すき家,鶴瀬駅西口店,35.8459608221558,139.538104442836,354-0021,埼玉県富士見市鶴馬2602-2　鶴瀬駅西口ビル1階,24時間営業,,
1925,すき家,54号広島IC店,34.4688379274299,132.482171899217,731-0103,広島県広島市安佐南区緑井五丁目19番36号,24時間営業,,
1926,すき家,13号尾花沢店,38.597999521811,140.397074717035,999-4221,山形県尾花沢市大字尾花沢下新田1731番2,9:00～24:00,,
1927,すき家,中葛西店,35.6597805996091,139.86424676334,134-0083,東京都江戸川区中葛西6-1-10　メゾンド佐久間ＩＩ,24時間営業,,
1928,すき家,イオン東雲店,35.6491062155323,139.802338507396,135-0062,東京都江東区東雲1丁目9番10号　イオン東雲店２階フードコート内,10:00～22:00,,
1929,すき家,117号飯山店,36.8300965582831,138.354937387536,389-2255,長野県飯山市静間2085-1,24時間営業,,
1930,すき家,イオン金沢八景店,35.3339501159228,139.622446014773,236-0021,神奈川県横浜市金沢区泥亀1-27-1　イオン金沢八景　地下1階フードコート内,10:00～22:00,,
1931,すき家,八潮西袋店,35.8140342958042,139.827717694165,340-0833,埼玉県八潮市大字西袋字川東1030-1,24時間営業,,
1932,すき家,熊本野中店,32.7756989460662,130.680551707906,860-0059,熊本県熊本市西区野中一丁目6番12号,24時間営業,,
1933,すき家,202号唐津鏡店,33.4363677639447,130.014869903858,847-0022,佐賀県唐津市鏡4664番1,7:00～24:00,,
1934,すき家,犬山五郎丸店,35.3629997650226,136.94955860245,484-0065,愛知県犬山市五郎丸東3丁目7番1,24時間営業,,
1935,すき家,平塚豊田店,35.3572638506466,139.32700781046,254-0087,神奈川県平塚市豊田本郷1740-1,24時間営業,,
1936,すき家,407号鶴ヶ島IC店,35.9435178779817,139.394441326187,350-2211,埼玉県鶴ヶ島市脚折町5丁目5番40号,24時間営業,,
1937,すき家,191号萩店,34.4055764194953,131.388257049728,758-0074,山口県萩市大字平安古町127番地,7:00～24:00,,
1938,すき家,17号戸田川岸店,35.8053218744516,139.683453687449,335-0015,埼玉県 戸田市川岸3丁目1番4号,24時間営業,,
1939,すき家,312号姫路砥堀店,34.8614353618147,134.723447685462,670-0802,兵庫県姫路市砥堀350-2,24時間営業,,
1940,すき家,佐倉石川店,35.6919257684235,140.229778537188,285-0813,千葉県佐倉市石川535番6,10:00～翌1:00,,
1941,すき家,4号二戸店,40.2766423005344,141.293649350173,028-6104,岩手県二戸市米沢字下村6番地1,9:00～24:00,,
1942,すき家,今池店,35.1673524163908,136.936984211221,464-0850,愛知県名古屋市千種区今池5丁目22-16,24時間営業,,
1943,すき家,千歳船橋駅前店,35.6476863011147,139.623613415735,156-0055,東京都世田谷区船橋1丁目9-24　千歳船橋援興組合会館1階,24時間営業,,
1944,すき家,222号日南店,31.6015942775726,131.381776979929,887-0021,宮崎県日南市中央通一丁目11-23,9:00～24:00,,
1945,すき家,283号遠野店,39.3392725022737,141.528759098464,028-0542,岩手県遠野市早瀬町4丁目7番36号,10:00～24:00,,
1946,すき家,二子玉川駅前店,35.6124801285158,139.627147243384,158-0094,東京都世田谷区玉川2丁目22番13号,24時間営業,,
1947,すき家,うるま安慶名店,26.3742543152593,127.856226309053,904-2213,沖縄県うるま市田場2070番地,24時間営業,,
1948,すき家,港北小机店,35.5093904422676,139.586340379301,222-0036,神奈川県横浜市港北区小机町78番地1,24時間営業,,
1949,すき家,八尾南木の本店,34.6035974364437,135.585152716461,581-0042,大阪府八尾市南木の本４丁目101番1,24時間営業,,
1950,すき家,34号吉野ヶ里店,33.3211227704433,130.390927034867,842-0035,佐賀県神埼郡吉野ヶ里町田手1678-16,24時間営業,,
1951,すき家,165号久居IC店,34.6833652438903,136.472875041102,514-1105,三重県津市久居北口町47番6,24時間営業,,
1952,すき家,小机駅前店,35.5080247146755,139.599933757715,222-0036,神奈川県横浜市港北区小机町2541　神本ビル1階,24時間営業,,
1953,すき家,江戸川興宮店,35.7200077312969,139.8780031254,133-0042,東京都江戸川区興宮町33番17号,24時間営業,,
1954,すき家,4号滝沢店,39.771344604,141.130223689842,020-0611,岩手県滝沢市巣子109-2,24時間営業,,
1955,すき家,大阪港駅前店,34.6539980059008,135.433396332242,552-0021,大阪府大阪市港区築港三丁目6番13号,24時間営業,,
1956,すき家,34号武雄店,33.1956671222056,130.030867436537,843-0023,佐賀県武雄市武雄町大字昭和795-1,24時間営業,,
1957,すき家,宝塚小林店,34.7891050038353,135.357327817315,665-0034,兵庫県宝塚市小林5丁目9番100号,24時間営業,,
1958,すき家,309号堺黒山店,34.5393535933469,135.560141362963,587-0002,大阪府堺市美原区黒山168-1,24時間営業,,
1959,すき家,御徒町駅南口店,35.706894830123,139.774739527377,110-0005,東京都台東区上野五丁目27-2,24時間営業,,
1960,すき家,西都右松店,32.1008054601549,131.405355923557,881-0003,宮崎県西都市右松三丁目33番,7:00～24:00,,
1961,すき家,大鳥居店,35.5542769285602,139.73955614355,144-0034,東京都大田区西糀谷三丁目21番2号,24時間営業,,
1962,すき家,50号桐生広沢店,36.3870305444876,139.320933397527,376-0013,群馬県桐生市広沢町三丁目字反町4023番2,7:00～24:00,,
1963,すき家,135号熱海店,35.0473633951502,139.07304900475,413-0102,静岡県熱海市下多賀572番2,10:00～22:00,,
1964,すき家,本川越クレアモール店,35.9140745171686,139.482918667328,350-0043,埼玉県川越市新富町1-19-4　本川越ASビル1階,24時間営業,,
1965,すき家,平野町一丁目店,34.6877717864077,135.506782571298,541-0046,大阪府大阪市中央区平野町１丁目8-11　ルート北浜ビル1F,24時間営業,,
1966,すき家,23号豊橋花田店,34.7674997343751,137.372371186866,441-8019,愛知県豊橋市花田町字荒木37-1,24時間営業,,
1968,すき家,387号合志店,32.8828708951758,130.748682781429,861-1104,熊本県合志市御代志1736番4号,7:00～24:00,,
1969,すき家,金沢文庫駅東口店,35.3433146679645,139.622338648038,236-0016,神奈川県横浜市金沢区谷津町384番,24時間営業,,
1970,すき家,9号福知山店,35.2960426395582,135.113843584518,620-0940,京都府福知山市駅南町３丁目139,24時間営業,,
1971,すき家,207号鹿島店,33.1115123669414,130.086154220073,849-1311,佐賀県鹿島市大字高津原字四本松5045,24時間営業,,
1972,すき家,稲毛駅西口店,35.6365623447123,140.092323335357,263-0031,千葉県千葉市稲毛区稲毛東3-19-18　能瀬ビル1階,24時間営業,,
1973,すき家,イオンモール札幌苗穂店,43.0799204995054,141.404042766922,007-0802,北海道札幌市東区東苗穂2条3丁目1-1,9:00～21:00,,
1974,すき家,広島丹那店,34.364296835292,132.47921223657,734-0034,広島県広島市南区丹那町5番10号,24時間営業,,
1975,すき家,釧路桜ヶ岡店,42.9674194407067,144.423473019621,085-0805,北海道釧路市桜ヶ岡1丁目9番21号,24時間営業,,
1976,すき家,淀川加島店,34.7292173920594,135.461289996535,532-0031,大阪府大阪市淀川区加島二丁目3番4号,24時間営業,,
1977,すき家,清須西田中店,35.2123705388032,136.850716524958,452-0933,愛知県清須市西田中城下130番地,24時間営業,,
1978,すき家,川崎西生田店,35.6148588142013,139.534663425661,214-0037,神奈川県川崎市多摩区西生田2丁目7-23,24時間営業,,
1979,すき家,217号臼杵店,33.1145172934493,131.786035130361,875-0052,大分県臼杵市市浜1128-1,24時間営業,,
1980,すき家,摂津南別府店,34.7609697646926,135.553016749951,566-0045,大阪府摂津市南別府町3番19号,24時間営業,,
1981,すき家,瑞穂牛巻店,35.1279238251515,136.919319993777,467-0863,愛知県名古屋市瑞穂区牛巻町8-11,24時間営業,,
1982,すき家,2国尼崎杭瀬店,34.7198087625522,135.434428771683,660-0815,兵庫県尼崎市杭瀬北新町3丁目2-18,月 10:00～24:00　火～木 0:00～24:00　金 0:00～22:00,土日祝 10:00～22:00,
1983,すき家,4号金ヶ崎店,39.2184557255139,141.100692434454,029-4502,岩手県胆沢郡金ヶ崎町三ケ尻荒巻159番1,24時間営業,,
1984,すき家,407号熊谷弥藤吾店,36.211304085358,139.369948807362,360-0203,埼玉県熊谷市弥藤吾字新田1519-2,24時間営業,,
1985,すき家,宮崎新別府店,31.9214368429964,131.451646449623,880-0834,宮崎県宮崎市新別府町山宮986番6,24時間営業,,
1986,すき家,21号岐阜各務原IC店,35.3921071450286,136.818775623557,504-0944,岐阜県各務原市那加緑町1丁目24番1,24時間営業,,
1987,すき家,57号大津店,32.8753232879718,130.87125767146,869-1233,熊本県菊池郡大津町大字大津1302-1,24時間営業,,
1988,すき家,121号喜多方店,37.6411110143862,139.886842819602,966-0015,福島県喜多方市関柴町上高額字前田1737-16,24時間営業,,
1989,すき家,36号苫小牧日吉店,42.6209787006315,141.559964283892,053-0816,北海道苫小牧市日吉町1丁目1番5号,24時間営業,,
1990,すき家,高岡中曽根店,36.7706000448123,137.077025145498,934-0092,富山県高岡市中曽根290番3,24時間営業,,
1991,すき家,イオンモール浦和美園店,35.8912771223133,139.731004113803,336-0963,埼玉県さいたま市緑区美園五丁目50番地1　イオンモール浦和美園3Fフードコート,10:00～22:00,,
1992,すき家,鈴鹿ＩＣ店,34.9240992762401,136.492166520609,519-0323,三重県鈴鹿市伊船町1910-1,10:00～22:00,,
1993,すき家,目黒三丁目店,35.6328157526507,139.707889879169,153-0063,東京都目黒区目黒3-9-3　須田ビル,24時間営業,,
1994,すき家,113号角田店,37.9775727128798,140.788080535216,981-1505,宮城県角田市角田字扇町5番5,24時間営業,,
1995,すき家,9号大田店,35.1968616900343,132.480215205259,694-0044,島根県大田市長久町土江103-3,月～水 9:00～23:00 木 9:00～24:00 金 0:00～24:00 ,土 0:00～23:00,日祝 9:00～23:00
1996,すき家,56号須崎店,33.4090788286799,133.296000887696,785-0051,高知県須崎市神田2503-1,24時間営業,,
1997,すき家,254号本庄児玉店,36.1995911802917,139.131910782212,367-0211,埼玉県本庄市児玉町吉田林字千日堂397番3,10:00～22:45,,
1998,すき家,大船渡赤崎店,39.0865500699812,141.718492478325,022-0007,岩手県大船渡市赤崎町字諏訪前38番5号,24時間営業,,
1999,すき家,156号砺波店,36.649505719092,136.962510231857,939-1372,富山県砺波市新又135-1,24時間営業,,
2000,すき家,51号水戸大洗IC店,36.3376763591533,140.54430629234,311-1115,茨城県水戸市大串町965番3,24時間営業,,
2001,すき家,長田浜添通店,34.6535446125124,135.156835710117,653-0024,兵庫県神戸市長田区浜添通6丁目1番25号,24時間営業,,
2002,すき家,118号棚倉店,37.0300784945079,140.374186315561,963-6131,福島県東白川郡棚倉町棚倉字日向前24番1,月～金 10:00～24:00　土日 7:00～24:00,,
2003,すき家,札幌石山通南一条店,43.0572104410946,141.341147924894,060-0061,北海道札幌市中央区南1条西11丁目327番27号,24時間営業,,
2004,すき家,170号羽曳野西浦店,34.545562849738,135.603300270516,583-0861,大阪府羽曳野市西浦3丁目2番1号,24時間営業,,
2005,すき家,9号浜田店,34.8683146178074,132.051322341835,697-0062,島根県浜田市熱田町1418番1,24時間営業,,
2006,すき家,大倉山駅前店,35.5212432799656,139.630545884512,222-0037,神奈川県横浜市港北区大倉山1-17-4　秋本庄次ビル1階,24時間営業,,
2007,すき家,4号仙台郡山店,38.2205489019824,140.896867256758,982-0003,宮城県仙台市太白区郡山字出丸1-1,24時間営業,,
2008,すき家,10号延岡別府町店,32.5663791146287,131.682525911133,882-0861,宮崎県延岡市別府町3895番1,24時間営業,,
2009,すき家,イオンモール北戸田店,35.8265896145959,139.652504445112,335-0032,埼玉県戸田市美女木東1-3-1,9:00～22:00,,
2010,すき家,フォレストモール富士川店,35.5579560286595,138.470154174599,400-0501,山梨県南巨摩郡富士川町青柳町973-1,24時間営業,,
2011,すき家,近鉄奈良駅前店,34.6845413494491,135.827747730851,630-8237,奈良県奈良市中筋町6-1　奈良ラインハウス1階,5:00～24:00,,
2012,すき家,藤が丘駅前店,35.5442245815966,139.527735031312,227-0043,神奈川県横浜市青葉区藤が丘二丁目5番1号,24時間営業,,
2013,すき家,北小金駅前店,35.8326546766179,139.931735142646,270-0014,千葉県松戸市小金1番地　ピコティ東館1階,24時間営業,,
2014,すき家,広島西風新都店,34.4448450858314,132.379306824638,731-5109,広島県広島市佐伯区石内北一丁目3番36号,月～木 0:00～24:00　金～土 10:00～22:00,日 0:00～24:00,
2015,すき家,208号玉名店,32.9321972117994,130.52180435216,865-0065,熊本県玉名市築地字下原809番,24時間営業,,
2016,すき家,地下鉄弘明寺駅前店,35.422930793336,139.601795299192,232-0061,神奈川県横浜市南区大岡二丁目3-1,24時間営業,,
2017,すき家,松山道後樋又店,33.8523253857753,132.775684800524,790-0825,愛媛県松山市道後樋又11番20号,24時間営業,,
2018,すき家,川崎新川通り店,35.5229522606029,139.709874217673,210-0837,神奈川県川崎市川崎区渡田1丁目17-5　石田ビル　1階,24時間営業,,
2019,すき家,水戸柳町店,36.3659242447343,140.484912424223,310-0817,茨城県水戸市柳町1丁目1-8,24時間営業,,
2020,すき家,210号うきは店,33.3404008593599,130.765329220079,839-1312,福岡県うきは市吉井町清瀬515-2,24時間営業,,
2021,すき家,313号真庭店,35.075548964582,133.74409777146,719-3204,岡山県真庭市惣字袋尻146番1,24時間営業,,
2022,すき家,東近江能登川店,35.1844018537985,136.166333816855,521-1221,滋賀県東近江市垣見町523番地1,月～金 9:00～24:00,土日 7:00～24:00 ,
2023,すき家,4号本宮店,37.5299193023234,140.396068148917,969-1174,福島県本宮市本宮字南ノ内34-7,24時間営業,,
2024,すき家,松原南新町店,34.5746524092998,135.533576388209,580-0023,大阪府松原市南新町4丁目107番17,24時間営業,,
2025,すき家,23号弥富店,35.0771717307531,136.774885992525,498-0052,愛知県弥富市稲荷1丁目101番地1,10:00～21:00,※現在閉店中です,
2026,すき家,2国福山引野店,34.4921432230671,133.405136674697,721-0942,広島県福山市引野町五丁目19番30号,24時間営業,,
2027,すき家,11号東かがわ店,34.2433829,134.3539982,769-2705,香川県東かがわ市白鳥字田高田131-1,9:00～24:00,,
2028,すき家,東根店,38.4253948527643,140.392758301171,999-3730,山形県東根市中央南二丁目8番20号,24時間営業,,
2029,すき家,広島新天地店,34.3912056056395,132.462271015572,730-0034,広島県広島市中区新天地5-3　ドン・キホーテ１F,24時間営業,,
2030,すき家,取手中央タウン店,35.9034904758413,140.045489100392,302-0025,茨城県取手市西1丁目31番29号,月～木 9:30～23:00 金 9:00～24:00,土 0:00～24:00,日 9:00～23:00
2031,すき家,349号常陸太田店,36.5324436632249,140.533037981984,313-0013,茨城県常陸太田市山下町字日本杉4284番,7:00～24:00,,
2032,すき家,58号宜野湾大謝名店,26.2693564496426,127.733647985944,901-2225,沖縄県宜野湾市字大謝名70番地2,24時間営業,,
2033,すき家,202号伊万里店,33.2631574561804,129.858959438963,848-0035,佐賀県伊万里市二里町大里乙102-1,24時間営業,,
2034,すき家,296号酒々井店,35.7210287471149,140.260464926392,285-0925,千葉県印旛郡酒々井町上本佐倉193-1,24時間営業,,
2035,すき家,福崎店,34.9464419115099,134.760204885201,679-2203,兵庫県神崎郡福崎町南田原字ハツグロ2970番1,24時間営業,,
2036,すき家,伊勢西IC店,34.4774700066768,136.709258779342,516-0035,三重県伊勢市勢田町419番地6,24時間営業,,
2037,すき家,150号牧之原店,34.7347367601864,138.225985414719,421-0422,静岡県牧之原市静波2161-1,24時間営業,,
2038,すき家,三河島駅前店,35.7327187963726,139.778273600322,116-0014,東京都荒川区東日暮里六丁目1-1　アトラスブランズタワー三河島,24時間営業,,
2039,すき家,豊見城名嘉地店,26.1775425695448,127.664915699606,901-0235,沖縄県豊見城市名嘉地277番2,24時間営業,,
2040,すき家,豊中曽根店,34.765856525943,135.461133877943,561-0804,大阪府豊中市曽根南町3丁目19番24号,24時間営業,,
2041,すき家,3号いちき串木野店,31.7240798923763,130.274588568636,896-0069,鹿児島県いちき串木野市浜ケ城12283番2,24時間営業,,
2042,すき家,立山利田店,36.685855385921,137.293244146478,930-0275,富山県中新川郡立山町利田629番1,5:00～24:00,,
2043,すき家,うるま石川店,26.4295778130017,127.822745431031,904-1106,沖縄県うるま市石川二丁目11番1号,24時間営業,,
2044,すき家,486号備後府中店,34.5617866625477,133.249272801085,726-0013,広島県府中市高木町本堀田643-1,24時間営業,,
2045,すき家,宇都宮平松店,36.5397474973833,139.906715494514,321-0932,栃木県宇都宮市平松本町1223番12,24時間営業,,
2046,すき家,34号小城三日月店,33.262267384179,130.231052189094,845-0032,佐賀県小城市三日月町金田字久本1101番1,24時間営業,,
2047,すき家,1国横浜久保店,35.4523985765642,139.607622625009,220-0061,神奈川県横浜市西区久保町1番32号,24時間営業,,
2048,すき家,戸塚上倉田店,35.3885090121969,139.543488115451,244-0816,神奈川県横浜市戸塚区上倉田町1465-1,24時間営業,,
2049,すき家,57号熊本田井島店,32.7683305403629,130.726704603129,862-0962,熊本県熊本市南区田迎町大字田井島208番,24時間営業,,
2050,すき家,札幌桑園店,43.0703056715457,141.323210478257,060-0000,北海道札幌市中央区北11条西20丁目1番10号,24時間営業,,
2051,すき家,中標津店,43.5443170170012,144.986649406297,086-1006,北海道標津郡中標津町東6条南11丁目1番2号,24時間営業,,
2053,すき家,小倉北西港店,33.8986621882442,130.856724257019,803-0801,福岡県北九州市小倉北区西港町15番70,24時間営業,,
2054,すき家,56号高知大原町店,33.5512848648008,133.526393816758,780-8031,高知県高知市大原町101番1,24時間営業,,
2055,すき家,161号浜大津店,35.0127563039394,135.863020799334,520-0047,滋賀県大津市浜大津4丁目7番10号,24時間営業,,
2056,すき家,塩竈北浜店,38.3211914771207,141.024466747695,985-0003,宮城県塩竈市北浜1丁目13番30号,24時間営業,,
2057,すき家,平塚松風店,35.3203070891871,139.349720681471,254-0812,神奈川県平塚市松風町11番20号,24時間営業,,
2058,すき家,3号鹿児島草牟田店,31.6079868776086,130.536096918533,890-0015,鹿児島県鹿児島市草牟田町3-1,24時間営業,,
2059,すき家,159号かほく店,36.7161828521655,136.697788035419,929-1126,石川県かほく市内日角6-1-1,24時間営業,,
2060,すき家,岡山瀬戸店,34.723236316431,134.043160268553,709-0855,岡山県岡山市東区瀬戸町沖120番1,24時間営業,,
2061,すき家,東京高等裁判所内店,35.675222554804,139.752685317365,100-8920,東京都千代田区霞が関1丁目1番4号B1F,8:00～19:00,,
2062,すき家,登別新生町店,42.3808163220227,141.066351892205,059-0032,北海道登別市新生町4丁目16番4,24時間営業,,
2063,すき家,川崎今井店,35.5770387596112,139.649807826736,211-0066,神奈川県川崎市中原区今井西町1番56号,24時間営業,,
2064,すき家,ベル河口湖店,35.4900786919957,138.763579598081,401-0301,山梨県南都留郡富士河口湖町船津2986番地,24時間営業,,
2065,すき家,９号亀岡篠町店,35.001661018901,135.603830891278,621-0822,京都府亀岡市篠町野条上又13-1,24時間営業,,
2066,すき家,松戸秋山店,35.762587179289,139.932204996672,270-2223,千葉県松戸市秋山1-8-8,24時間営業,,
